{"type":"FeatureCollection","features":[{"type":"Feature","geometry":{"type":"Polygon","coordinates":[[[21.1665344238281,42.6582469199764],[21.1666468576981,42.6582430839616],[21.1666433247712,42.6582017845567],[21.1665344238281,42.6582017845567],[21.1665344238281,42.6582469199764]]]},"properties":{"name":"Innovations Lab Kosovo (Office)","website":"http://kosovoinnovations.org","building":"yes","way_area":"913.336","addr:city":"Prishtina","addr:street":"Rexhep Mala","addr:postcode":"10000","building:levels":"3","addr:housenumber":"5","id":"93463988"}},{"type":"Feature","geometry":{"type":"Polygon","coordinates":[[[21.1674974724407,42.6589210175622],[21.167506365762,42.6590012830371],[21.1675498442217,42.6589987066161],[21.1675733850384,42.6592117071038],[21.1677456718611,42.6592117071038],[21.1677121697936,42.6589082015015],[21.1674974724407,42.6589210175622]]]},"properties":{"building":"yes","way_area":"1370.63","id":"105375169"}},{"type":"Feature","geometry":{"type":"Polygon","coordinates":[[[21.1671816826734,42.6592117071038],[21.1671644669648,42.6590777168127],[21.1669078182882,42.6590956196109],[21.1669220116697,42.6592058769517],[21.1668379572454,42.6592117071038],[21.1671816826734,42.6592117071038]]]},"properties":{"name":"Naim Frasheri;Naim Frashëri","amenity":"school","alt_name":"Shkolla Fillore \"Naim Frashëri\"","building":"yes","int_name":"Elementary School \"Naim Frashëri\"","way_area":"4051.55","addr:street":"Karl Gega","id":"87453236"}}]}