{"type":"FeatureCollection","features":[{"type":"Feature","geometry":{"type":"LineString","coordinates":[[21.1473083496094,42.6662650364715],[21.148681640625,42.6661907596427]]},"properties":{"highway":"service"}},{"type":"Feature","geometry":{"type":"LineString","coordinates":[[21.1481497309545,42.6662807056493],[21.1483612907638,42.6662699987332],[21.148681640625,42.6662537901522]]},"properties":{"name":"Stambolli","highway":"residential","addr:street":"Stambolli"}},{"type":"Feature","geometry":{"type":"LineString","coordinates":[[21.1482959832426,42.6657903101671],[21.1477189055041,42.6656901048588],[21.1473439820285,42.6652708979236]]},"properties":{"highway":"service"}},{"type":"Feature","geometry":{"type":"LineString","coordinates":[[21.1477189055041,42.6656901048588],[21.1473083496094,42.665884634615]]},"properties":{"highway":"service"}},{"type":"Feature","geometry":{"type":"LineString","coordinates":[[21.1486175801143,42.6657348901121],[21.1485048323214,42.6652708979236]]},"properties":{"highway":"service"}},{"type":"Feature","geometry":{"type":"LineString","coordinates":[[21.148681640625,42.6657100203425],[21.1486175801143,42.6657348901121],[21.1482959832426,42.6657903101671]]},"properties":{"highway":"service"}},{"type":"Feature","geometry":{"type":"LineString","coordinates":[[21.1483612907638,42.6662699987332],[21.1483705761419,42.6662807056493]]},"properties":{"highway":"residential"}}]}