{"type":"FeatureCollection","features":[{"type":"Feature","geometry":{"type":"LineString","coordinates":[[21.148681640625,42.6531614662215],[21.1486489869994,42.6531519257789]]},"properties":{"ref":"M-9","name":"Nëna Terezë","oneway":"yes","highway":"trunk","maxspeed":"60"}},{"type":"Feature","geometry":{"type":"LineString","coordinates":[[21.1484979245185,42.6531744009531],[21.1484732208482,42.6532513704365],[21.1483989301742,42.6533344841578]]},"properties":{"highway":"tertiary"}},{"type":"Feature","geometry":{"type":"LineString","coordinates":[[21.148681640625,42.653279932496],[21.1486148851685,42.6532840081114],[21.1483989301742,42.6533344841578],[21.1474343192221,42.6538202809767],[21.1473083496094,42.6538826746086]]},"properties":{"highway":"tertiary"}},{"type":"Feature","geometry":{"type":"LineString","coordinates":[[21.1474343192221,42.6538202809767],[21.1477545594957,42.6541619303399]]},"properties":{"highway":"service"}},{"type":"Feature","geometry":{"type":"LineString","coordinates":[[21.148681640625,42.6532287969061],[21.1484979245185,42.6531744009531],[21.1483904162623,42.6531519257789]]},"properties":{"oneway":"yes","highway":"trunk_link"}}]}