{"type":"FeatureCollection","features":[{"type":"Feature","geometry":{"type":"LineString","coordinates":[[21.1516299905881,42.6655054148891],[21.1515605508166,42.6653774659009],[21.151479522778,42.6652157623115],[21.1514282226562,42.6651193751989]]},"properties":{"highway":"service","id":"113576303"}},{"type":"Feature","geometry":{"type":"LineString","coordinates":[[21.1523684592876,42.6642610737947],[21.1522916896264,42.6649876723423],[21.1522719266901,42.6650458013453],[21.1522217108657,42.6650860952813],[21.152119752081,42.6651438939145]]},"properties":{"name":"Metush Krasniqi","highway":"residential","addr:street":"Metush Krasniqi","id":"47938175"}},{"type":"Feature","geometry":{"type":"LineString","coordinates":[[21.1533140085895,42.6662807056493],[21.1533108283162,42.6662709895485],[21.1532440834906,42.6660039972824],[21.1531736555723,42.6657533854875],[21.153016180903,42.6650833870012],[21.1529887822868,42.6649670629554],[21.1530545245655,42.6642610737947]]},"properties":{"name":"Selim Berisha","highway":"residential","addr:street":"Selim Berisha","id":"4854733"}},{"type":"Feature","geometry":{"type":"LineString","coordinates":[[21.1541748046875,42.6651334918936],[21.1540852659226,42.6651293616918],[21.153016180903,42.6650833870012],[21.1522719266901,42.6650458013453]]},"properties":{"lit":"yes","name":"ShkallÃ«t e Dragodanit","highway":"steps","id":"217583150"}},{"type":"Feature","geometry":{"type":"LineString","coordinates":[[21.1520206679052,42.6661822784898],[21.1517493766893,42.6662571181329],[21.1517197886775,42.6662807056493]]},"properties":{"highway":"residential","id":"113576555"}},{"type":"Feature","geometry":{"type":"LineString","coordinates":[[21.1528991123352,42.6662807056493],[21.1524272454027,42.6657325121349],[21.152119752081,42.6651438939145],[21.1519301177245,42.6647165130363],[21.1517656465493,42.6642610737947]]},"properties":{"name":"24 Maji","highway":"residential","addr:street":"24 Maji","id":"4854678"}},{"type":"Feature","geometry":{"type":"LineString","coordinates":[[21.1519301177245,42.6647165130363],[21.1516299905881,42.6655054148891],[21.1520206679052,42.6661822784898],[21.1520991487071,42.6662807056493]]},"properties":{"name":"Izmail Qemali","highway":"residential","addr:street":"Izmail Qemali","id":"113576421"}},{"type":"Feature","geometry":{"type":"LineString","coordinates":[[21.1541748046875,42.6653634754887],[21.1540852659226,42.6651293616918],[21.1537408732987,42.6642610737947]]},"properties":{"name":"Eduard Lir","highway":"residential","addr:street":"Eduard Lir","id":"29561090"}}]}