{"type":"FeatureCollection","features":[{"type":"Feature","geometry":{"type":"LineString","coordinates":[[21.1532109382682,42.6703197725191],[21.1527651916126,42.6683769647949],[21.1526997961803,42.6683002718908]]},"properties":{"name":"Toni Bleri","highway":"residential","addr:street":"Tony Bleri","id":"50854140"}},{"type":"Feature","geometry":{"type":"LineString","coordinates":[[21.1539399553314,42.6683002718908],[21.1540812235039,42.6684477726215],[21.1541748046875,42.6685996929621]]},"properties":{"name":"Izmail Qemali","highway":"residential","addr:street":"Izmail Qemali","id":"113576421"}},{"type":"Feature","geometry":{"type":"LineString","coordinates":[[21.1516246842772,42.6703197725191],[21.1514282226562,42.6700912926999]]},"properties":{"highway":"unclassified","id":"113576543"}},{"type":"Feature","geometry":{"type":"LineString","coordinates":[[21.1533930241647,42.6683921567795],[21.1534403859818,42.6683002718908]]},"properties":{"name":"Azem Jashanica","highway":"residential","addr:street":"Azem Jashanica","id":"113576323"}},{"type":"Feature","geometry":{"type":"LineString","coordinates":[[21.1540447236858,42.6703197725191],[21.1540332534677,42.6697340567286],[21.15395051863,42.6694334593907],[21.1537150701941,42.6689146927346],[21.1533930241647,42.6683921567795]]},"properties":{"name":"Azem Jashanica","highway":"residential","addr:street":"Azem Jashanica","id":"50854142"}}]}