{"type":"FeatureCollection","features":[{"type":"Feature","geometry":{"type":"LineString","coordinates":[[21.1514282226562,42.6607274147026],[21.1518544795776,42.6608825043336],[21.1523099254266,42.6610259866572],[21.1526675447412,42.661103673081],[21.1530090842123,42.6610618571863]]},"properties":{"highway":"residential","id":"259076089"}},{"type":"Feature","geometry":{"type":"LineString","coordinates":[[21.1514282226562,42.6603198835159],[21.1515487828864,42.6604588596108],[21.151892118988,42.6607665687888],[21.1518544795776,42.6608825043336]]},"properties":{"highway":"residential","id":"259076091"}},{"type":"Feature","geometry":{"type":"LineString","coordinates":[[21.1535618176066,42.6607386913777],[21.1539249166444,42.6605767114811],[21.1539704612293,42.660491889866],[21.1539087503745,42.660221613248]]},"properties":{"highway":"service","id":"124899220"}},{"type":"Feature","geometry":{"type":"LineString","coordinates":[[21.1514282226562,42.6614336701913],[21.1517291645955,42.6615536050429],[21.1520619005767,42.6617972975623],[21.1524930017838,42.6622413763275]]},"properties":{"name":"Ahmet Krasniqi","highway":"secondary","maxspeed":"40","name:old":"Fan S. Noli","name:oldsq":"Fan S. Noli","name:oldsr":"Fane S. Nolija","addr:street":"Ahmet Krasniqi","descriptionold:url":"http://en.wikipedia.org/wiki/Fan_S._Noli","id":"300828274"}},{"type":"Feature","geometry":{"type":"LineString","coordinates":[[21.1528560196587,42.660221613248],[21.1530581322268,42.6604640783923],[21.1532530666434,42.6606791050211],[21.1533408320467,42.6607863868459],[21.1540559808444,42.6616157008149],[21.1541748046875,42.6617699032321]]},"properties":{"highway":"secondary","name:sq":"Tirana","name:old":"Omladinskih brigada","id":"124914625"}},{"type":"Feature","geometry":{"type":"LineString","coordinates":[[21.1534565384242,42.6622413763275],[21.1532679786772,42.6619730805947],[21.1531211939597,42.6617247646217],[21.1530614559933,42.661603611962],[21.1530379201329,42.6614244588505]]},"properties":{"name":"Ekrem Rexha","highway":"residential","addr:street":"Ekrem Rexha","id":"50833768"}},{"type":"Feature","geometry":{"type":"LineString","coordinates":[[21.1520619005767,42.6617972975623],[21.1519497009977,42.6618757757306],[21.1519091026858,42.6622413763275]]},"properties":{"name":"Bekim Berisha","highway":"residential","addr:street":"Bekim Berisha","id":"47938174"}},{"type":"Feature","geometry":{"type":"LineString","coordinates":[[21.1541748046875,42.6616387282232],[21.1539387506998,42.6613494812705],[21.1537381568969,42.6610902629314],[21.153563254911,42.6609154683037],[21.1535021694717,42.6608220593329],[21.1535618176066,42.6607386913777]]},"properties":{"highway":"footway","surface":"asphalt","id":"240258956"}},{"type":"Feature","geometry":{"type":"LineString","coordinates":[[21.1533408320467,42.6607863868459],[21.1535618176066,42.6607386913777],[21.1541748046875,42.6606652948748]]},"properties":{"name":"Garibaldi","highway":"residential","id":"4854727"}}]}