{"type":"FeatureCollection","features":[{"type":"Feature","geometry":{"type":"LineString","coordinates":[[21.1734008789062,42.6593764706916],[21.1734771979609,42.659363500348]]},"properties":{"foot":"yes","name":"Rrustem Statovci","oneway":"no","bicycle":"yes","highway":"residential","surface":"asphalt","cycleway":"no","name:alt":"Isa Kastrati","old_name":"Robert Gajdiku","sidewalk":"both","id":"294952106"}},{"type":"Feature","geometry":{"type":"LineString","coordinates":[[21.1737514770726,42.6582017845567],[21.1738500886354,42.6590906649625]]},"properties":{"name":"Asim Luzha","highway":"residential","id":"206456421"}},{"type":"Feature","geometry":{"type":"LineString","coordinates":[[21.1734771979609,42.659363500348],[21.1752480468805,42.6588741134096]]},"properties":{"highway":"footway","id":"223072790"}},{"type":"Feature","geometry":{"type":"LineString","coordinates":[[21.1761474609375,42.6586905312616],[21.1761310009733,42.6586633745972],[21.1761267788914,42.6586318628074],[21.176138097664,42.6585954623763],[21.1761474609375,42.6585839264347]]},"properties":{"name":"Ibrahim Rugova Memorial","highway":"footway","name:sq":"Memoriali i Ibrahim RugovÃ«s","id":"5884711"}},{"type":"Feature","geometry":{"type":"LineString","coordinates":[[21.1761474609375,42.6594048838905],[21.174900309034,42.6595840799455],[21.1735870619202,42.6596473007281],[21.1734008789062,42.6596614027146]]},"properties":{"highway":"tertiary","name:alt":"Isa Kastrati","old_name":"Robert Gajdiku","id":"4854648"}}]}