{"type":"FeatureCollection","features":[{"type":"Feature","geometry":{"type":"LineString","coordinates":[[21.1545991022652,42.6744426968637],[21.1541748046875,42.6748830204926]]},"properties":{"highway":"residential"}},{"type":"Feature","geometry":{"type":"LineString","coordinates":[[21.1541748046875,42.6756137766022],[21.1545544559955,42.6757532932944],[21.1551552492576,42.6759676726442]]},"properties":{"highway":"residential"}},{"type":"Feature","geometry":{"type":"LineString","coordinates":[[21.1556218498674,42.6743585769338],[21.1556740263341,42.6745002886602],[21.155720918392,42.6746805929072],[21.1557835309673,42.6750219807244],[21.1557939514246,42.675313502905],[21.1556407886686,42.6754381952553],[21.1551552492576,42.6759676726442],[21.1548504508817,42.6762599829134],[21.1547620566577,42.6763445188397],[21.1546692606888,42.6763184976372],[21.1544439632156,42.6761885895922],[21.1541748046875,42.6760604853147]]},"properties":{"name":"Hys Pupova","highway":"residential","addr:street":"Hys Pupova"}},{"type":"Feature","geometry":{"type":"LineString","coordinates":[[21.1557835309673,42.6750219807244],[21.1559869993791,42.674711304018],[21.1564969347068,42.6743585769338]]},"properties":{"name":"Selman Kadria","highway":"residential","addr:street":"Selman Kadria"}},{"type":"Feature","geometry":{"type":"LineString","coordinates":[[21.1569213867188,42.6761184361602],[21.1568583652047,42.6760808059955],[21.1567175093682,42.6759925052013],[21.1563888158057,42.6756932590186],[21.1562218189944,42.6755858708295],[21.1557939514246,42.675313502905],[21.1555278704374,42.6750449643986],[21.1552303484153,42.6747918132881],[21.1545991022652,42.6744426968637],[21.1543797632737,42.6743585769338]]},"properties":{"name":"Ismet Krasniqi","highway":"residential","addr:street":"Ismet Krasniqi"}},{"type":"Feature","geometry":{"type":"LineString","coordinates":[[21.1567471537725,42.6752878114946],[21.1563760597287,42.6750408696067]]},"properties":{"highway":"residential"}},{"type":"Feature","geometry":{"type":"LineString","coordinates":[[21.1563888158057,42.6756932590186],[21.1567471537725,42.6752878114946],[21.1569150488991,42.6750474080646],[21.1569213867188,42.6750411571776]]},"properties":{"name":"Fitush Kukaj","highway":"residential","addr:street":"Fitush Kukaj"}},{"type":"Feature","geometry":{"type":"LineString","coordinates":[[21.1562218189944,42.6755858708295],[21.1557383457085,42.6760493690779]]},"properties":{"highway":"residential"}},{"type":"Feature","geometry":{"type":"LineString","coordinates":[[21.1568583652047,42.6760808059955],[21.1569213867188,42.6760228713607]]},"properties":{"name":"Gjon Sereqi","highway":"residential","addr:street":"Gjon Sereqi"}},{"type":"Feature","geometry":{"type":"LineString","coordinates":[[21.1567175093682,42.6759925052013],[21.1561726448298,42.6763778807196]]},"properties":{"highway":"residential"}},{"type":"Feature","geometry":{"type":"LineString","coordinates":[[21.1569213867188,42.6763117384715],[21.1568690434606,42.6763778807196]]},"properties":{"highway":"residential"}}]}