{"type":"FeatureCollection","features":[{"type":"Feature","geometry":{"type":"LineString","coordinates":[[21.148681640625,42.662004206572],[21.1473294858284,42.6621139180509],[21.1471721009906,42.662135981676],[21.1465911604964,42.662194179404],[21.1461640079188,42.6622413763275]]},"properties":{"name":"Gjergj Balsha","highway":"tertiary"}},{"type":"Feature","geometry":{"type":"LineString","coordinates":[[21.1459350585938,42.6607521114441],[21.1459476972584,42.6607513088805],[21.1465910706649,42.6607819608137],[21.1470978103167,42.6608817776727]]},"properties":{"name":"Halim Spahia","highway":"residential","addr:street":"Halim Spahia"}},{"type":"Feature","geometry":{"type":"LineString","coordinates":[[21.1475793073089,42.6609617103165],[21.1470978103167,42.6608817776727]]},"properties":{"name":"Afrim Gashi","highway":"residential","addr:street":"Afrim Gashi"}},{"type":"Feature","geometry":{"type":"LineString","coordinates":[[21.1470306204772,42.660221613248],[21.1470557691614,42.6604004620767],[21.1472988532772,42.660732019294],[21.1475793073089,42.6609617103165],[21.1480243327007,42.6612120771886],[21.1486004222924,42.6616918671399],[21.148681640625,42.6618236408882]]},"properties":{"name":"Afrim Gashi","highway":"residential","addr:street":"Afrim Gashi"}},{"type":"Feature","geometry":{"type":"LineString","coordinates":[[21.1459476972584,42.6607513088805],[21.145974983679,42.6622413763275]]},"properties":{"highway":"residential"}},{"type":"Feature","geometry":{"type":"LineString","coordinates":[[21.1465910706649,42.6607819608137],[21.1465911604964,42.662194179404]]},"properties":{"name":"Fadil Bala","highway":"residential"}},{"type":"Feature","geometry":{"type":"LineString","coordinates":[[21.1470978103167,42.6608817776727],[21.1471721009906,42.662135981676]]},"properties":{"name":"Halim Spahia","highway":"residential"}},{"type":"Feature","geometry":{"type":"LineString","coordinates":[[21.148681640625,42.6621719836822],[21.148368297623,42.6621719836822],[21.1477374107989,42.6622358624198],[21.1477064569401,42.6622413763275]]},"properties":{"highway":"service"}},{"type":"Feature","geometry":{"type":"LineString","coordinates":[[21.1473983173325,42.6622413763275],[21.1473294858284,42.6621139180509]]},"properties":{"highway":"service"}}]}