{"type":"FeatureCollection","features":[{"type":"Feature","geometry":{"type":"LineString","coordinates":[[21.1739011849697,42.6501218136802],[21.1740177142674,42.6502284132295],[21.1744657040996,42.6506228582153],[21.1745944326798,42.6507688749039],[21.1747150764224,42.6509386106147],[21.1747741699219,42.651039774232]]},"properties":{"name":"Rruga B","oneway":"yes","highway":"secondary","maxspeed":"40","id":"233495978"}},{"type":"Feature","geometry":{"type":"LineString","coordinates":[[21.1746793062983,42.651131867449],[21.1745987445932,42.6509846618351],[21.174389616795,42.6507242770829],[21.1741320698031,42.6504876107775],[21.1737063780225,42.6501218136802]]},"properties":{"name":"Rruga B","oneway":"yes","highway":"secondary","maxspeed":"40","addr:street":"Muharrem Fejza","id":"233495995"}},{"type":"Feature","geometry":{"type":"LineString","coordinates":[[21.1734008789062,42.6502471921128],[21.1735884093931,42.6504385859864]]},"properties":{"highway":"service","id":"116155527"}},{"type":"Feature","geometry":{"type":"LineString","coordinates":[[21.1738431819824,42.651131867449],[21.1734008789062,42.6507104893383]]},"properties":{"highway":"service","id":"41896606"}},{"type":"Feature","geometry":{"type":"LineString","coordinates":[[21.1745613924851,42.6501218136802],[21.1746416840637,42.6502087900217],[21.1747432835224,42.6504788893889]]},"properties":{"highway":"road","id":"116174116"}},{"type":"Feature","geometry":{"type":"LineString","coordinates":[[21.1747741699219,42.6504620057925],[21.1747432835224,42.6504788893889],[21.1747741699219,42.6505027788196]]},"properties":{"name":"Ndue Perleshi","highway":"residential","id":"50802025"}}]}