{"type":"FeatureCollection","features":[{"type":"Feature","geometry":{"type":"LineString","coordinates":[[21.1540102890212,42.6592117071038],[21.1540689165845,42.6594153587544]]},"properties":{"highway":"service"}},{"type":"Feature","geometry":{"type":"LineString","coordinates":[[21.1536993496766,42.6593555068828],[21.1536605509492,42.6592117071038]]},"properties":{"highway":"service"}},{"type":"Feature","geometry":{"type":"LineString","coordinates":[[21.1538154930031,42.6592117071038],[21.1538773957659,42.6594473986399],[21.1540689165845,42.6594153587544],[21.1541748046875,42.6593976749226]]},"properties":{"highway":"service"}},{"type":"Feature","geometry":{"type":"LineString","coordinates":[[21.1539087503745,42.660221613248],[21.1537637588825,42.6595865902809],[21.1537919659824,42.6595268706971],[21.1538799110487,42.6595091001462],[21.1541748046875,42.6594507529469]]},"properties":{"highway":"service"}},{"type":"Feature","geometry":{"type":"LineString","coordinates":[[21.1528015136719,42.6601562249246],[21.1528560196587,42.660221613248]]},"properties":{"highway":"secondary","name:sq":"Tirana","name:old":"Omladinskih brigada"}}]}