{"type":"FeatureCollection","features":[{"type":"Feature","geometry":{"type":"LineString","coordinates":[[21.170685593384,42.6474016164454],[21.170668255899,42.6474139062824],[21.170654296875,42.6474194596393]]},"properties":{"highway":"residential"}},{"type":"Feature","geometry":{"type":"LineString","coordinates":[[21.170654296875,42.6473608461377],[21.170685593384,42.6474016164454],[21.1711353511451,42.6481016569353]]},"properties":{"name":"Vellezerit Gervalla","highway":"residential"}},{"type":"Feature","geometry":{"type":"LineString","coordinates":[[21.171796328775,42.6470915539591],[21.1720275878906,42.6474254192765]]},"properties":{"highway":"residential"}},{"type":"Feature","geometry":{"type":"LineString","coordinates":[[21.1712500053485,42.6470915539591],[21.1716573908584,42.6475748632786],[21.1720275878906,42.6480224565057]]},"properties":{"name":"Rruga B","oneway":"yes","highway":"secondary","maxspeed":"40"}},{"type":"Feature","geometry":{"type":"LineString","coordinates":[[21.1719310866488,42.6481016569353],[21.1716270278018,42.6477099188276],[21.1712353623379,42.6471969176202],[21.1711337566637,42.6470915539591]]},"properties":{"name":"Rruga B","oneway":"yes","highway":"secondary","maxspeed":"40","addr:street":"Muharrem Fejza"}}]}