{"type":"FeatureCollection","features":[{"type":"Feature","geometry":{"type":"LineString","coordinates":[[21.1711353511451,42.6481016569353],[21.1712301521092,42.6482492130623],[21.171273810232,42.6483384122217],[21.1713032749734,42.6483838046337],[21.1713722655872,42.6484611764852]]},"properties":{"name":"Vellezerit Gervalla","highway":"residential"}},{"type":"Feature","geometry":{"type":"LineString","coordinates":[[21.170654296875,42.6483237985768],[21.1707401211217,42.6483345138907],[21.1710860623377,42.6483937156362],[21.1713722655872,42.6484611764852],[21.1714070303887,42.6484693695706],[21.1716333160087,42.6485474681207],[21.1718182791257,42.6486441991838],[21.1720275878906,42.6487615698756]]},"properties":{"name":"Agim Ramadani","oneway":"yes","highway":"residential","maxspeed":"60"}},{"type":"Feature","geometry":{"type":"LineString","coordinates":[[21.170654296875,42.648424530172],[21.1710324329152,42.6484804698781],[21.1713436093296,42.6485474681207],[21.1716224463938,42.6486500796876],[21.1719523975977,42.6488315821542],[21.1720275878906,42.6488725919323]]},"properties":{"name":"Agim Ramadani","lanes":"2","oneway":"-1","highway":"residential","maxspeed":"60","wikipedia":"sq:Agim Ramadani"}},{"type":"Feature","geometry":{"type":"LineString","coordinates":[[21.170654296875,42.6490159729481],[21.1707670823431,42.649111743509]]},"properties":{"highway":"residential"}},{"type":"Feature","geometry":{"type":"LineString","coordinates":[[21.1712583592092,42.6488516022337],[21.1711025913389,42.6487199849595],[21.1710196768382,42.6486537137065],[21.1709044229872,42.6486095108076],[21.1707635671507,42.6485889620651],[21.170654296875,42.6486071441652]]},"properties":{"name":"mehmet gradica","highway":"residential"}},{"type":"Feature","geometry":{"type":"LineString","coordinates":[[21.1720275878906,42.6482259855454],[21.1719310866488,42.6481016569353]]},"properties":{"name":"Rruga B","oneway":"yes","highway":"secondary","maxspeed":"40","addr:street":"Muharrem Fejza"}}]}