{"type":"FeatureCollection","features":[{"type":"Feature","geometry":{"type":"LineString","coordinates":[[21.1570433581091,42.6652708979236],[21.1570652472147,42.6653417960277],[21.1569213867188,42.6653330313142]]},"properties":{"highway":"tertiary"}},{"type":"Feature","geometry":{"type":"LineString","coordinates":[[21.1582360215244,42.6654264789156],[21.1582515312507,42.6652708979236]]},"properties":{"highway":"service"}},{"type":"Feature","geometry":{"type":"LineString","coordinates":[[21.1575206930637,42.6653809668318],[21.1574827841587,42.6655572681727],[21.1573921441465,42.6659787644063],[21.1573451622572,42.6660836591226],[21.1572547019081,42.6662227037981]]},"properties":{"highway":"tertiary"}},{"type":"Feature","geometry":{"type":"LineString","coordinates":[[21.1572874604796,42.6662807056493],[21.1572547019081,42.6662227037981]]},"properties":{"name":"Rr. Feriz Blakcori","lanes":"1","width":"4","highway":"residential","surface":"paved"}},{"type":"Feature","geometry":{"type":"LineString","coordinates":[[21.1570652472147,42.6653417960277],[21.1575206930637,42.6653809668318],[21.1582360215244,42.6654264789156],[21.1582946777344,42.6654312656166]]},"properties":{"name":"UCK","highway":"tertiary","name:ru":"Армия освобождения Косова","addr:street":"UCK"}},{"type":"Feature","geometry":{"type":"LineString","coordinates":[[21.1573839557167,42.6662807056493],[21.1572547019081,42.6662227037981],[21.1570340756743,42.666131020218],[21.1569213867188,42.666081709391]]},"properties":{"name":"Lidhja e Prizrenit","highway":"tertiary"}}]}