{"type":"FeatureCollection","features":[{"type":"Feature","geometry":{"type":"LineString","coordinates":[[21.1576030685753,42.6668395167606],[21.1572874604796,42.6662807056493]]},"properties":{"name":"Rr. Feriz Blakcori","lanes":"1","width":"4","highway":"residential","surface":"paved"}},{"type":"Feature","geometry":{"type":"LineString","coordinates":[[21.1569534069618,42.6672839908444],[21.1575068590083,42.6669174601348],[21.1576030685753,42.6668395167606]]},"properties":{"name":"Rr. Sokol Dogrosh","lanes":"1","width":"4","highway":"residential","surface":"paved"}},{"type":"Feature","geometry":{"type":"LineString","coordinates":[[21.157736468395,42.6669191775301],[21.1579830559404,42.6668700996386],[21.1582946777344,42.666820017784]]},"properties":{"name":"Rr. Feriz Blakcori","lanes":"1","width":"4","highway":"residential","surface":"paved"}},{"type":"Feature","geometry":{"type":"LineString","coordinates":[[21.1577389434559,42.6672904969717],[21.1577342226067,42.6669876090881],[21.157736468395,42.6669191775301],[21.1576030685753,42.6668395167606]]},"properties":{"name":"Rr. Feriz Blakcori","lanes":"1","width":"4","highway":"residential","surface":"cobblestone"}},{"type":"Feature","geometry":{"type":"LineString","coordinates":[[21.1569618223218,42.6672904969717],[21.1569534069618,42.6672839908444]]},"properties":{"name":"Lidhja e Lezhës","lanes":"1","width":"5","highway":"residential","surface":"paved","addr:street":"Lidhja e Lezhës"}},{"type":"Feature","geometry":{"type":"LineString","coordinates":[[21.1582946777344,42.666625389727],[21.1579662574446,42.666542009966],[21.1573839557167,42.6662807056493]]},"properties":{"name":"Lidhja e Prizrenit","highway":"tertiary"}}]}