{"type":"FeatureCollection","features":[{"type":"Feature","geometry":{"type":"LineString","coordinates":[[21.1780750450796,42.6553546155453],[21.1779836864152,42.6552732883067],[21.1778948273752,42.6551719184982]]},"properties":{"oneway":"yes","highway":"secondary","id":"247699437"}},{"type":"Feature","geometry":{"type":"LineString","coordinates":[[21.1780676193443,42.6551719184982],[21.1781328965839,42.6552403874114],[21.1781732309402,42.6553049999964]]},"properties":{"oneway":"yes","highway":"secondary","id":"247699435"}},{"type":"Feature","geometry":{"type":"LineString","coordinates":[[21.1783812478738,42.6551719184982],[21.1783157037443,42.6553058588545],[21.1782874966443,42.655340873826]]},"properties":{"highway":"residential","id":"116703942"}},{"type":"Feature","geometry":{"type":"LineString","coordinates":[[21.1783157037443,42.6553058588545],[21.1785358808204,42.6552623874096],[21.1787102286584,42.6551719184982]]},"properties":{"highway":"residential","id":"116703868"}},{"type":"Feature","geometry":{"type":"LineString","coordinates":[[21.1788940429688,42.6552015062723],[21.1787298075673,42.6551719184982]]},"properties":{"highway":"road","id":"116703902"}},{"type":"Feature","geometry":{"type":"LineString","coordinates":[[21.1780992995923,42.6554637564002],[21.1779385011565,42.6554922968343],[21.1775207519531,42.6556245029435]]},"properties":{"foot":"yes","name":"Gazmend Zajmi","lanes":"2","oneway":"no","bicycle":"yes","highway":"residential","surface":"asphalt","cycleway":"no","name:old":"Dubrovniku","sidewalk":"both","id":"294952103"}},{"type":"Feature","geometry":{"type":"LineString","coordinates":[[21.1782106906875,42.6554883989517],[21.1781704461628,42.6554891917414],[21.1781320881002,42.6554806692516],[21.1780992995923,42.6554637564002],[21.1780753145742,42.6554401048268],[21.1780625584972,42.6554120928959],[21.1780625584972,42.6553825614362],[21.1780750450796,42.6553546155453],[21.1780990300977,42.6553308978644],[21.1781317287741,42.6553137867743],[21.1781732309402,42.6553049999964]]},"properties":{"lanes":"2","oneway":"yes","highway":"tertiary","surface":"asphalt","maxspeed":"20","id":"312484712"}},{"type":"Feature","geometry":{"type":"LineString","coordinates":[[21.1781732309402,42.6553049999964],[21.1782161704108,42.6553069159105],[21.1782558759463,42.6553192702516],[21.1782874966443,42.655340873826],[21.1783075290752,42.6553690179209],[21.1783133681245,42.6554003992323],[21.1783044748032,42.6554315162644],[21.1782820169211,42.6554584711332],[21.1782484199295,42.655478356948],[21.1782106906875,42.6554883989517]]},"properties":{"lanes":"2","oneway":"yes","highway":"tertiary","surface":"asphalt","maxspeed":"20","id":"312484708"}},{"type":"Feature","geometry":{"type":"LineString","coordinates":[[21.1783535228177,42.6555557199743],[21.1782106906875,42.6554883989517]]},"properties":{"foot":"yes","name":"Gazmend Zajmi","lanes":"2","oneway":"yes","bicycle":"yes","highway":"tertiary","surface":"asphalt","cycleway":"no","name:old":"Dubrovniku","sidewalk":"both","id":"312484709"}},{"type":"Feature","geometry":{"type":"LineString","coordinates":[[21.1783044748032,42.6554315162644],[21.1783535228177,42.6555557199743]]},"properties":{"oneway":"yes","highway":"tertiary","id":"312484711"}},{"type":"Feature","geometry":{"type":"LineString","coordinates":[[21.1781326270894,42.6558291654592],[21.1779621268484,42.6560522020071]]},"properties":{"highway":"service","id":"106779893"}},{"type":"Feature","geometry":{"type":"LineString","coordinates":[[21.178004886656,42.6561293661241],[21.1779673239717,42.6561818902538]]},"properties":{"highway":"steps","id":"106779897"}},{"type":"Feature","geometry":{"type":"LineString","coordinates":[[21.1788625156415,42.6561818902538],[21.178501475345,42.6560329109628],[21.1781326270894,42.6558291654592],[21.1783872096409,42.6555777859266]]},"properties":{"highway":"service","id":"106779928"}},{"type":"Feature","geometry":{"type":"LineString","coordinates":[[21.1787468950806,42.6560621117877],[21.1788158856945,42.655966713567]]},"properties":{"highway":"footway","id":"106783565"}},{"type":"Feature","geometry":{"type":"LineString","coordinates":[[21.1784583329617,42.6561818902538],[21.1784598833474,42.6561797737961]]},"properties":{"highway":"footway","id":"106779910"}},{"type":"Feature","geometry":{"type":"LineString","coordinates":[[21.1788940429688,42.6558657593896],[21.1788436436367,42.6558263907103],[21.1786525719758,42.6557339650777],[21.1783872096409,42.6555777859266],[21.1783535228177,42.6555557199743]]},"properties":{"foot":"yes","name":"Gazmend Zajmi","lanes":"2","bicycle":"yes","highway":"tertiary","surface":"asphalt","cycleway":"no","maxspeed":"40","name:old":"Dubrovniku","sidewalk":"both","id":"49056998"}}]}