{"type":"FeatureCollection","features":[{"type":"Feature","geometry":{"type":"LineString","coordinates":[[21.1700665643217,42.6589553038148],[21.1699032506031,42.6585056173009],[21.1697576662204,42.6582017845567]]},"properties":{"name":"Ali Kelmendi","highway":"residential","surface":"asphalt","maxspeed":"40","id":"49308725"}},{"type":"Feature","geometry":{"type":"LineString","coordinates":[[21.1692810058594,42.6590962904131],[21.1693716276179,42.6590878903592],[21.1700665643217,42.6589553038148],[21.170654296875,42.6588432242476]]},"properties":{"name":"Sokol Sopi","highway":"residential","id":"51137780"}},{"type":"Feature","geometry":{"type":"LineString","coordinates":[[21.1693716276179,42.6590878903592],[21.1694433622273,42.6592117071038]]},"properties":{"highway":"residential","id":"51137783"}},{"type":"Feature","geometry":{"type":"LineString","coordinates":[[21.1692810058594,42.6582083912406],[21.1693209152184,42.6582017845567]]},"properties":{"name":"Kaqaniku","highway":"residential","id":"104163440"}},{"type":"Feature","geometry":{"type":"LineString","coordinates":[[21.170654296875,42.6583097096834],[21.1699032506031,42.6585056173009],[21.1696237847182,42.6586191788121],[21.1692810058594,42.6586995204594]]},"properties":{"name":"Bedri Shala","highway":"residential","id":"223072785"}}]}