{"type":"FeatureCollection","features":[{"type":"Feature","geometry":{"type":"LineString","coordinates":[[21.1700546167284,42.6561927886144],[21.1700235639305,42.6561818902538]]},"properties":{"highway":"residential","id":"45420550"}},{"type":"Feature","geometry":{"type":"LineString","coordinates":[[21.170654296875,42.6562901647124],[21.1704609247314,42.6563286182301],[21.1701952929019,42.6563736084217],[21.1692810058594,42.65650533727]]},"properties":{"foot":"yes","name":"Gazmend Zajmi","lanes":"2","oneway":"no","bicycle":"yes","highway":"residential","surface":"asphalt","cycleway":"no","name:old":"Dubrovniku","sidewalk":"both","id":"294952105"}},{"type":"Feature","geometry":{"type":"LineString","coordinates":[[21.16953333002,42.6571918456067],[21.1695191309876,42.6571231098351],[21.1695055664268,42.6569925010276],[21.169474664381,42.6568615616241],[21.1694621777986,42.6568167699788],[21.1694215739477,42.6567731013967],[21.1692810058594,42.6566919392628]]},"properties":{"name":"Ali Kelmendi","highway":"residential","surface":"asphalt","maxspeed":"40","id":"49308725"}},{"type":"Feature","geometry":{"type":"MultiLineString","coordinates":[[[21.1704609247314,42.6563286182301],[21.1704838317712,42.6563742030055],[21.170654296875,42.6565856492784]],[[21.170654296875,42.6566400845032],[21.1706077094489,42.6567098116273],[21.1703577083053,42.6568632792972],[21.1704634426397,42.6571918456067]]]},"properties":{"highway":"residential","id":"116703935"}}]}