{"type":"FeatureCollection","features":[{"type":"Feature","geometry":{"type":"LineString","coordinates":[[21.1555344536558,42.6703197725191],[21.1551102436618,42.6691182632577],[21.1546241343547,42.6683002718908]]},"properties":{"name":"24 Maji","highway":"residential","addr:street":"24 Maji","id":"4854678"}},{"type":"Feature","geometry":{"type":"LineString","coordinates":[[21.1541748046875,42.6685996929621],[21.1543098447437,42.6688189179231],[21.1544524073793,42.6690310754449],[21.1546692606888,42.6694695892729],[21.1548142487757,42.6699865679369],[21.1548627333357,42.6703197725191]]},"properties":{"name":"Izmail Qemali","highway":"residential","addr:street":"Izmail Qemali","id":"113576421"}},{"type":"Feature","geometry":{"type":"LineString","coordinates":[[21.1569213867188,42.6695356017554],[21.1565283241693,42.6690699797189],[21.1562113985371,42.6686706978549],[21.1561755522871,42.6683002718908]]},"properties":{"name":"Eduard Lir","highway":"residential","addr:street":"Eduard Lir","id":"29561090"}},{"type":"Feature","geometry":{"type":"LineString","coordinates":[[21.1565283241693,42.6690699797189],[21.1569213867188,42.6688803726023]]},"properties":{"highway":"residential","id":"113576451"}},{"type":"Feature","geometry":{"type":"LineString","coordinates":[[21.1565477915932,42.6703197725191],[21.15655716009,42.6702700556255],[21.1564552911367,42.6700760661703],[21.1561454621952,42.6697324054617],[21.1559194460698,42.6694034722331]]},"properties":{"name":"Rr. Bajram Curri","highway":"residential","id":"50854139"}},{"type":"Feature","geometry":{"type":"LineString","coordinates":[[21.1569213867188,42.6685729363057],[21.1569108268173,42.6685580794295]]},"properties":{"highway":"residential","id":"50303974"}}]}