{"type":"FeatureCollection","features":[{"type":"Feature","geometry":{"type":"LineString","coordinates":[[21.1574177830189,42.6763778807196],[21.1570252721845,42.6761804662027],[21.1569213867188,42.6761184361602]]},"properties":{"name":"Ismet Krasniqi","highway":"residential","addr:street":"Ismet Krasniqi","id":"50854155"}},{"type":"Feature","geometry":{"type":"LineString","coordinates":[[21.1569213867188,42.6760228713607],[21.1575023674319,42.6754887854065],[21.1575913829509,42.6753682370286]]},"properties":{"name":"Gjon Sereqi","highway":"residential","addr:street":"Gjon Sereqi","id":"113576476"}},{"type":"Feature","geometry":{"type":"LineString","coordinates":[[21.1582946777344,42.6762780964868],[21.1580691145447,42.675952218335],[21.1578641189968,42.6757070622841],[21.1575023674319,42.6754887854065]]},"properties":{"highway":"residential","id":"115955514"}},{"type":"Feature","geometry":{"type":"LineString","coordinates":[[21.1580691145447,42.675952218335],[21.1582946777344,42.6758186473242]]},"properties":{"name":"Kamer Loshi","highway":"residential","addr:street":"Kamer Loshi","id":"50847347"}},{"type":"Feature","geometry":{"type":"LineString","coordinates":[[21.1581505090026,42.6763778807196],[21.1582946777344,42.6762800121529]]},"properties":{"highway":"residential","id":"115955501"}},{"type":"Feature","geometry":{"type":"LineString","coordinates":[[21.1570252721845,42.6761804662027],[21.1569213867188,42.6763117384715]]},"properties":{"highway":"residential","id":"115119692"}}]}