{"type":"FeatureCollection","features":[{"type":"Feature","geometry":{"type":"LineString","coordinates":[[21.1582946777344,42.6769851016712],[21.1578183947489,42.6765793696067],[21.1574177830189,42.6763778807196]]},"properties":{"name":"Ismet Krasniqi","highway":"residential","addr:street":"Ismet Krasniqi","id":"50854155"}},{"type":"Feature","geometry":{"type":"LineString","coordinates":[[21.1578183947489,42.6765793696067],[21.1580740552787,42.6764297811303],[21.1581505090026,42.6763778807196]]},"properties":{"highway":"residential","id":"115955501"}},{"type":"Feature","geometry":{"type":"LineString","coordinates":[[21.1573812745316,42.6768553643539],[21.1572827293449,42.6769232566283],[21.1569687681531,42.6772135811209]]},"properties":{"highway":"residential","id":"115119808"}},{"type":"Feature","geometry":{"type":"LineString","coordinates":[[21.1575599494416,42.6771408019965],[21.1577292818727,42.6769910167427]]},"properties":{"highway":"residential","id":"115120292"}},{"type":"Feature","geometry":{"type":"LineString","coordinates":[[21.1579121327806,42.677387508007],[21.1575599494416,42.6771408019965],[21.1572827293449,42.6769232566283]]},"properties":{"highway":"residential","id":"115120387"}},{"type":"Feature","geometry":{"type":"LineString","coordinates":[[21.1582946777344,42.6765636508406],[21.1580740552787,42.6764297811303]]},"properties":{"name":"Gjashtë lisat e Likoshanit","highway":"residential","addr:street":"Gjashtë lisat e Likoshanit","id":"113576338"}}]}