{"type":"FeatureCollection","features":[{"type":"Feature","geometry":{"type":"LineString","coordinates":[[21.1579102924024,42.6680237831344],[21.1578548663494,42.6677118164414],[21.1577415887921,42.6674602207352],[21.1577389434559,42.6672904969717]]},"properties":{"name":"Rr. Feriz Blakcori","lanes":"1","width":"4","highway":"residential","surface":"cobblestone","id":"207380889"}},{"type":"Feature","geometry":{"type":"LineString","coordinates":[[21.1579102924024,42.6680237831344],[21.1569618223218,42.6672904969717]]},"properties":{"name":"Lidhja e Lezhës","lanes":"1","width":"5","highway":"residential","surface":"paved","addr:street":"Lidhja e Lezhës","id":"282069664"}},{"type":"Feature","geometry":{"type":"LineString","coordinates":[[21.1569213867188,42.6675400619896],[21.1575730486994,42.6683002718908]]},"properties":{"highway":"tertiary","addr:street":"Zabgrebi","id":"4854667"}},{"type":"Feature","geometry":{"type":"LineString","coordinates":[[21.1582946777344,42.6682404566657],[21.1582717744728,42.6682257052683],[21.1579102924024,42.6680237831344]]},"properties":{"name":"Lidhja e Lezhës","lanes":"1","width":"5","highway":"residential","surface":"cobblestone","addr:street":"Lidhja e Lezhës","id":"212812021"}}]}