{"type":"FeatureCollection","features":[{"type":"Feature","geometry":{"type":"LineString","coordinates":[[21.1569903056733,42.649111743509],[21.1571096239897,42.6495404079738]]},"properties":{"highway":"service","id":"105496528"}},{"type":"Feature","geometry":{"type":"LineString","coordinates":[[21.1569213867188,42.6495787858917],[21.1569635579245,42.6495733118845],[21.1571096239897,42.6495404079738],[21.1571561567214,42.64953439541],[21.1574348141225,42.6494981878702]]},"properties":{"highway":"residential","id":"105505522"}},{"type":"Feature","geometry":{"type":"LineString","coordinates":[[21.1574348141225,42.6494981878702],[21.1580137783232,42.6494288120509]]},"properties":{"highway":"steps","id":"105496516"}},{"type":"Feature","geometry":{"type":"LineString","coordinates":[[21.1570331293209,42.6501218136802],[21.1570239247116,42.650084179204],[21.1569362491399,42.6498004012511],[21.1569635579245,42.6495733118845],[21.1569213867188,42.6494295984656]]},"properties":{"highway":"service","id":"83203396"}},{"type":"Feature","geometry":{"type":"LineString","coordinates":[[21.1571561567214,42.64953439541],[21.1572882090682,42.6499530931114]]},"properties":{"highway":"service","id":"105505502"}},{"type":"Feature","geometry":{"type":"LineString","coordinates":[[21.157377771102,42.6496999719564],[21.1574793705606,42.6496876825711]]},"properties":{"highway":"footway","id":"105505544"}},{"type":"Feature","geometry":{"type":"LineString","coordinates":[[21.1574003188156,42.6498364764713],[21.1575091946281,42.649817183499]]},"properties":{"highway":"footway","id":"105505530"}},{"type":"Feature","geometry":{"type":"LineString","coordinates":[[21.1575662899694,42.6501218136802],[21.1575881565415,42.6501192631869]]},"properties":{"highway":"footway","id":"105505560"}},{"type":"Feature","geometry":{"type":"LineString","coordinates":[[21.1572718597556,42.649111743509],[21.1574348141225,42.6494981878702],[21.1574793705606,42.6496876825711],[21.1575091946281,42.649817183499],[21.1575881565415,42.6501192631869],[21.1575888550591,42.6501218136802]]},"properties":{"name":"28. Nëntori","oneway":"no","highway":"residential","alt_name":"28. Novembar","int_name":"28. Nentori","id":"281956019"}},{"type":"Feature","geometry":{"type":"LineString","coordinates":[[21.1581894108881,42.6501218136802],[21.1580137783232,42.6494288120509],[21.1579348311012,42.649111743509]]},"properties":{"oneway":"yes","highway":"secondary","addr:street":"Bulevardi i Deshmoreve","id":"4854654"}},{"type":"Feature","geometry":{"type":"LineString","coordinates":[[21.1580406849989,42.649111743509],[21.1580729773004,42.6492606579581],[21.1580997470958,42.6493729149058],[21.1581954176736,42.6497542170101],[21.1582390757964,42.649928118008],[21.1582885421526,42.6501218136802]]},"properties":{"name":"Bulevardi i Dëshmorëve","oneway":"yes","highway":"secondary","addr:city":"Prishtina","addr:street":"Bulevardi i Deshmoreve","addr:country":"XK","id":"106654240"}}]}