{"type":"FeatureCollection","features":[{"type":"Feature","geometry":{"type":"LineString","coordinates":[[21.1627529304361,42.6740953617212],[21.1624145507812,42.673704641457]]},"properties":{"highway":"residential"}},{"type":"Feature","geometry":{"type":"LineString","coordinates":[[21.1635970686673,42.6723392075335],[21.1637647029406,42.672422393065],[21.163827674842,42.6725165111312],[21.1638397122668,42.6726011842451]]},"properties":{"ref":"M25","name":"Vëllezërit Fazliu","highway":"primary","int_ref":"E 80","addr:street":"Vëllezërit Fazliu"}},{"type":"Feature","geometry":{"type":"LineString","coordinates":[[21.1645655417584,42.6723392075335],[21.1646888897049,42.6723848778943],[21.1651611328125,42.6726553547989]]},"properties":{"ref":"M9","name":"Lidhja e Lezhës","oneway":"no","highway":"primary","addr:street":"Lidhja e Lezhës"}},{"type":"Feature","geometry":{"type":"LineString","coordinates":[[21.1630586112546,42.6723392075335],[21.1651437965647,42.6735395157808]]},"properties":{"highway":"residential"}},{"type":"Feature","geometry":{"type":"LineString","coordinates":[[21.1638139306181,42.6734331145711],[21.1635087729161,42.6733526035409],[21.1629246883184,42.6730293034807],[21.1624145507812,42.6728051584703]]},"properties":{"name":"Verrat e Llukës","highway":"residential","addr:street":"Verrat e Llukës"}},{"type":"Feature","geometry":{"type":"LineString","coordinates":[[21.1638397122668,42.6726011842451],[21.1638139306181,42.6728863111915]]},"properties":{"ref":"M25","name":"Vëllezërit Fazliu","layer":"1","bridge":"yes","highway":"primary","int_ref":"E 80","addr:street":"Vëllezërit Fazliu"}},{"type":"Feature","geometry":{"type":"LineString","coordinates":[[21.1637859031813,42.6731052576807],[21.1649423044465,42.6737939929197],[21.1651437965647,42.6735395157808]]},"properties":{"name":"Kruja","highway":"residential","addr:street":"Kruja"}},{"type":"Feature","geometry":{"type":"LineString","coordinates":[[21.1627637520924,42.6743585769338],[21.1627529304361,42.6740953617212],[21.1627743103398,42.6739611560274],[21.1627066671989,42.673807400329],[21.1624589118436,42.6731452161574],[21.1624145507812,42.6728876741109]]},"properties":{"name":"Carraleva","highway":"residential","addr:street":"Carraleva"}},{"type":"Feature","geometry":{"type":"LineString","coordinates":[[21.1630846782705,42.6741597565748],[21.1632655091372,42.6740406095317]]},"properties":{"highway":"residential"}},{"type":"Feature","geometry":{"type":"LineString","coordinates":[[21.1627743103398,42.6739611560274],[21.1630846782705,42.6741597565748],[21.1633036139393,42.6743585769338]]},"properties":{"name":"Bedri Gjini","highway":"residential","addr:street":"Bedri Gjini"}},{"type":"Feature","geometry":{"type":"LineString","coordinates":[[21.1650436218358,42.6743585769338],[21.165068697407,42.6743331930485],[21.1651611328125,42.6742454023828]]},"properties":{"ele":"-5","name":"Burim Grajçevci","highway":"residential","surface":"paving_stones","maxspeed":"20"}},{"type":"Feature","geometry":{"type":"LineString","coordinates":[[21.1651437965647,42.6735395157808],[21.1651611328125,42.6735495835683]]},"properties":{"highway":"residential"}},{"type":"Feature","geometry":{"type":"LineString","coordinates":[[21.1638139306181,42.6728863111915],[21.1637859031813,42.6731052576807],[21.1637704521584,42.6732139710959],[21.1637730572727,42.6733236089769],[21.1638139306181,42.6734331145711],[21.1642840190063,42.6741377632631],[21.1643622081207,42.6743585769338]]},"properties":{"ref":"M25","name":"Vëllezërit Fazliu","highway":"primary","int_ref":"E 80","addr:street":"Vëllezërit Fazliu"}}]}