{"type":"FeatureCollection","features":[{"type":"Feature","geometry":{"type":"LineString","coordinates":[[21.1500549316406,42.6656706339982],[21.150241554485,42.6658181853131],[21.1505766260859,42.6656838956913],[21.1506655592991,42.6656506039743],[21.1504806146915,42.6652708979236]]},"properties":{"highway":"service","id":"48223295"}},{"type":"Feature","geometry":{"type":"LineString","coordinates":[[21.1506637510832,42.6662807056493],[21.1510377313213,42.6659983826381]]},"properties":{"name":"Stambolli","highway":"residential","addr:street":"Stambolli","id":"113576358"}},{"type":"Feature","geometry":{"type":"LineString","coordinates":[[21.1508763040647,42.6657591983187],[21.1507931200694,42.6657819211989],[21.1505766260859,42.6656838956913],[21.1500549316406,42.6654687619605]]},"properties":{"highway":"service","id":"113576356"}},{"type":"Feature","geometry":{"type":"LineString","coordinates":[[21.1512269073599,42.6662807056493],[21.1510377313213,42.6659983826381],[21.1508763040647,42.6657591983187],[21.1506381085556,42.6652708979236]]},"properties":{"name":"Toni Bleri","highway":"residential","addr:street":"Tony Bleri","id":"50854140"}}]}