{"type":"FeatureCollection","features":[{"type":"Feature","geometry":{"type":"LineString","coordinates":[[21.1500549316406,42.6590253910911],[21.1502771905965,42.6592117071038]]},"properties":{"highway":"residential","id":"259076091"}},{"type":"Feature","geometry":{"type":"LineString","coordinates":[[21.151338756773,42.6587330704277],[21.1512255690472,42.6588030964915]]},"properties":{"highway":"footway","id":"148226350"}},{"type":"Feature","geometry":{"type":"LineString","coordinates":[[21.1512241317427,42.65863166462],[21.151338756773,42.6587330704277],[21.1514229289151,42.65880739054],[21.1514282226562,42.6588043308916]]},"properties":{"highway":"service","service":"parking_aisle","id":"148226349"}},{"type":"Feature","geometry":{"type":"LineString","coordinates":[[21.1511234305994,42.6588683659969],[21.1510647706113,42.6589058893253],[21.1510489602623,42.6589161950242],[21.1510317126089,42.6589269631565]]},"properties":{"highway":"footway","id":"148226340"}},{"type":"Feature","geometry":{"type":"LineString","coordinates":[[21.1510814312923,42.6582017845567],[21.1514282226562,42.6585365924045]]},"properties":{"highway":"secondary","name:sq":"Tirana","name:old":"Omladinskih brigada","id":"124914625"}}]}