{"type":"FeatureCollection","features":[{"type":"Feature","geometry":{"type":"LineString","coordinates":[[21.1619122601478,42.6783971188905],[21.161835750531,42.6785537056239]]},"properties":{"highway":"residential"}},{"type":"Feature","geometry":{"type":"LineString","coordinates":[[21.1622081749823,42.6783971188905],[21.1620996755614,42.6786071990535],[21.161944895838,42.6789337060999]]},"properties":{"highway":"residential"}},{"type":"Feature","geometry":{"type":"LineString","coordinates":[[21.1615613578016,42.6783971188905],[21.1616217718303,42.6789679813154],[21.1617921822397,42.6792330687592]]},"properties":{"highway":"residential"}},{"type":"Feature","geometry":{"type":"LineString","coordinates":[[21.1620996755614,42.6786071990535],[21.161835750531,42.6785537056239]]},"properties":{"highway":"residential"}},{"type":"Feature","geometry":{"type":"LineString","coordinates":[[21.1624145507812,42.6790524103477],[21.1623200323006,42.679229964852]]},"properties":{"highway":"residential"}},{"type":"Feature","geometry":{"type":"LineString","coordinates":[[21.1610730953082,42.6783971188905],[21.1610412597656,42.6784571232205]]},"properties":{"ref":"M25","name":"Vëllezërit Fazliu","highway":"primary","int_ref":"E 80","addr:street":"Vëllezërit Fazliu"}}]}