{"type":"FeatureCollection","features":[{"type":"Feature","geometry":{"type":"LineString","coordinates":[[21.1525946879363,42.6541619303399],[21.1527048248255,42.654191117202]]},"properties":{"ref":"M-9;M-25","name":"Bil Klinton","image":"http://www.flickr.com/photos/mopsy_slaughter/303085686/","lanes":"2","oneway":"yes","highway":"primary","name:en":"Bill Clinton Boulevard","name:pl":"Bulwar Billa Clintona","surface":"asphalt","cycleway":"no","maxspeed":"40","sidewalk":"both","wikipedia":"en:Bill Clinton Boulevard","id":"131674344"}},{"type":"Feature","geometry":{"type":"LineString","coordinates":[[21.151601726214,42.6541619303399],[21.1518591508171,42.6542351179328]]},"properties":{"highway":"service","id":"125553270"}},{"type":"Feature","geometry":{"type":"LineString","coordinates":[[21.1527048248255,42.654191117202],[21.1526719464861,42.6542789864984]]},"properties":{"oneway":"no","highway":"primary_link","id":"322292828"}},{"type":"Feature","geometry":{"type":"LineString","coordinates":[[21.1527170220889,42.6541619303399],[21.1527048248255,42.654191117202]]},"properties":{"oneway":"no","highway":"residential","id":"172825275"}},{"type":"Feature","geometry":{"type":"LineString","coordinates":[[21.1526719464861,42.6542789864984],[21.1525985541274,42.6543632880525],[21.1523118118887,42.6546280840405],[21.1521776934168,42.6547376886368],[21.1516461579375,42.6551719184982]]},"properties":{"name":"Tirana","highway":"secondary","name:old":"Omladinskih brigada","id":"50828596"}},{"type":"Feature","geometry":{"type":"LineString","coordinates":[[21.1521776934168,42.6547376886368],[21.1518892443791,42.6545428579099],[21.1514282226562,42.6544212533712]]},"properties":{"highway":"service","id":"125553245"}},{"type":"Feature","geometry":{"type":"LineString","coordinates":[[21.1523118118887,42.6546280840405],[21.152633498592,42.6548017732117],[21.1527728272925,42.6547512983561],[21.1528015136719,42.6547764267696]]},"properties":{"highway":"service","id":"125550065"}},{"type":"Feature","geometry":{"type":"LineString","coordinates":[[21.1528015136719,42.6543163976628],[21.1526719464861,42.6542789864984],[21.1522392007838,42.6541619303399]]},"properties":{"ref":"M-9;M-25","name":"Bil Klinton","image":"http://www.flickr.com/photos/mopsy_slaughter/303085686/","lanes":"2","oneway":"yes","highway":"primary","name:en":"Bill Clinton Boulevard","name:pl":"Bulwar Billa Clintona","surface":"asphalt","cycleway":"no","maxspeed":"40","sidewalk":"both","wikipedia":"en:Bill Clinton Boulevard","id":"131673728"}},{"type":"Feature","geometry":{"type":"LineString","coordinates":[[21.1527048248255,42.654191117202],[21.1528015136719,42.6542183425168]]},"properties":{"ref":"M-9;M-25","name":"Bil Klinton","image":"http://www.flickr.com/photos/mopsy_slaughter/303085686/","lanes":"2","oneway":"yes","highway":"primary","name:en":"Bill Clinton Boulevard","name:pl":"Bulwar Billa Clintona","surface":"asphalt","cycleway":"no","maxspeed":"40","sidewalk":"both","wikipedia":"en:Bill Clinton Boulevard","id":"322292822"}}]}