{"type":"FeatureCollection","features":[{"type":"Feature","geometry":{"type":"LineString","coordinates":[[21.1459350585938,42.6607521114441],[21.1459476972584,42.6607513088805],[21.1465910706649,42.6607819608137],[21.1470978103167,42.6608817776727]]},"properties":{"name":"Halim Spahia","highway":"residential","addr:street":"Halim Spahia","id":"36244362"}},{"type":"Feature","geometry":{"type":"LineString","coordinates":[[21.1473083496094,42.6609167290069],[21.1470978103167,42.6608817776727]]},"properties":{"name":"Afrim Gashi","highway":"residential","addr:street":"Afrim Gashi","id":"113576470"}},{"type":"Feature","geometry":{"type":"LineString","coordinates":[[21.1470306204772,42.660221613248],[21.1470557691614,42.6604004620767],[21.1472988532772,42.660732019294],[21.1473083496094,42.660739796762]]},"properties":{"name":"Afrim Gashi","highway":"residential","addr:street":"Afrim Gashi","id":"47938166"}},{"type":"Feature","geometry":{"type":"LineString","coordinates":[[21.1459476972584,42.6607513088805],[21.1459564906714,42.6612315029892]]},"properties":{"highway":"residential","id":"47938169"}},{"type":"Feature","geometry":{"type":"LineString","coordinates":[[21.1465910706649,42.6607819608137],[21.1465910992604,42.6612315029892]]},"properties":{"name":"Fadil Bala","highway":"residential","id":"112996862"}},{"type":"Feature","geometry":{"type":"LineString","coordinates":[[21.1470978103167,42.6608817776727],[21.1471185257102,42.6612315029892]]},"properties":{"name":"Halim Spahia","highway":"residential","id":"47938172"}}]}