{"type":"FeatureCollection","features":[{"type":"Feature","geometry":{"type":"LineString","coordinates":[[21.1685479075126,42.6541619303399],[21.1685509267743,42.6541697114297]]},"properties":{"highway":"residential","id":"116155489"}},{"type":"Feature","geometry":{"type":"LineString","coordinates":[[21.1700235639305,42.6561818902538],[21.1679077148438,42.6554393070488]]},"properties":{"highway":"residential","id":"45420550"}},{"type":"Feature","geometry":{"type":"LineString","coordinates":[[21.170654296875,42.6557292177058],[21.1702961737083,42.6554831136868],[21.1695635975941,42.6551907717715],[21.1684876853783,42.6548134009213],[21.1680784129349,42.6544499679013],[21.1679077148438,42.6542978333565]]},"properties":{"name":"Hajrullah Abdullahu","highway":"residential","id":"282223147"}},{"type":"Feature","geometry":{"type":"LineString","coordinates":[[21.1689110952046,42.6561818902538],[21.1689334294223,42.6561616719632]]},"properties":{"highway":"residential","id":"45420546"}},{"type":"Feature","geometry":{"type":"LineString","coordinates":[[21.1683879505168,42.6561818902538],[21.168330210709,42.6561491856593],[21.1679077148438,42.6559076839244]]},"properties":{"name":"Ali Kelmendi","highway":"residential","surface":"asphalt","maxspeed":"40","id":"49308725"}},{"type":"Feature","geometry":{"type":"LineString","coordinates":[[21.1693584901333,42.6541619303399],[21.169482479724,42.6542357125371],[21.1700036822518,42.6545038124111],[21.170654296875,42.6548248404871]]},"properties":{"name":"Ferat Dragaj","highway":"residential","id":"50818426"}}]}