{"type":"FeatureCollection","features":[{"type":"Feature","geometry":{"type":"LineString","coordinates":[[21.1635970686673,42.6723392075335],[21.1637647029406,42.672422393065],[21.1637878417969,42.6724569764961]]},"properties":{"ref":"M25","name":"Vëllezërit Fazliu","highway":"primary","int_ref":"E 80","addr:street":"Vëllezërit Fazliu"}},{"type":"Feature","geometry":{"type":"LineString","coordinates":[[21.1630586112546,42.6723392075335],[21.1637878417969,42.6727589790664]]},"properties":{"highway":"residential"}},{"type":"Feature","geometry":{"type":"LineString","coordinates":[[21.1635020827633,42.6733489004355],[21.1629246883184,42.6730293034807],[21.1624145507812,42.6728051584703]]},"properties":{"name":"Verrat e Llukës","highway":"residential","addr:street":"Verrat e Llukës"}},{"type":"Feature","geometry":{"type":"LineString","coordinates":[[21.1637859031813,42.6731052576807],[21.1637878417969,42.6731064122911]]},"properties":{"name":"Kruja","highway":"residential","addr:street":"Kruja"}},{"type":"Feature","geometry":{"type":"LineString","coordinates":[[21.162535120054,42.6733489004355],[21.1624589118436,42.6731452161574],[21.1624145507812,42.6728876741109]]},"properties":{"name":"Carraleva","highway":"residential","addr:street":"Carraleva"}},{"type":"Feature","geometry":{"type":"LineString","coordinates":[[21.1637878417969,42.6730901134817],[21.1637859031813,42.6731052576807],[21.1637704521584,42.6732139710959],[21.1637730572727,42.6733236089769],[21.1637824973979,42.6733489004355]]},"properties":{"ref":"M25","name":"Vëllezërit Fazliu","highway":"primary","int_ref":"E 80","addr:street":"Vëllezërit Fazliu"}}]}