{"type":"FeatureCollection","features":[{"type":"Feature","geometry":{"type":"LineString","coordinates":[[21.1611171035344,42.671329498228],[21.1612001924675,42.6713744035369],[21.1618875833229,42.6716967214768],[21.1621828595568,42.6718350931124],[21.1624145507812,42.6718903324303]]},"properties":{"highway":"tertiary","addr:street":"Zabgrebi"}},{"type":"Feature","geometry":{"type":"LineString","coordinates":[[21.1618657542615,42.6714621164533],[21.1615103807351,42.6713491728407],[21.1614754987244,42.671329498228]]},"properties":{"name":"Lidhja e Lezhës","highway":"residential","addr:street":"Lidhja e Lezhës"}},{"type":"Feature","geometry":{"type":"LineString","coordinates":[[21.1618134332185,42.671329498228],[21.1618144604587,42.6713971904134]]},"properties":{"ref":"M-9;M-25","name":"Ilir Konushevci","highway":"primary","int_ref":"E-80"}},{"type":"Feature","geometry":{"type":"LineString","coordinates":[[21.1610412597656,42.6721834111071],[21.16136314686,42.6720761694504],[21.1617667599171,42.6717841697444],[21.1618875833229,42.6716967214768]]},"properties":{"name":"Gjon Sereqi","highway":"residential","addr:street":"Gjon Sereqi"}},{"type":"Feature","geometry":{"type":"LineString","coordinates":[[21.1613668314322,42.6723392075335],[21.1613578467998,42.6723037050268],[21.16136314686,42.6720761694504]]},"properties":{"highway":"residential"}},{"type":"Feature","geometry":{"type":"LineString","coordinates":[[21.1618144604587,42.6713971904134],[21.1618657542615,42.6714621164533],[21.1619381584734,42.6715105962802],[21.1624145507812,42.671750369858]]},"properties":{"ref":"M25","name":"Vëllezërit Fazliu","highway":"primary","int_ref":"E 80","addr:street":"Vëllezërit Fazliu"}},{"type":"Feature","geometry":{"type":"LineString","coordinates":[[21.1618144604587,42.6713971904134],[21.1624145507812,42.6715984643816]]},"properties":{"ref":"M9","name":"Lidhja e Lezhës","oneway":"no","highway":"primary","addr:street":"Lidhja e Lezhës"}},{"type":"Feature","geometry":{"type":"LineString","coordinates":[[21.1621828595568,42.6718350931124],[21.1624145507812,42.6719684629795]]},"properties":{"highway":"residential"}},{"type":"Feature","geometry":{"type":"LineString","coordinates":[[21.162136318535,42.6723392075335],[21.1617667599171,42.6717841697444]]},"properties":{"name":"Carraleva","highway":"residential","addr:street":"Carraleva"}}]}