{"type":"FeatureCollection","features":[{"type":"Feature","geometry":{"type":"LineString","coordinates":[[21.1637878417969,42.6748864293101],[21.1639708662983,42.6750946962853],[21.1641745143732,42.6752968596275],[21.1646607724365,42.6752014909195]]},"properties":{"name":"Bedri Gjini","highway":"residential","addr:street":"Bedri Gjini","id":"217583147"}},{"type":"Feature","geometry":{"type":"LineString","coordinates":[[21.1644682634711,42.6746580714163],[21.1647199714137,42.6746862067673],[21.1650436218358,42.6743585769338]]},"properties":{"ele":"-5","name":"Burim Grajçevci","highway":"residential","surface":"paving_stones","maxspeed":"20","id":"299520163"}},{"type":"Feature","geometry":{"type":"LineString","coordinates":[[21.1639708662983,42.6750946962853],[21.1637878417969,42.675165267913]]},"properties":{"highway":"residential","id":"115120221"}},{"type":"Feature","geometry":{"type":"LineString","coordinates":[[21.1643622081207,42.6743585769338],[21.1643643283927,42.6743645647885],[21.1644682634711,42.6746580714163],[21.1646607724365,42.6752014909195],[21.1647083401489,42.6753682370286]]},"properties":{"ref":"M25","name":"Vëllezërit Fazliu","highway":"primary","int_ref":"E 80","addr:street":"Vëllezërit Fazliu","id":"144928667"}}]}