{"type":"FeatureCollection","features":[{"type":"Feature","geometry":{"type":"LineString","coordinates":[[21.1650623933488,42.6642610737947],[21.1650253087788,42.663911813585],[21.1649979101626,42.6633352005867],[21.1649901151608,42.6632512332626]]},"properties":{"ref":"M-9;M-25","name":"Agim Ramadani","lanes":"2","oneway":"yes","bicycle":"no","highway":"primary","int_ref":"E-80","maxspeed":"40","wikipedia":"sq:Agim Ramadani","id":"135210330"}},{"type":"Feature","geometry":{"type":"LineString","coordinates":[[21.1650865383547,42.6632512332626],[21.1650969943384,42.6633733817937],[21.1651611328125,42.6641164239017]]},"properties":{"ref":"M-9;M-25","name":"Agim Ramadani","lanes":"2","oneway":"yes","highway":"primary","int_ref":"E-80","maxspeed":"60","wikipedia":"sq:Agim Ramadani","id":"144928692"}},{"type":"Feature","geometry":{"type":"LineString","coordinates":[[21.1637878417969,42.6632840428713],[21.1638330647337,42.6633436559425],[21.1643497756851,42.6639460970855],[21.1646679589587,42.66423668037],[21.1646933629765,42.6642610737947]]},"properties":{"foot":"designated","name":"Bulevardi NÃ«na Tereze","bicycle":"yes","highway":"pedestrian","name:en":"Mother Theresa","surface":"paved","wikipedia":"en:Mother Teresa","id":"4854628"}},{"type":"Feature","geometry":{"type":"LineString","coordinates":[[21.1637878417969,42.6633606397296],[21.1638330647337,42.6633436559425]]},"properties":{"highway":"service","id":"125542089"}},{"type":"Feature","geometry":{"type":"LineString","coordinates":[[21.1643497756851,42.6639460970855],[21.1642664120267,42.6640301873641],[21.1641519666595,42.6641504765593],[21.1640619554681,42.6642385960088],[21.1640122096483,42.6642610737947]]},"properties":{"highway":"service","id":"125485846"}},{"type":"Feature","geometry":{"type":"LineString","coordinates":[[21.1638474041687,42.6642610737947],[21.1638399817614,42.6641422855397]]},"properties":{"highway":"service","id":"125485863"}},{"type":"Feature","geometry":{"type":"LineString","coordinates":[[21.1646511720265,42.6642610737947],[21.1646679589587,42.66423668037]]},"properties":{"highway":"service","id":"125485836"}},{"type":"Feature","geometry":{"type":"LineString","coordinates":[[21.1651611328125,42.6634036794457],[21.1650969943384,42.6633733817937],[21.1649979101626,42.6633352005867]]},"properties":{"foot":"yes","name":"Bajram Kelmendi","lanes":"2","oneway":"no","bicycle":"yes","highway":"residential","surface":"asphalt","cycleway":"no","sidewalk":"both","id":"4854638"}}]}