{"type":"FeatureCollection","features":[{"type":"Feature","geometry":{"type":"LineString","coordinates":[[21.1600879883142,42.6678545564247],[21.15966796875,42.6676373425403]]},"properties":{"name":"Rr. Pjeter Bogdane","lanes":"1","width":"5","highway":"residential","surface":"cobblestone"}},{"type":"Feature","geometry":{"type":"LineString","coordinates":[[21.1604886279603,42.6672904969717],[21.1604931285073,42.6673157624621]]},"properties":{"name":"Perandori Dioklecian","lanes":"1","width":"5","oneway":"yes","highway":"residential","surface":"asphalt"}},{"type":"Feature","geometry":{"type":"LineString","coordinates":[[21.1604931285073,42.6673157624621],[21.1605124816882,42.6672904969717]]},"properties":{"name":"Rr. Mark Isaku","lanes":"1","width":"5","oneway":"yes","highway":"residential","surface":"asphalt"}},{"type":"Feature","geometry":{"type":"LineString","coordinates":[[21.1599852714185,42.6683002718908],[21.1599873770024,42.668242482544],[21.1600197163526,42.6680212731397],[21.1600879883142,42.6678545564247],[21.1604931285073,42.6673157624621]]},"properties":{"lanes":"1","width":"5","oneway":"yes","highway":"residential","surface":"asphalt"}},{"type":"Feature","geometry":{"type":"LineString","coordinates":[[21.1610412597656,42.6678055559262],[21.1609441726115,42.6675159034641]]},"properties":{"name":"Rr. Murat Mehmeti","highway":"residential"}},{"type":"Feature","geometry":{"type":"LineString","coordinates":[[21.1610412597656,42.6675560325616],[21.1609441726115,42.6675159034641],[21.1604931285073,42.6673157624621],[21.160421655386,42.6672904969717]]},"properties":{"name":"Lidhja e Prizrenit","highway":"tertiary"}}]}