{"type":"FeatureCollection","features":[{"type":"Feature","geometry":{"type":"LineString","coordinates":[[21.1499371154352,42.6737021884141],[21.1487837684419,42.6736547670408],[21.148681640625,42.6736467687073]]},"properties":{"name":"Qemail Stafa","highway":"residential","addr:street":"Qemail Stafa","id":"48223309"}},{"type":"Feature","geometry":{"type":"LineString","coordinates":[[21.1500549316406,42.6737000761461],[21.1499371154352,42.6737021884141]]},"properties":{"name":"Plava","highway":"residential","addr:street":"Plava","id":"113576420"}},{"type":"Feature","geometry":{"type":"LineString","coordinates":[[21.1499264254833,42.6740414020848],[21.1487409188028,42.6740097659972]]},"properties":{"highway":"residential","id":"115119571"}},{"type":"Feature","geometry":{"type":"LineString","coordinates":[[21.1499371154352,42.6737021884141],[21.1499264254833,42.6740414020848],[21.1499316493143,42.6743585769338]]},"properties":{"name":"Plava","highway":"residential","addr:street":"Plava","id":"217487831"}},{"type":"Feature","geometry":{"type":"MultiLineString","coordinates":[[[21.1500549316406,42.6743565284302],[21.1500341419227,42.6743585769338]],[[21.1488290889684,42.6743585769338],[21.1487676885983,42.6743331930485],[21.1487409188028,42.6742898009525],[21.1487140591758,42.6742425121194],[21.1487032793924,42.6741517650119],[21.1487409188028,42.6740097659972],[21.1487837684419,42.6736547670408]]]},"properties":{"name":"Ismet Krasniqi","highway":"residential","addr:street":"Ismet Krasniqi","id":"50854155"}}]}