{"type":"FeatureCollection","features":[{"type":"Feature","geometry":{"type":"LineString","coordinates":[[21.148681640625,42.6625126846447],[21.1487300491879,42.662508816121]]},"properties":{"highway":"service","id":"113576329"}},{"type":"Feature","geometry":{"type":"LineString","coordinates":[[21.1498992503915,42.6632512332626],[21.1496799277693,42.6624989734261],[21.1493180554738,42.6622413763275]]},"properties":{"highway":"service","id":"48223295"}},{"type":"Feature","geometry":{"type":"LineString","coordinates":[[21.148681640625,42.6629734406091],[21.1489302836647,42.6629195655841],[21.1491901668558,42.6632512332626]]},"properties":{"highway":"service","id":"113576389"}},{"type":"Feature","geometry":{"type":"LineString","coordinates":[[21.1496799277693,42.6624989734261],[21.1496078223157,42.6622413763275]]},"properties":{"highway":"service","id":"113702958"}},{"type":"Feature","geometry":{"type":"LineString","coordinates":[[21.1499896943021,42.6632512332626],[21.1498250284119,42.6622413763275]]},"properties":{"name":"Toni Bleri","highway":"residential","addr:street":"Tony Bleri","id":"50854140"}}]}