{"type":"FeatureCollection","features":[{"type":"Feature","geometry":{"type":"LineString","coordinates":[[21.1504007522808,42.6561818902538],[21.1501696892622,42.6563718907351],[21.1500549316406,42.6564621094524]]},"properties":{"name":"Tirana","highway":"secondary","name:old":"Omladinskih brigada"}},{"type":"Feature","geometry":{"type":"LineString","coordinates":[[21.1508324397173,42.6561818902538],[21.1512521591796,42.6564410606156],[21.1510107818627,42.6566697765207]]},"properties":{"highway":"service"}},{"type":"Feature","geometry":{"type":"LineString","coordinates":[[21.1506757102618,42.6566861605279],[21.1505300035227,42.6567963560766],[21.1507475754845,42.6569650183099]]},"properties":{"highway":"service"}},{"type":"Feature","geometry":{"type":"LineString","coordinates":[[21.1514282226562,42.6571007700474],[21.1512203588185,42.6569969933938],[21.1506757102618,42.6566861605279],[21.1506007009355,42.6566397832062],[21.1503895968438,42.6564972156673],[21.1501696892622,42.6563718907351]]},"properties":{"lit":"yes","name":"Kosta Novakoviq","lanes":"2","oneway":"no","highway":"residential","surface":"asphalt"}}]}