{"type":"FeatureCollection","features":[{"type":"Feature","geometry":{"type":"LineString","coordinates":[[21.1500549316406,42.6612392944906],[21.1503338114646,42.6615728943745],[21.1503625575537,42.6616805049533],[21.1503453997318,42.6618011950494],[21.150251076627,42.6618710194808],[21.1501211802369,42.6619444770761],[21.1500549316406,42.6619636286644]]},"properties":{"name":"Gjergj Balsha","highway":"tertiary"}},{"type":"Feature","geometry":{"type":"LineString","coordinates":[[21.1509372741138,42.6612315029892],[21.1511402290952,42.6613188956766],[21.1514282226562,42.6614336701913]]},"properties":{"name":"Ahmet Krasniqi","highway":"secondary","maxspeed":"40","name:old":"Fan S. Noli","name:oldsq":"Fan S. Noli","name:oldsr":"Fane S. Nolija","addr:street":"Ahmet Krasniqi","descriptionold:url":"http://en.wikipedia.org/wiki/Fan_S._Noli"}},{"type":"Feature","geometry":{"type":"LineString","coordinates":[[21.1512755212998,42.6622413763275],[21.1512622203108,42.6621696055686],[21.1510565959422,42.6617149878618],[21.1510347668808,42.6616589035814],[21.1510361143538,42.6616042725551],[21.1511402290952,42.6613188956766]]},"properties":{"name":"Johan V. Gete","highway":"residential","addr:street":"Johan V. Gete"}},{"type":"Feature","geometry":{"type":"LineString","coordinates":[[21.1503297849202,42.6622413763275],[21.1501211802369,42.6619444770761]]},"properties":{"name":"24 Maji","highway":"residential","addr:street":"24 Maji"}}]}