{"type":"FeatureCollection","features":[{"type":"Feature","geometry":{"type":"LineString","coordinates":[[21.1624145507812,42.6761030977628],[21.1628278499308,42.6754255807333],[21.162777903601,42.674702784163],[21.1627637520924,42.6743585769338]]},"properties":{"name":"Carraleva","highway":"residential","addr:street":"Carraleva","id":"115120088"}},{"type":"Feature","geometry":{"type":"LineString","coordinates":[[21.1624145507812,42.6746827740435],[21.162777903601,42.674702784163]]},"properties":{"name":"Dedë Gjo Luli","highway":"residential","addr:street":"Dedë Gjo Luli","id":"115955502"}},{"type":"Feature","geometry":{"type":"LineString","coordinates":[[21.1633036139393,42.6743585769338],[21.1636633729765,42.6746852821315],[21.1637319144327,42.674822788525],[21.1639708662983,42.6750946962853],[21.1641745143732,42.6752968596275],[21.1646607724365,42.6752014909195]]},"properties":{"name":"Bedri Gjini","highway":"residential","addr:street":"Bedri Gjini","id":"217583147"}},{"type":"Feature","geometry":{"type":"LineString","coordinates":[[21.1644682634711,42.6746580714163],[21.1647199714137,42.6746862067673],[21.1650436218358,42.6743585769338]]},"properties":{"ele":"-5","name":"Burim Grajçevci","highway":"residential","surface":"paving_stones","maxspeed":"20","id":"299520163"}},{"type":"Feature","geometry":{"type":"LineString","coordinates":[[21.1634364585357,42.6753007562683],[21.1632761092575,42.6751626565283]]},"properties":{"highway":"residential","id":"115120257"}},{"type":"Feature","geometry":{"type":"LineString","coordinates":[[21.1639708662983,42.6750946962853],[21.1634364585357,42.6753007562683],[21.1628689927708,42.6754926159907]]},"properties":{"highway":"residential","id":"115120221"}},{"type":"Feature","geometry":{"type":"LineString","coordinates":[[21.1636774765265,42.6760927599453],[21.1636120791738,42.6761309993604],[21.1633142876571,42.6759552563619],[21.1630964462007,42.6757780598929],[21.1628689927708,42.6754926159907],[21.1628278499308,42.6754255807333],[21.1624145507812,42.6754291308039]]},"properties":{"name":"Naum Vecilharxi","highway":"residential","addr:street":"Naum Vecilharxi","id":"217583148"}},{"type":"Feature","geometry":{"type":"LineString","coordinates":[[21.1633142876571,42.6759552563619],[21.1630438947566,42.6761463875812]]},"properties":{"highway":"residential","id":"115119944"}},{"type":"Feature","geometry":{"type":"LineString","coordinates":[[21.1647157493319,42.6753942095289],[21.1636774765265,42.6760927599453],[21.1636362438549,42.6762241211536],[21.1634614646945,42.6763778807196]]},"properties":{"highway":"residential","id":"115119367"}},{"type":"Feature","geometry":{"type":"LineString","coordinates":[[21.1624460595649,42.6763778807196],[21.1624145507812,42.6763626675958]]},"properties":{"name":"Sali Matoshi","highway":"residential","addr:street":"Sali Matoshi","id":"217583149"}},{"type":"Feature","geometry":{"type":"LineString","coordinates":[[21.164992699934,42.6763377163437],[21.1650518731151,42.6763778807196]]},"properties":{"highway":"residential","id":"230364793"}},{"type":"Feature","geometry":{"type":"LineString","coordinates":[[21.1643622081207,42.6743585769338],[21.1643643283927,42.6743645647885],[21.1644682634711,42.6746580714163],[21.1646607724365,42.6752014909195],[21.1647157493319,42.6753942095289],[21.1649710505356,42.6762095915213],[21.164992699934,42.6763377163437],[21.1649881246997,42.6763778807196]]},"properties":{"ref":"M25","name":"Vëllezërit Fazliu","highway":"primary","int_ref":"E 80","addr:street":"Vëllezërit Fazliu","id":"144928667"}}]}