{"type":"FeatureCollection","features":[{"type":"Feature","geometry":{"type":"LineString","coordinates":[[21.1376953125,42.6624236405074],[21.1382940540288,42.6622413763275]]},"properties":{"name":"Nazım Hikmeta","highway":"residential","addr:street":"Nazım Hikmeta","id":"112996780"}},{"type":"Feature","geometry":{"type":"LineString","coordinates":[[21.1390686035156,42.6632159955192],[21.1389544026031,42.6632344628604],[21.1388508954709,42.6632512332626]]},"properties":{"name":"Gjergj Balsha","highway":"tertiary","id":"112996826"}},{"type":"Feature","geometry":{"type":"LineString","coordinates":[[21.1384129018578,42.6632512332626],[21.1381080997739,42.6625550569487]]},"properties":{"highway":"residential","id":"115119887"}},{"type":"Feature","geometry":{"type":"LineString","coordinates":[[21.1376963766842,42.6632512332626],[21.1377014324448,42.6631508999669],[21.1378792090395,42.6631020833313]]},"properties":{"highway":"residential","id":"115120301"}},{"type":"Feature","geometry":{"type":"LineString","coordinates":[[21.1389544026031,42.6632344628604],[21.1389571317727,42.6632512332626]]},"properties":{"highway":"residential","id":"115119817"}}]}