{"type":"FeatureCollection","features":[{"type":"Feature","geometry":{"type":"LineString","coordinates":[[21.1377812138717,42.6501218136802],[21.1376953125,42.6500985828978]]},"properties":{"ref":"M-9","name":"Nëna Terezë","oneway":"yes","highway":"trunk","maxspeed":"60","id":"131411393"}},{"type":"Feature","geometry":{"type":"LineString","coordinates":[[21.1376953125,42.6499936133946],[21.1381705855833,42.6501218136802]]},"properties":{"ref":"M-9","name":"Nëna Terezë","oneway":"yes","highway":"trunk","name:en":"League of Peja","wikipedia":"sq:Lidhja e Pejës","id":"215900689"}},{"type":"Feature","geometry":{"type":"LineString","coordinates":[[21.1376953125,42.649921507539],[21.137993025586,42.6500047611507],[21.1384165812424,42.6501209810462],[21.1384196163714,42.6501218136802]]},"properties":{"oneway":"yes","highway":"primary","id":"215900697"}},{"type":"Feature","geometry":{"type":"LineString","coordinates":[[21.1383944860699,42.649111743509],[21.1384030166817,42.6491277861707],[21.1384422730596,42.6491702047433],[21.1385271638539,42.6492362772287],[21.1390686035156,42.6493929554959]]},"properties":{"highway":"residential","id":"216105864"}}]}