{"type":"FeatureCollection","features":[{"type":"Feature","geometry":{"type":"LineString","coordinates":[[21.1429731956896,42.6565455750359],[21.1429845928151,42.6561818902538]]},"properties":{"highway":"tertiary","maxspeed":"40"}},{"type":"Feature","geometry":{"type":"LineString","coordinates":[[21.1426136000814,42.6567020820791],[21.1428533604307,42.6566467199873]]},"properties":{"highway":"secondary"}},{"type":"Feature","geometry":{"type":"LineString","coordinates":[[21.1430911444864,42.6566697765207],[21.1430699442457,42.6566956077558],[21.1430385930423,42.6567147664655],[21.1430003248112,42.6567254689145],[21.1429593616342,42.6567263938174],[21.1429203747509,42.6567174090456],[21.1428876760746,42.6566997698208],[21.1428645893718,42.6566752598784],[21.1428533604307,42.6566467199873],[21.1428555163874,42.6566168587908],[21.1428705182526,42.6565891777131],[21.1428967490589,42.6565665836024],[21.1429316935235,42.6565515208573],[21.1429731956896,42.6565455750359],[21.1430115537522,42.6565490764642],[21.1430480253528,42.6565621572698],[21.1430768612734,42.6565834961539],[21.1430949174106,42.6566105165879],[21.1430919529702,42.6566487679891],[21.1430911444864,42.6566697765207]]},"properties":{"highway":"secondary","maxspeed":"40"}},{"type":"Feature","geometry":{"type":"LineString","coordinates":[[21.1418151855469,42.6570362713036],[21.1419269278782,42.6569794863768],[21.1423350325118,42.6568007823925],[21.1426136000814,42.6567020820791]]},"properties":{"name":"Ahmet Krasniqi","highway":"secondary","maxspeed":"40","name:old":"Fan S. Noli","name:oldsq":"Fan S. Noli","name:oldsr":"Fane S. Nolija","addr:street":"Ahmet Krasniqi","descriptionold:url":"http://en.wikipedia.org/wiki/Fan_S._Noli"}},{"type":"Feature","geometry":{"type":"LineString","coordinates":[[21.1431884765625,42.6566039008987],[21.1430949174106,42.6566105165879]]},"properties":{"highway":"secondary"}}]}