{"type":"FeatureCollection","features":[{"type":"Feature","geometry":{"type":"LineString","coordinates":[[21.1648126580269,42.6733489004355],[21.1651437965647,42.6735395157808]]},"properties":{"highway":"residential"}},{"type":"Feature","geometry":{"type":"LineString","coordinates":[[21.1638139306181,42.6734331145711],[21.1637878417969,42.6734262314485]]},"properties":{"name":"Verrat e Llukës","highway":"residential","addr:street":"Verrat e Llukës"}},{"type":"Feature","geometry":{"type":"LineString","coordinates":[[21.1641949846017,42.6733489004355],[21.1649423044465,42.6737939929197],[21.1651437965647,42.6735395157808]]},"properties":{"name":"Kruja","highway":"residential","addr:street":"Kruja"}},{"type":"Feature","geometry":{"type":"LineString","coordinates":[[21.1650436218358,42.6743585769338],[21.165068697407,42.6743331930485],[21.1651611328125,42.6742454023828]]},"properties":{"ele":"-5","name":"Burim Grajçevci","highway":"residential","surface":"paving_stones","maxspeed":"20"}},{"type":"Feature","geometry":{"type":"LineString","coordinates":[[21.1651437965647,42.6735395157808],[21.1651611328125,42.6735495835683]]},"properties":{"highway":"residential"}},{"type":"Feature","geometry":{"type":"LineString","coordinates":[[21.1637878417969,42.6733632188519],[21.1638139306181,42.6734331145711],[21.1642840190063,42.6741377632631],[21.1643622081207,42.6743585769338]]},"properties":{"ref":"M25","name":"Vëllezërit Fazliu","highway":"primary","int_ref":"E 80","addr:street":"Vëllezërit Fazliu"}}]}