{"type":"FeatureCollection","features":[{"type":"Feature","geometry":{"type":"LineString","coordinates":[[21.170685593384,42.6474016164454],[21.170668255899,42.6474139062824],[21.170654296875,42.6474194596393]]},"properties":{"highway":"residential"}},{"type":"Feature","geometry":{"type":"LineString","coordinates":[[21.170654296875,42.6473608461377],[21.170685593384,42.6474016164454],[21.1711353511451,42.6481016569353]]},"properties":{"name":"Vellezerit Gervalla","highway":"residential"}},{"type":"Feature","geometry":{"type":"LineString","coordinates":[[21.1708454006411,42.6460814345807],[21.1709739525902,42.6464432659788],[21.1711052862847,42.6465022052229],[21.1713263616762,42.6464130695059]]},"properties":{"highway":"service"}},{"type":"Feature","geometry":{"type":"LineString","coordinates":[[21.1717040506116,42.6460814345807],[21.1717894432051,42.6462386961513]]},"properties":{"highway":"residential"}},{"type":"Feature","geometry":{"type":"LineString","coordinates":[[21.1711674033809,42.6460814345807],[21.1713263616762,42.6464130695059],[21.1723007642649,42.6478197999116],[21.1725839056966,42.6481016569353]]},"properties":{"highway":"residential"}},{"type":"Feature","geometry":{"type":"LineString","coordinates":[[21.1730217221877,42.6460814345807],[21.1730508575271,42.6461902626925],[21.1734008789062,42.6467912876267]]},"properties":{"highway":"residential"}},{"type":"Feature","geometry":{"type":"LineString","coordinates":[[21.1720322218464,42.6460814345807],[21.1724445845418,42.6470594161913],[21.1730499271359,42.6481016569353]]},"properties":{"highway":"residential"}},{"type":"Feature","geometry":{"type":"LineString","coordinates":[[21.1734008789062,42.6479785215017],[21.1723222907967,42.6460814345807]]},"properties":{"highway":"residential"}},{"type":"Feature","geometry":{"type":"LineString","coordinates":[[21.170654296875,42.6465359409285],[21.1707401211217,42.6465923980163],[21.170946553974,42.6467542161143],[21.1711236119165,42.6469416047781],[21.1716573908584,42.6475748632786],[21.1720930932696,42.6481016569353]]},"properties":{"name":"Rruga B","oneway":"yes","highway":"secondary","maxspeed":"40"}},{"type":"Feature","geometry":{"type":"LineString","coordinates":[[21.1719310866488,42.6481016569353],[21.1716270278018,42.6477099188276],[21.1712353623379,42.6471969176202],[21.1709081060799,42.6468575574641],[21.1707184717234,42.6466969950628],[21.170654296875,42.6466511188344]]},"properties":{"name":"Rruga B","oneway":"yes","highway":"secondary","maxspeed":"40","addr:street":"Muharrem Fejza"}}]}