{"type":"FeatureCollection","features":[{"type":"Feature","geometry":{"type":"Polygon","coordinates":[[[21.1637878417969,42.659754616942],[21.1638653142524,42.6597395884218],[21.1638422275496,42.6596288695975],[21.1637878417969,42.6596362275216],[21.1637878417969,42.659754616942]]]},"properties":{"name":"Fakulteti Ekonomik","amenity":"university","building":"yes","way_area":"2045.49","id":"87407299"}},{"type":"Feature","geometry":{"type":"Polygon","coordinates":[[[21.1638700753234,42.6597580855809],[21.1639748188855,42.6600666570192],[21.1642984818824,42.660015591888],[21.1641984095597,42.6597125032861],[21.1638700753234,42.6597580855809]]]},"properties":{"name":"Fakulteti Juridik","amenity":"university","building":"yes","way_area":"1763.44","id":"122316652"}},{"type":"Feature","geometry":{"type":"Polygon","coordinates":[[[21.1641538531216,42.6595770774306],[21.1641815212324,42.6596963843217],[21.1643576808596,42.6596648069941],[21.1644202036034,42.6598964837928],[21.1645845953004,42.6598701914593],[21.1644317918705,42.659332715592],[21.1642692866357,42.6593638967182],[21.1643224669005,42.659544773366],[21.1641538531216,42.6595770774306]]]},"properties":{"name":"Fakulteti i Edukimit","amenity":"university","building":"yes","way_area":"1897.55","id":"87407300"}},{"type":"Feature","geometry":{"type":"Polygon","coordinates":[[[21.164877446083,42.659303516303],[21.1649515570939,42.6596159215598],[21.1651611328125,42.6595889862879],[21.1651611328125,42.659267105337],[21.164877446083,42.659303516303]]]},"properties":{"website":"http://www.masht-gov.net/","alt_name":"Ministry of Education","building":"yes","way_area":"2595.03","addr:city":"Prishtinë: Kosovë","government":"yes","addr:street":"Rruga. Agim Ramadani","addr:postcode":"10000","id":"97946638"}},{"type":"Feature","geometry":{"type":"Polygon","coordinates":[[[21.1646616075939,42.660221613248],[21.1646550232186,42.6601592083338],[21.1640717471047,42.6602018836259],[21.1640424175171,42.660221613248],[21.1646616075939,42.660221613248]]]},"properties":{"building":"yes","way_area":"2472.46","id":"125541124"}},{"type":"Feature","geometry":{"type":"Polygon","coordinates":[[[21.1649846150964,42.659830686877],[21.1650599837487,42.6601810744701],[21.1651611328125,42.6601668731551],[21.1651611328125,42.6598380796555],[21.1649846150964,42.659830686877]]]},"properties":{"website":"http://www.ashak.org/","building":"yes","way_area":"2117.52","government":"yes","id":"104163450"}}]}