{"type":"FeatureCollection","features":[{"type":"Feature","geometry":{"type":"LineString","coordinates":[[21.1556218498674,42.6743585769338],[21.1556740263341,42.6745002886602],[21.155720918392,42.6746805929072],[21.1557835309673,42.6750219807244],[21.1557939514246,42.675313502905],[21.1557267201214,42.6753682370286]]},"properties":{"name":"Hys Pupova","highway":"residential","addr:street":"Hys Pupova","id":"217584397"}},{"type":"Feature","geometry":{"type":"LineString","coordinates":[[21.1557835309673,42.6750219807244],[21.1559869993791,42.674711304018],[21.1564969347068,42.6743585769338]]},"properties":{"name":"Selman Kadria","highway":"residential","addr:street":"Selman Kadria","id":"115120323"}},{"type":"Feature","geometry":{"type":"LineString","coordinates":[[21.1558799342233,42.6753682370286],[21.1557939514246,42.675313502905],[21.1555480957031,42.6750653764645]]},"properties":{"name":"Ismet Krasniqi","highway":"residential","addr:street":"Ismet Krasniqi","id":"50854155"}},{"type":"Feature","geometry":{"type":"LineString","coordinates":[[21.1567471537725,42.6752878114946],[21.1563760597287,42.6750408696067]]},"properties":{"highway":"residential","id":"113576306"}},{"type":"Feature","geometry":{"type":"LineString","coordinates":[[21.1566760730022,42.6753682370286],[21.1567471537725,42.6752878114946],[21.1569150488991,42.6750474080646],[21.1569213867188,42.6750411571776]]},"properties":{"name":"Fitush Kukaj","highway":"residential","addr:street":"Fitush Kukaj","id":"115120146"}}]}