{"type":"FeatureCollection","features":[{"type":"Feature","geometry":{"type":"LineString","coordinates":[[21.1563968108117,42.653468404046],[21.1563122489136,42.6531519257789]]},"properties":{"foot":"yes","bicycle":"yes","highway":"footway","surface":"cobblestone","id":"105774827"}},{"type":"Feature","geometry":{"type":"LineString","coordinates":[[21.1557240624955,42.6540149157651],[21.1555480957031,42.6539624130668]]},"properties":{"foot":"yes","name":"Ymer Alushani","oneway":"no","bicycle":"yes","highway":"service","surface":"asphalt","cycleway":"no","id":"224415747"}},{"type":"Feature","geometry":{"type":"LineString","coordinates":[[21.1563689630379,42.6535106214546],[21.1564366960104,42.653540814482],[21.1564688556975,42.6535665148811],[21.1564816117746,42.6536054949006],[21.156464004795,42.6536393876774],[21.1564299586457,42.6536689199649],[21.1563776766962,42.6536769802289],[21.1563324914374,42.6536740732485],[21.1562735619548,42.6536496942491]]},"properties":{"highway":"service","id":"281733518"}},{"type":"Feature","geometry":{"type":"LineString","coordinates":[[21.1557915259733,42.6540358591191],[21.1557240624955,42.6540149157651]]},"properties":{"foot":"yes","name":"Ymer Alushani","oneway":"no","highway":"steps","surface":"asphalt","cycleway":"no","sidewalk":"none","id":"105774811"}},{"type":"Feature","geometry":{"type":"LineString","coordinates":[[21.1560155658052,42.6540983588025],[21.1557915259733,42.6540358591191]]},"properties":{"foot":"yes","oneway":"no","tunnel":"yes","highway":"service","surface":"asphalt","sidewalk":"none","id":"105774821"}},{"type":"Feature","geometry":{"type":"LineString","coordinates":[[21.155989846441,42.6541619303399],[21.1560155658052,42.6540983588025],[21.1562735619548,42.6536496942491],[21.1563689630379,42.6535106214546],[21.1563968108117,42.653468404046],[21.1565410802464,42.6532737675472],[21.1567008932715,42.6531519257789]]},"properties":{"foot":"yes","name":"Xhemajl Mustafa","oneway":"no","bicycle":"yes","highway":"service","surface":"asphalt","cycleway":"no","sidewalk":"both","id":"54625659"}},{"type":"Feature","geometry":{"type":"LineString","coordinates":[[21.1568825361722,42.6531519257789],[21.1569213867188,42.6532093499134]]},"properties":{"name":"Ilaz Kodra","lanes":"1","layer":"1","oneway":"no","highway":"tertiary","maxspeed":"40","id":"122316650"}},{"type":"Feature","geometry":{"type":"LineString","coordinates":[[21.156896676132,42.6541619303399],[21.1568872011253,42.654080983104],[21.1568289902949,42.6539686025186]]},"properties":{"highway":"service","id":"218121866"}}]}