{"type":"FeatureCollection","features":[{"type":"Feature","geometry":{"type":"LineString","coordinates":[[21.1555480957031,42.6523034983173],[21.1558755184524,42.6522608683173],[21.156334467731,42.6522012077674]]},"properties":{"highway":"service","id":"105505578"}},{"type":"Feature","geometry":{"type":"LineString","coordinates":[[21.1558755184524,42.6522608683173],[21.155901300101,42.6523803213838],[21.1555480957031,42.6524271037661]]},"properties":{"highway":"service","id":"105774818"}},{"type":"Feature","geometry":{"type":"LineString","coordinates":[[21.1563122489136,42.6531519257789],[21.1560674884286,42.6522358941406]]},"properties":{"foot":"yes","bicycle":"yes","highway":"footway","surface":"cobblestone","id":"105774827"}},{"type":"Feature","geometry":{"type":"LineString","coordinates":[[21.1565911164077,42.6527002932627],[21.1564145974544,42.6527571123794],[21.1565145799455,42.652927305144]]},"properties":{"highway":"service","id":"105774813"}},{"type":"Feature","geometry":{"type":"LineString","coordinates":[[21.1567008932715,42.6531519257789],[21.1568207257943,42.6530605652251]]},"properties":{"foot":"yes","name":"Xhemajl Mustafa","oneway":"no","bicycle":"yes","highway":"service","surface":"asphalt","cycleway":"no","sidewalk":"both","id":"54625659"}},{"type":"Feature","geometry":{"type":"LineString","coordinates":[[21.1563254924861,42.6521419048153],[21.156334467731,42.6522012077674],[21.156465711594,42.6525065793257],[21.1565911164077,42.6527002932627],[21.1567007108724,42.6528436623296],[21.1568207257943,42.6530605652251],[21.1568825361722,42.6531519257789]]},"properties":{"name":"Ilaz Kodra","lanes":"1","layer":"1","oneway":"no","highway":"tertiary","maxspeed":"40","id":"122316650"}}]}