{"type":"FeatureCollection","features":[{"type":"Feature","geometry":{"type":"LineString","coordinates":[[21.1499371154352,42.6737021884141],[21.1487837684419,42.6736547670408],[21.148681640625,42.6736467687073]]},"properties":{"name":"Qemail Stafa","highway":"residential","addr:street":"Qemail Stafa"}},{"type":"Feature","geometry":{"type":"LineString","coordinates":[[21.1514282226562,42.6726575504146],[21.150953865134,42.6723392075335]]},"properties":{"name":"7 Shtator","highway":"residential"}},{"type":"Feature","geometry":{"type":"LineString","coordinates":[[21.1514282226562,42.6734061884139],[21.1513553756057,42.6734464560115],[21.1510436602021,42.6736039772569],[21.1507432635711,42.6736946591177],[21.1505662954602,42.6737025846928],[21.1503570778305,42.6736946591177],[21.1499371154352,42.6737021884141]]},"properties":{"name":"Plava","highway":"residential","addr:street":"Plava"}},{"type":"Feature","geometry":{"type":"LineString","coordinates":[[21.1499264254833,42.6740414020848],[21.1487409188028,42.6740097659972]]},"properties":{"highway":"residential"}},{"type":"Feature","geometry":{"type":"LineString","coordinates":[[21.1499371154352,42.6737021884141],[21.1499264254833,42.6740414020848],[21.1499316493143,42.6743585769338]]},"properties":{"name":"Plava","highway":"residential","addr:street":"Plava"}},{"type":"Feature","geometry":{"type":"LineString","coordinates":[[21.1512475777716,42.6742390116875],[21.1512912956332,42.6743585769338]]},"properties":{"highway":"service"}},{"type":"Feature","geometry":{"type":"MultiLineString","coordinates":[[[21.1514282226562,42.6742148453583],[21.1512475777716,42.6742390116875],[21.1500341419227,42.6743585769338]],[[21.1488290889684,42.6743585769338],[21.1487676885983,42.6743331930485],[21.1487409188028,42.6742898009525],[21.1487140591758,42.6742425121194],[21.1487032793924,42.6741517650119],[21.1487409188028,42.6740097659972],[21.1487837684419,42.6736547670408]]]},"properties":{"name":"Ismet Krasniqi","highway":"residential","addr:street":"Ismet Krasniqi"}}]}