{"type":"FeatureCollection","features":[{"type":"Feature","geometry":{"type":"LineString","coordinates":[[21.148681640625,42.6590303458645],[21.1494965816198,42.6595252191591],[21.1500007161573,42.6599377059214],[21.1503867117334,42.660221613248]]},"properties":{"highway":"residential"}},{"type":"Feature","geometry":{"type":"LineString","coordinates":[[21.1490379883251,42.6582017845567],[21.1495531754827,42.6586047771892],[21.1506261232581,42.6595042115922],[21.1511518173624,42.6600012566495],[21.1513429742822,42.660221613248]]},"properties":{"highway":"residential"}},{"type":"Feature","geometry":{"type":"LineString","coordinates":[[21.151338756773,42.6587330704277],[21.1512255690472,42.6588030964915]]},"properties":{"highway":"footway"}},{"type":"Feature","geometry":{"type":"LineString","coordinates":[[21.1512241317427,42.65863166462],[21.151338756773,42.6587330704277],[21.1514229289151,42.65880739054],[21.1514282226562,42.6588043308916]]},"properties":{"highway":"service","service":"parking_aisle"}},{"type":"Feature","geometry":{"type":"LineString","coordinates":[[21.1511234305994,42.6588683659969],[21.1510647706113,42.6589058893253],[21.1510489602623,42.6589161950242],[21.1510317126089,42.6589269631565]]},"properties":{"highway":"footway"}},{"type":"Feature","geometry":{"type":"LineString","coordinates":[[21.148681640625,42.6600991009787],[21.1488515444344,42.660221613248]]},"properties":{"name":"Ahmet Krasniqi","highway":"secondary","maxspeed":"40","name:old":"Fan S. Noli","name:oldsq":"Fan S. Noli","name:oldsr":"Fane S. Nolija","addr:street":"Ahmet Krasniqi","descriptionold:url":"http://en.wikipedia.org/wiki/Fan_S._Noli"}},{"type":"Feature","geometry":{"type":"LineString","coordinates":[[21.1510814312923,42.6582017845567],[21.1514282226562,42.6585365924045]]},"properties":{"highway":"secondary","name:sq":"Tirana","name:old":"Omladinskih brigada"}}]}