{"type":"FeatureCollection","features":[{"type":"Feature","geometry":{"type":"LineString","coordinates":[[21.1445617675781,42.666562901915],[21.1458028888346,42.6668366764494],[21.1459350585938,42.6667738925156]]},"properties":{"highway":"service"}},{"type":"Feature","geometry":{"type":"LineString","coordinates":[[21.1445617675781,42.6666297674137],[21.1452638098326,42.6667786812286],[21.1458120516505,42.6669022017362],[21.1459350585938,42.6668447178192]]},"properties":{"name":"Stambolli","highway":"residential","addr:street":"Stambolli"}},{"type":"Feature","geometry":{"type":"LineString","coordinates":[[21.1452638098326,42.6667786812286],[21.145051717594,42.6670112562692]]},"properties":{"highway":"unclassified"}},{"type":"Feature","geometry":{"type":"LineString","coordinates":[[21.1458120516505,42.6669022017362],[21.1457690223484,42.6669492979935],[21.1457347067045,42.6670028014122],[21.1456998520715,42.6671645003531],[21.1456824345596,42.6672904969717]]},"properties":{"highway":"residential"}},{"type":"Feature","geometry":{"type":"LineString","coordinates":[[21.1459350585938,42.6669199503481],[21.1458120516505,42.6669022017362]]},"properties":{"highway":"unclassified"}}]}