{"type":"FeatureCollection","features":[{"type":"Feature","geometry":{"type":"LineString","coordinates":[[21.1595831905372,42.6703197725191],[21.15966796875,42.6703907349306]]},"properties":{"highway":"tertiary","addr:street":"Zabgrebi"}},{"type":"Feature","geometry":{"type":"LineString","coordinates":[[21.1583753270396,42.6703197725191],[21.1582946777344,42.6703721011961]]},"properties":{"highway":"residential"}},{"type":"Feature","geometry":{"type":"LineString","coordinates":[[21.1589810165624,42.6703197725191],[21.158977670623,42.6703254716372],[21.158320103835,42.6707386793397]]},"properties":{"highway":"residential"}},{"type":"Feature","geometry":{"type":"LineString","coordinates":[[21.1594489268211,42.6709088889388],[21.158977670623,42.6703254716372]]},"properties":{"highway":"residential"}},{"type":"Feature","geometry":{"type":"LineString","coordinates":[[21.15966796875,42.6707317476556],[21.1594489268211,42.6709088889388],[21.1592804028738,42.6710452148007]]},"properties":{"highway":"residential"}}]}