{"type":"FeatureCollection","features":[{"type":"Feature","geometry":{"type":"LineString","coordinates":[[21.148681640625,42.6464863029075],[21.1491011432318,42.6468407083427],[21.1494045941347,42.6472127755262],[21.1495173327029,42.6474240156627],[21.1495848860123,42.647685273194],[21.1496705074145,42.6481016569353]]},"properties":{"name":"Shefqet Shkupi","highway":"tertiary","addr:street":"Shefqet Shkupi","id":"216235783"}},{"type":"Feature","geometry":{"type":"LineString","coordinates":[[21.151086086428,42.6460814345807],[21.1502315831853,42.6464611063389]]},"properties":{"highway":"residential","id":"112692724"}},{"type":"Feature","geometry":{"type":"LineString","coordinates":[[21.1514282226562,42.6463457585264],[21.1511935890231,42.6464506664251]]},"properties":{"highway":"residential","id":"113548665"}},{"type":"Feature","geometry":{"type":"LineString","coordinates":[[21.1514282226562,42.6468692086329],[21.1495848860123,42.647685273194]]},"properties":{"name":"Mesini Prishtinasi","highway":"residential","addr:street":"Rr. Mesihi Prishtinasi","id":"112692722"}},{"type":"Feature","geometry":{"type":"LineString","coordinates":[[21.1497333778812,42.6481016569353],[21.1514282226562,42.6473447335772]]},"properties":{"highway":"residential","id":"113548649"}},{"type":"Feature","geometry":{"type":"LineString","coordinates":[[21.1514282226562,42.6478672453285],[21.150864959158,42.6481016569353]]},"properties":{"name":"Martin Barleti","highway":"residential","id":"112692753"}}]}