{"type":"FeatureCollection","features":[{"type":"Feature","geometry":{"type":"LineString","coordinates":[[21.1671926740648,42.648290178618],[21.1670562125111,42.6481016569353]]},"properties":{"highway":"steps"}},{"type":"Feature","geometry":{"type":"LineString","coordinates":[[21.1678106084247,42.6481016569353],[21.1677594211775,42.6481610048789],[21.1676157805636,42.6482402931393],[21.1672463933188,42.648364379064]]},"properties":{"highway":"service"}},{"type":"Feature","geometry":{"type":"LineString","coordinates":[[21.1672966989747,42.6484363990026],[21.1672463933188,42.648364379064],[21.1671926740648,42.648290178618]]},"properties":{"foot":"yes","highway":"footway"}},{"type":"Feature","geometry":{"type":"LineString","coordinates":[[21.167534752525,42.6487770059313],[21.1672966989747,42.6484363990026]]},"properties":{"highway":"steps"}},{"type":"Feature","geometry":{"type":"LineString","coordinates":[[21.1667973363018,42.649111743509],[21.1668097222591,42.6491065768736],[21.1672173777351,42.648940866602],[21.1675546052927,42.6488054172882],[21.1679077148438,42.6486764299759]]},"properties":{"name":"Agim Ramadani","oneway":"yes","highway":"residential","maxspeed":"60"}},{"type":"Feature","geometry":{"type":"LineString","coordinates":[[21.1670521522558,42.649111743509],[21.16761380427,42.6488940870675],[21.1679077148438,42.6487777643737]]},"properties":{"name":"Agim Ramadani","lanes":"2","oneway":"-1","highway":"residential","maxspeed":"60","wikipedia":"sq:Agim Ramadani"}}]}