{"type":"FeatureCollection","features":[{"type":"Feature","geometry":{"type":"Polygon","coordinates":[[[21.1528015136719,42.6475065579871],[21.1528357093624,42.6475553713821],[21.1532186611681,42.6474351822311],[21.1531043056324,42.6472583009087],[21.1528015136719,42.647360856743],[21.1528015136719,42.6475065579871]]]},"properties":{"name":"UBT-University for Buisness and Technology","smoking":"outside","building":"yes","way_area":"1355.29","addr:city":"Prishtinë: Kosovë","building:levels":"4","id":"269962786"}},{"type":"Feature","geometry":{"type":"Polygon","coordinates":[[[21.1537591774745,42.6473555625722],[21.1537603452844,42.6474534848271],[21.1540781692319,42.647451172225],[21.1540761929383,42.6472955669445],[21.1539978598455,42.6472961616151],[21.153996422541,42.6471729986045],[21.1537766946225,42.6471745183212],[21.1537782217585,42.6472925935914],[21.1538974281967,42.6472918006972],[21.153898146849,42.6473547036044],[21.1537591774745,42.6473555625722]]]},"properties":{"name":"Ministria e Forcës së Sigurisë","amenity":"public_building","website":"www.mksf-ks.org","building":"yes","int_name":"Ministry for the Kosovo Secuirty Force","way_area":"1143.46","addr:city":"Prishtinë: Kosovë","addr:street":"Lagjja: “Emshiri - 1”","addr:postcode":"10000","addr:housename":"Ministria e Forcës së Sigurisë","id":"128628686"}}]}