{"type":"FeatureCollection","features":[{"type":"Feature","geometry":{"type":"LineString","coordinates":[[21.15966796875,42.6689005118724],[21.1600065111179,42.6687600658795],[21.1600741542588,42.6686753214809]]},"properties":{"name":"Vushtrria","highway":"residential","id":"50303903"}},{"type":"Feature","geometry":{"type":"LineString","coordinates":[[21.1600741542588,42.6686753214809],[21.1599741717677,42.6686049102247],[21.1599852714185,42.6683002718908]]},"properties":{"lanes":"1","width":"5","oneway":"yes","highway":"residential","surface":"asphalt","id":"207114867"}},{"type":"Feature","geometry":{"type":"LineString","coordinates":[[21.1610412597656,42.668470011472],[21.1602442053421,42.6685668643346],[21.1600741542588,42.6686753214809]]},"properties":{"name":"Vushtrria","oneway":"yes","highway":"residential","id":"231363872"}},{"type":"Feature","geometry":{"type":"LineString","coordinates":[[21.1598153080702,42.6693100304066],[21.15966796875,42.6691331138741]]},"properties":{"name":"Lidhja e Lezhës","oneway":"yes","highway":"residential","addr:street":"Lidja e Lezhës","id":"216245869"}},{"type":"Feature","geometry":{"type":"LineString","coordinates":[[21.1607455511756,42.6693100304066],[21.1609432742962,42.6689911803747],[21.1610412597656,42.6688193291854]]},"properties":{"name":"Rr. Murat Mehmeti","highway":"residential","id":"114119845"}}]}