{"type":"FeatureCollection","features":[{"type":"Feature","geometry":{"type":"LineString","coordinates":[[21.15966796875,42.659439018104],[21.1605721802523,42.65932690216]]},"properties":{"name":"Garibaldi","highway":"residential","id":"4854727"}},{"type":"Feature","geometry":{"type":"LineString","coordinates":[[21.1605721802523,42.65932690216],[21.16054455195,42.6592117071038]]},"properties":{"name":"Bulevardi Nëna Tereze","oneway":"yes","highway":"secondary","name:en":"Mother Theresa","wikipedia":"en:Mother Teresa","id":"124916226"}},{"type":"Feature","geometry":{"type":"LineString","coordinates":[[21.1606625616043,42.6592117071038],[21.1606687491454,42.6592387757489],[21.16066138296,42.6592881899738],[21.1606192519732,42.6593150771091],[21.1605721802523,42.65932690216]]},"properties":{"name":"Bulevardi Nëna Tereze","oneway":"yes","highway":"secondary","name:en":"Mother Theresa","wikipedia":"en:Mother Teresa","id":"144928688"}},{"type":"Feature","geometry":{"type":"LineString","coordinates":[[21.1601018691877,42.6592117071038],[21.1601413482421,42.6593742684028]]},"properties":{"highway":"service","id":"124899281"}},{"type":"Feature","geometry":{"type":"LineString","coordinates":[[21.1610412597656,42.6595947667577],[21.1610270871122,42.6595270028201]]},"properties":{"tunnel":"yes","highway":"service","id":"125541078"}},{"type":"Feature","geometry":{"type":"LineString","coordinates":[[21.1607750198435,42.659695459463],[21.1610412597656,42.6596538610654]]},"properties":{"highway":"service","id":"47908278"}},{"type":"Feature","geometry":{"type":"LineString","coordinates":[[21.1610270871122,42.6595270028201],[21.1610412597656,42.6595072106325]]},"properties":{"highway":"service","id":"125541146"}},{"type":"Feature","geometry":{"type":"LineString","coordinates":[[21.16066138296,42.6592881899738],[21.1607750198435,42.659695459463],[21.1608032269434,42.6598155588614],[21.1608471545608,42.6599254846201],[21.1609804626654,42.660221613248]]},"properties":{"foot":"designated","name":"Bulevardi Nëna Tereze","bicycle":"yes","highway":"pedestrian","name:en":"Mother Theresa","surface":"paved","wikipedia":"en:Mother Teresa","id":"4854628"}}]}