{"type":"FeatureCollection","features":[{"type":"Feature","geometry":{"type":"LineString","coordinates":[[21.172550555327,42.6551719184982],[21.1726652107756,42.6553297086768],[21.1732563920641,42.6558183967904]]},"properties":{"highway":"residential"}},{"type":"Feature","geometry":{"type":"LineString","coordinates":[[21.1720275878906,42.6556521069244],[21.1724696475383,42.655957001967],[21.1724947105347,42.6561699961644]]},"properties":{"name":"Ferat Dragaj","highway":"residential"}},{"type":"Feature","geometry":{"type":"LineString","coordinates":[[21.1724095228297,42.6551719184982],[21.1726652107756,42.6553297086768]]},"properties":{"highway":"residential"}},{"type":"Feature","geometry":{"type":"LineString","coordinates":[[21.1734008789062,42.6558110774576],[21.1732563920641,42.6558183967904],[21.1728313092717,42.6558949005438],[21.1724696475383,42.655957001967],[21.1720275878906,42.6560344389015]]},"properties":{"foot":"yes","name":"Gazmend Zajmi","lanes":"2","oneway":"no","bicycle":"yes","highway":"residential","surface":"asphalt","cycleway":"no","name:old":"Dubrovniku","sidewalk":"both"}}]}