{"type":"FeatureCollection","features":[{"type":"Feature","geometry":{"type":"LineString","coordinates":[[21.1515071506774,42.6652708979236],[21.151479522778,42.6652157623115],[21.1514282226562,42.6651193751989]]},"properties":{"highway":"service"}},{"type":"Feature","geometry":{"type":"LineString","coordinates":[[21.1523684592876,42.6642610737947],[21.1522916896264,42.6649876723423],[21.1522719266901,42.6650458013453],[21.1522217108657,42.6650860952813],[21.152119752081,42.6651438939145]]},"properties":{"name":"Metush Krasniqi","highway":"residential","addr:street":"Metush Krasniqi"}},{"type":"Feature","geometry":{"type":"LineString","coordinates":[[21.1528015136719,42.66507254607],[21.1522719266901,42.6650458013453]]},"properties":{"lit":"yes","name":"ShkallÃ«t e Dragodanit","highway":"steps"}},{"type":"Feature","geometry":{"type":"LineString","coordinates":[[21.1521860987948,42.6652708979236],[21.152119752081,42.6651438939145],[21.1519301177245,42.6647165130363],[21.1517656465493,42.6642610737947]]},"properties":{"name":"24 Maji","highway":"residential","addr:street":"24 Maji"}},{"type":"Feature","geometry":{"type":"LineString","coordinates":[[21.1519301177245,42.6647165130363],[21.1517192094244,42.6652708979236]]},"properties":{"name":"Izmail Qemali","highway":"residential","addr:street":"Izmail Qemali"}}]}