{"type":"FeatureCollection","features":[{"type":"Feature","geometry":{"type":"LineString","coordinates":[[21.1546451858392,42.6651551894126],[21.1541748046875,42.6651334918936]]},"properties":{"lit":"yes","name":"ShkallÃ«t e Dragodanit","highway":"steps","id":"217583150"}},{"type":"Feature","geometry":{"type":"LineString","coordinates":[[21.1554193539511,42.6645052655759],[21.1553945604492,42.6642806739927],[21.1554098799491,42.6642610737947]]},"properties":{"highway":"footway","surface":"asphalt","id":"240258956"}},{"type":"Feature","geometry":{"type":"LineString","coordinates":[[21.1551026079819,42.6645211190688],[21.1550370309662,42.6642940173977],[21.1550285300748,42.6642610737947]]},"properties":{"highway":"residential","id":"113576379"}},{"type":"Feature","geometry":{"type":"LineString","coordinates":[[21.1555480957031,42.6643467461192],[21.1555259839753,42.6643537984591]]},"properties":{"highway":"service","id":"125494591"}},{"type":"Feature","geometry":{"type":"LineString","coordinates":[[21.1555480957031,42.6649930180204],[21.1553975248897,42.6647846827953],[21.1553540464299,42.6646764170288],[21.1553066153829,42.6645412001539],[21.1552900076762,42.6642610737947]]},"properties":{"highway":"tertiary","id":"4854676"}},{"type":"Feature","geometry":{"type":"LineString","coordinates":[[21.1541940640191,42.6642610737947],[21.1542517237448,42.6643096727751],[21.1543368840337,42.6644022838301],[21.1546451858392,42.6651551894126],[21.1546941724241,42.6652708979236]]},"properties":{"name":"Bajram Curri","highway":"residential","addr:street":"Bajram Curri","id":"50854138"}},{"type":"Feature","geometry":{"type":"LineString","coordinates":[[21.1548160486991,42.6642610737947],[21.154982772723,42.6644314807247],[21.1551026079819,42.6645211190688],[21.1551198556354,42.6646157775483],[21.155325659667,42.6651691931851],[21.1553799718685,42.6652708979236]]},"properties":{"highway":"tertiary","addr:street":"Zabgrebi","id":"4854667"}}]}