{"type":"FeatureCollection","features":[{"type":"Feature","geometry":{"type":"LineString","coordinates":[[21.1542606864697,42.6541619303399],[21.1542439982333,42.654197988189]]},"properties":{"foot":"yes","oneway":"no","bicycle":"yes","highway":"service","surface":"asphalt","cycleway":"no","sidewalk":"both","id":"218122467"}},{"type":"Feature","geometry":{"type":"LineString","coordinates":[[21.1544533348208,42.6541619303399],[21.1544144984743,42.6542396104982],[21.1547069899308,42.6543370594464]]},"properties":{"foot":"yes","oneway":"no","bicycle":"yes","highway":"service","cycleway":"no","sidewalk":"both","id":"105774829"}},{"type":"Feature","geometry":{"type":"LineString","coordinates":[[21.1549924745281,42.6544662864263],[21.154949624889,42.6544543943842],[21.1548075114111,42.6544109884111],[21.1547514565373,42.6543769639208],[21.1547069899308,42.6543370594464]]},"properties":{"foot":"yes","bicycle":"yes","highway":"footway","surface":"dirt","id":"281610983"}},{"type":"Feature","geometry":{"type":"LineString","coordinates":[[21.1547247765734,42.6548480858377],[21.1546583910739,42.6549598041701],[21.1545786206767,42.6551251020087],[21.1545296114619,42.6551719184982]]},"properties":{"highway":"service","id":"125550034"}},{"type":"Feature","geometry":{"type":"LineString","coordinates":[[21.1555480957031,42.6550932856997],[21.1547247765734,42.6548480858377],[21.1541748046875,42.6546962532987]]},"properties":{"ref":"M-9;M-25","name":"Bil Klinton","image":"http://www.flickr.com/photos/mopsy_slaughter/303085686/","lanes":"2","oneway":"yes","highway":"primary","name:en":"Bill Clinton Boulevard","name:pl":"Bulwar Billa Clintona","surface":"asphalt","cycleway":"no","maxspeed":"40","sidewalk":"both","wikipedia":"en:Bill Clinton Boulevard","id":"131673728"}},{"type":"Feature","geometry":{"type":"LineString","coordinates":[[21.1552619691133,42.6544285622181],[21.1554957107502,42.654551116261],[21.1555480957031,42.6545785670073]]},"properties":{"highway":"footway","id":"105774814"}},{"type":"Feature","geometry":{"type":"LineString","coordinates":[[21.1548454203161,42.6547300909766],[21.1549924745281,42.6544662864263],[21.1555480957031,42.6546723906298]]},"properties":{"foot":"yes","access":"yes","bicycle":"yes","highway":"footway","surface":"dirt","id":"281610873"}},{"type":"Feature","geometry":{"type":"LineString","coordinates":[[21.1545786206767,42.6551251020087],[21.1544339020844,42.6551226575595],[21.1541748046875,42.6551690260517]]},"properties":{"highway":"service","id":"125550059"}},{"type":"Feature","geometry":{"type":"LineString","coordinates":[[21.1554957107502,42.654551116261],[21.1555480957031,42.6545192524326]]},"properties":{"highway":"footway","id":"105774825"}},{"type":"Feature","geometry":{"type":"LineString","coordinates":[[21.1541748046875,42.6546050291067],[21.1547731059357,42.654773496727],[21.1555480957031,42.654992044713]]},"properties":{"ref":"M-9;M-25","name":"Bil Klinton","image":"http://www.flickr.com/photos/mopsy_slaughter/303085686/","lanes":"2","oneway":"yes","highway":"primary","name:en":"Bill Clinton Boulevard","name:pl":"Bulwar Billa Clintona","surface":"asphalt","cycleway":"no","maxspeed":"40","sidewalk":"both","wikipedia":"en:Bill Clinton Boulevard","id":"322292822"}}]}