{"type":"FeatureCollection","features":[{"type":"Feature","geometry":{"type":"LineString","coordinates":[[21.1546247508073,42.6582017845567],[21.1541748046875,42.6580789468581]]},"properties":{"lit":"yes","name":"Kosta Novakoviq","lanes":"2","oneway":"no","highway":"residential","surface":"asphalt","id":"39518671"}},{"type":"Feature","geometry":{"type":"LineString","coordinates":[[21.1541748046875,42.6578171536299],[21.1542599882454,42.6576832645785],[21.1544754042505,42.657294876185],[21.1545327770371,42.6571918456067]]},"properties":{"name":"Robert Doll","oneway":"no","highway":"residential","id":"47120917"}},{"type":"Feature","geometry":{"type":"LineString","coordinates":[[21.155123359065,42.6579278971522],[21.1552422960086,42.6577125967553]]},"properties":{"highway":"service","id":"124954460"}},{"type":"Feature","geometry":{"type":"LineString","coordinates":[[21.1555480957031,42.6573709362019],[21.1549312466413,42.6571918456067]]},"properties":{"name":"Mujo Ulqinaku","oneway":"yes","highway":"service","id":"47120921"}},{"type":"Feature","geometry":{"type":"LineString","coordinates":[[21.1542599882454,42.6576832645785],[21.155123359065,42.6579278971522],[21.1555480957031,42.6580386958409]]},"properties":{"name":"Pashko Vasa","oneway":"no","highway":"service","surface":"asphalt","id":"48188598"}}]}