{"type":"FeatureCollection","features":[{"type":"Feature","geometry":{"type":"LineString","coordinates":[[21.1532728619655,42.6632512332626],[21.15349031171,42.6634920208272],[21.1541748046875,42.663648946317]]},"properties":{"name":"Ahmet Krasniqi","highway":"secondary","maxspeed":"40","name:old":"Fan S. Noli","name:oldsq":"Fan S. Noli","name:oldsr":"Fane S. Nolija","addr:street":"Ahmet Krasniqi","descriptionold:url":"http://en.wikipedia.org/wiki/Fan_S._Noli","id":"300828274"}},{"type":"Feature","geometry":{"type":"LineString","coordinates":[[21.1541748046875,42.6634145420531],[21.1540821760872,42.6632512332626]]},"properties":{"name":"Ekrem Rexha","highway":"residential","addr:street":"Ekrem Rexha","id":"50833768"}},{"type":"Feature","geometry":{"type":"LineString","coordinates":[[21.1530545245655,42.6642610737947],[21.1531485617284,42.6632512332626]]},"properties":{"name":"Selim Berisha","highway":"residential","addr:street":"Selim Berisha","id":"4854733"}},{"type":"Feature","geometry":{"type":"LineString","coordinates":[[21.1536147283768,42.6639246946712],[21.1537293534071,42.6639719913546],[21.1539257251282,42.6640835611818],[21.1540244499779,42.6641380579162],[21.154125779942,42.664203519991],[21.1541748046875,42.6642448409065]]},"properties":{"name":"Bajram Curri","highway":"residential","addr:street":"Bajram Curri","id":"50854138"}},{"type":"Feature","geometry":{"type":"LineString","coordinates":[[21.1537408732987,42.6642610737947],[21.1537011463072,42.6641609135022],[21.1536147283768,42.6639246946712],[21.15349031171,42.6634920208272]]},"properties":{"name":"Eduard Lir","highway":"residential","addr:street":"Eduard Lir","id":"29561090"}}]}