{"type":"FeatureCollection","features":[{"type":"Feature","geometry":{"type":"LineString","coordinates":[[21.1532243205543,42.6666587934423],[21.1533181945015,42.6665842184989],[21.1533552949228,42.6665570042368],[21.1533726324078,42.666517305741],[21.1533589780154,42.6664180924175],[21.1533140085895,42.6662807056493]]},"properties":{"name":"Selim Berisha","highway":"residential","addr:street":"Selim Berisha","id":"4854733"}},{"type":"Feature","geometry":{"type":"LineString","coordinates":[[21.1537845780059,42.6672904969717],[21.1536211064153,42.6671090815233],[21.1532243205543,42.6666587934423],[21.1531599113485,42.6665836900667],[21.1528991123352,42.6662807056493]]},"properties":{"name":"24 Maji","highway":"residential","addr:street":"24 Maji","id":"4854678"}},{"type":"Feature","geometry":{"type":"LineString","coordinates":[[21.1536211064153,42.6671090815233],[21.1535421445019,42.6672003673407],[21.1535300489372,42.6672904969717]]},"properties":{"highway":"residential","id":"48992285"}},{"type":"Feature","geometry":{"type":"LineString","coordinates":[[21.1528015136719,42.6671556271854],[21.1529325584075,42.6672904969717]]},"properties":{"name":"Izmail Qemali","highway":"residential","addr:street":"Izmail Qemali","id":"113576421"}}]}