{"type":"FeatureCollection","features":[{"type":"Feature","geometry":{"type":"LineString","coordinates":[[21.16148010751,42.6779152811007],[21.161105599868,42.6777878199521],[21.1610412597656,42.6777832356175]]},"properties":{"name":"Ismet Krasniqi","highway":"residential","addr:street":"Ismet Krasniqi","id":"50854155"}},{"type":"Feature","geometry":{"type":"LineString","coordinates":[[21.16148010751,42.6779152811007],[21.1615015772453,42.6778291623015],[21.1616428822395,42.677467580918],[21.1616879888948,42.677387508007]]},"properties":{"name":"Carraleva","highway":"residential","addr:street":"Carraleva","id":"115120088"}},{"type":"Feature","geometry":{"type":"LineString","coordinates":[[21.1616428822395,42.677467580918],[21.1614499348805,42.677387508007]]},"properties":{"name":"Dedë Gjo Luli","highway":"residential","addr:street":"Dedë Gjo Luli","id":"115955502"}},{"type":"Feature","geometry":{"type":"LineString","coordinates":[[21.1620979687624,42.6777663562615],[21.1620966212895,42.67776662043],[21.1621110841656,42.6780583939026],[21.1620352663556,42.6781453709266],[21.1619122601478,42.6783971188905]]},"properties":{"highway":"residential","id":"115119901"}},{"type":"Feature","geometry":{"type":"LineString","coordinates":[[21.1624145507812,42.677997527251],[21.1622081749823,42.6783971188905]]},"properties":{"highway":"residential","id":"115120189"}},{"type":"Feature","geometry":{"type":"LineString","coordinates":[[21.1611996534783,42.6781585792719],[21.1612217520343,42.6781644569847],[21.1615459540203,42.6782515659435],[21.1615613578016,42.6783971188905]]},"properties":{"highway":"residential","id":"115120356"}},{"type":"Feature","geometry":{"type":"LineString","coordinates":[[21.1624145507812,42.6775453386877],[21.1622429568493,42.6774762985213],[21.1623004129139,42.677387508007]]},"properties":{"highway":"residential","id":"115119448"}},{"type":"Feature","geometry":{"type":"LineString","coordinates":[[21.1624145507812,42.6777116164296],[21.1620979687624,42.6777663562615],[21.1617078304345,42.6778363608867],[21.16148010751,42.6779152811007],[21.1611996534783,42.6781585792719],[21.1610730953082,42.6783971188905]]},"properties":{"ref":"M25","name":"Vëllezërit Fazliu","highway":"primary","int_ref":"E 80","addr:street":"Vëllezërit Fazliu","id":"144928667"}}]}