{"type":"FeatureCollection","features":[{"type":"Feature","geometry":{"type":"LineString","coordinates":[[21.1622567319252,42.6763778807196],[21.1622972150924,42.6763060153813],[21.162375009196,42.6761679178753],[21.1624145507812,42.6761030977628]]},"properties":{"name":"Carraleva","highway":"residential","addr:street":"Carraleva","id":"115120088"}},{"type":"Feature","geometry":{"type":"LineString","coordinates":[[21.162375009196,42.6761679178753],[21.1619026750196,42.6760004965274],[21.1611091032976,42.6757015806048]]},"properties":{"highway":"residential","id":"115955491"}},{"type":"Feature","geometry":{"type":"MultiLineString","coordinates":[[[21.1611399805686,42.6763778807196],[21.1610412597656,42.6762779111844]],[[21.1610412597656,42.6757941862634],[21.1611091032976,42.6757015806048],[21.1612323521546,42.675579596606],[21.1610412597656,42.6754384811216]]]},"properties":{"name":"Dedë Gjo Luli","highway":"residential","addr:street":"Dedë Gjo Luli","id":"115955502"}},{"type":"Feature","geometry":{"type":"LineString","coordinates":[[21.1619026750196,42.6760004965274],[21.1616781860301,42.6763383767802]]},"properties":{"highway":"residential","id":"115955499"}},{"type":"Feature","geometry":{"type":"LineString","coordinates":[[21.1624145507812,42.6754291308039],[21.16178984662,42.6754344967569]]},"properties":{"name":"Naum Vecilharxi","highway":"residential","addr:street":"Naum Vecilharxi","id":"217583148"}},{"type":"Feature","geometry":{"type":"LineString","coordinates":[[21.1624145507812,42.6763626675958],[21.1622972150924,42.6763060153813]]},"properties":{"name":"Sali Matoshi","highway":"residential","addr:street":"Sali Matoshi","id":"217583149"}}]}