{"type":"FeatureCollection","features":[{"type":"Feature","geometry":{"type":"LineString","coordinates":[[21.1610412597656,42.6552928631148],[21.1614068049828,42.6552349039272],[21.1619133073001,42.6551719184982]]},"properties":{"ref":"M-9;M-25","name":"Bil Klinton;Eqrem Qabej","image":"http://www.flickr.com/photos/mopsy_slaughter/303085686/","lanes":"2","oneway":"yes","highway":"primary","name:en":"Bill Clinton Boulevard;Eqrem Qabej","surface":"asphalt","wikipedia":"en:Bill Clinton Boulevard","id":"106664692"}},{"type":"Feature","geometry":{"type":"LineString","coordinates":[[21.1624145507812,42.655195764843],[21.161910220868,42.6552668799007],[21.1610412597656,42.6553845325652]]},"properties":{"ref":"M-9;M-25","name":"Bulevardi NÃ«na Tereze","oneway":"yes","highway":"primary","name:en":"Mother Theresa","id":"144928683"}},{"type":"Feature","geometry":{"type":"LineString","coordinates":[[21.161910220868,42.6552668799007],[21.1621193486662,42.6559971035978]]},"properties":{"highway":"service","id":"105216565"}},{"type":"Feature","geometry":{"type":"LineString","coordinates":[[21.1621193486662,42.6559971035978],[21.1624145507812,42.6559414645792]]},"properties":{"highway":"footway","id":"105216524"}}]}