{"type":"FeatureCollection","features":[{"type":"Feature","geometry":{"type":"LineString","coordinates":[[21.1610412597656,42.6613579650509],[21.161056448767,42.6612315029892]]},"properties":{"highway":"service","id":"47908280"}},{"type":"Feature","geometry":{"type":"LineString","coordinates":[[21.1610412597656,42.6614726855078],[21.1612242673171,42.6617361928593],[21.1610412597656,42.6618150977377]]},"properties":{"highway":"service","id":"125480684"}},{"type":"Feature","geometry":{"type":"LineString","coordinates":[[21.1624103129867,42.6617679012532],[21.1619209108199,42.6620030713368],[21.1613479028313,42.6622413763275]]},"properties":{"name":"Rexhep Luci","highway":"residential","id":"4854750"}},{"type":"Feature","geometry":{"type":"LineString","coordinates":[[21.1619209108199,42.6620030713368],[21.1621262950081,42.6622413763275]]},"properties":{"highway":"footway","id":"125494600"}},{"type":"Feature","geometry":{"type":"LineString","coordinates":[[21.1618768425379,42.6612315029892],[21.1624103129867,42.6617679012532],[21.1624145507812,42.6617724449757]]},"properties":{"foot":"designated","name":"Bulevardi NÃ«na Tereze","bicycle":"yes","highway":"pedestrian","name:en":"Mother Theresa","surface":"paved","wikipedia":"en:Mother Teresa","id":"4854628"}}]}