{"type":"FeatureCollection","features":[{"type":"Feature","geometry":{"type":"LineString","coordinates":[[21.1729445127282,42.649111743509],[21.1729460241334,42.6491137127127],[21.1730762798496,42.6492833868679],[21.1732479479004,42.6495003682519],[21.1734008789062,42.649656099606]]},"properties":{"name":"Rruga B","oneway":"yes","highway":"secondary","maxspeed":"40"}},{"type":"Feature","geometry":{"type":"LineString","coordinates":[[21.1727331514129,42.649111743509],[21.1727429150477,42.6491135144949],[21.1729460241334,42.6491137127127]]},"properties":{"name":"Agim Ramadani","lanes":"2","oneway":"-1","highway":"residential","maxspeed":"60","wikipedia":"sq:Agim Ramadani"}},{"type":"Feature","geometry":{"type":"LineString","coordinates":[[21.1734008789062,42.6498478552576],[21.1732504631832,42.649711468476],[21.1727998682367,42.6491945854986],[21.1727429150477,42.6491135144949],[21.1727416710995,42.649111743509]]},"properties":{"name":"Rruga B","oneway":"yes","highway":"secondary","maxspeed":"40","addr:street":"Muharrem Fejza"}},{"type":"Feature","geometry":{"type":"LineString","coordinates":[[21.1721590999445,42.6495274578356],[21.1721730238314,42.6495195952503],[21.1724443150473,42.6493807114373],[21.1725087242531,42.6493772756778],[21.1725612756972,42.6493902919196],[21.1732780313037,42.6501218136802]]},"properties":{"highway":"service"}},{"type":"Feature","geometry":{"type":"LineString","coordinates":[[21.1727829705532,42.6501218136802],[21.1721590999445,42.6495274578356],[21.1720275878906,42.6494223553789]]},"properties":{"highway":"service"}}]}