{"type":"FeatureCollection","features":[{"type":"Feature","geometry":{"type":"Polygon","coordinates":[[[21.1652975881414,42.6573107975804],[21.1653078289356,42.6573970769381],[21.1654405101031,42.6573783148215],[21.1654201183461,42.6572732072255],[21.1652975881414,42.6573107975804]]]},"properties":{"name":"Pjata","amenity":"restaurant","building":"yes","way_area":"213.031","id":"105375187"}},{"type":"Feature","geometry":{"type":"Polygon","coordinates":[[[21.1655466011381,42.6573108636442],[21.1655690590202,42.6573855157754],[21.165776929177,42.6573516911041],[21.1657321930758,42.6572029812468],[21.1656132561322,42.657222404056],[21.1656356241828,42.6572963956545],[21.1655466011381,42.6573108636442]]]},"properties":{"name":"Dardha","amenity":"restaurant","cuisine":"regional","building":"yes","way_area":"429.843","id":"281830449"}},{"type":"Feature","geometry":{"type":"Polygon","coordinates":[[[21.1659927943398,42.6578010556462],[21.1659927943398,42.6578903071703],[21.1660120182868,42.6579372120651],[21.1662033594424,42.6579183840482],[21.1661778472883,42.6577494601471],[21.1660717562532,42.6577570574384],[21.1659927943398,42.6578010556462]]]},"properties":{"name":"Swiss Cooperation Office of Kosovo","amenity":"office","building":"yes","way_area":"545.736","id":"105375211"}},{"type":"Feature","geometry":{"type":"Polygon","coordinates":[[[21.1653662194291,42.6579444790174],[21.1654094887723,42.6582017845567],[21.165669661315,42.6582017845567],[21.1656383191287,42.6580157611687],[21.1656224189481,42.6579211587037],[21.1653662194291,42.6579444790174]]]},"properties":{"name":"InterEminex","shop":"supermarket","building":"yes","way_area":"1472","id":"105375189"}},{"type":"Feature","geometry":{"type":"Polygon","coordinates":[[[21.166308192836,42.6580886948144],[21.1663226421809,42.6582017845567],[21.1665344238281,42.6582017845567],[21.1665344238281,42.6580769790794],[21.166308192836,42.6580886948144]]]},"properties":{"name":"Innovations Lab Kosovo (Office)","website":"http://kosovoinnovations.org","building":"yes","way_area":"913.336","addr:city":"Prishtina","addr:street":"Rexhep Mala","addr:postcode":"10000","building:levels":"3","addr:housenumber":"5","id":"93463988"}}]}