{"type":"FeatureCollection","features":[{"type":"Feature","geometry":{"type":"LineString","coordinates":[[21.1582955798278,42.6762793997692],[21.1582946777344,42.6762780964868]]},"properties":{"highway":"residential","id":"115955514"}},{"type":"Feature","geometry":{"type":"LineString","coordinates":[[21.1582946777344,42.6758186473242],[21.1590552917502,42.6753682370286]]},"properties":{"name":"Kamer Loshi","highway":"residential","addr:street":"Kamer Loshi","id":"50847347"}},{"type":"Feature","geometry":{"type":"LineString","coordinates":[[21.1582946777344,42.6762800121529],[21.1582955798278,42.6762793997692],[21.1589102071452,42.6759404624904],[21.1592970217065,42.6759145071627],[21.15966796875,42.6757177624721]]},"properties":{"highway":"residential","id":"115955501"}},{"type":"Feature","geometry":{"type":"LineString","coordinates":[[21.15966796875,42.6761748856075],[21.1592988673285,42.6763778807196]]},"properties":{"name":"Gjashtë lisat e Likoshanit","highway":"residential","addr:street":"Gjashtë lisat e Likoshanit","id":"113576338"}}]}