{"type":"FeatureCollection","features":[{"type":"Feature","geometry":{"type":"LineString","coordinates":[[21.1532243205543,42.6666587934423],[21.1533181945015,42.6665842184989],[21.1533552949228,42.6665570042368],[21.1533726324078,42.666517305741],[21.1533589780154,42.6664180924175],[21.1533140085895,42.6662807056493]]},"properties":{"name":"Selim Berisha","highway":"residential","addr:street":"Selim Berisha"}},{"type":"Feature","geometry":{"type":"LineString","coordinates":[[21.1517197886775,42.6662807056493],[21.151613820913,42.6663651829838],[21.1514282226562,42.6664913903892]]},"properties":{"highway":"residential"}},{"type":"Feature","geometry":{"type":"LineString","coordinates":[[21.1526997961803,42.6683002718908],[21.1519543722372,42.6674260712789],[21.1517783024415,42.6671034669788],[21.1514282226562,42.666581131243]]},"properties":{"name":"Toni Bleri","highway":"residential","addr:street":"Tony Bleri"}},{"type":"Feature","geometry":{"type":"LineString","coordinates":[[21.1541748046875,42.6677235578369],[21.1536211064153,42.6671090815233],[21.1532243205543,42.6666587934423],[21.1531599113485,42.6665836900667],[21.1528991123352,42.6662807056493]]},"properties":{"name":"24 Maji","highway":"residential","addr:street":"24 Maji"}},{"type":"Feature","geometry":{"type":"LineString","coordinates":[[21.1519543722372,42.6674260712789],[21.1517573716954,42.6673322757705],[21.1515903748841,42.6672964088591],[21.1515187791559,42.667297399658],[21.1514612869777,42.6673203201357],[21.1514282226562,42.6673334184796]]},"properties":{"highway":"residential"}},{"type":"Feature","geometry":{"type":"LineString","coordinates":[[21.1536211064153,42.6671090815233],[21.1535421445019,42.6672003673407],[21.1534603079795,42.6678101690147]]},"properties":{"highway":"residential"}},{"type":"Feature","geometry":{"type":"LineString","coordinates":[[21.1520991487071,42.6662807056493],[21.152212907376,42.6664233767529],[21.152371190529,42.6665895688742],[21.1526311629722,42.6669137611295],[21.1528007648979,42.6671548565555],[21.1530268708549,42.667387562295],[21.1534603079795,42.6678101690147],[21.1536151775345,42.6679611653423],[21.1539399553314,42.6683002718908]]},"properties":{"name":"Izmail Qemali","highway":"residential","addr:street":"Izmail Qemali"}},{"type":"Feature","geometry":{"type":"LineString","coordinates":[[21.1534403859818,42.6683002718908],[21.1536151775345,42.6679611653423]]},"properties":{"name":"Azem Jashanica","highway":"residential","addr:street":"Azem Jashanica"}}]}