{"type":"FeatureCollection","features":[{"type":"Feature","geometry":{"type":"LineString","coordinates":[[21.1575179981178,42.6698987208372],[21.1572374542546,42.6699100154713],[21.1569213867188,42.6695356017554]]},"properties":{"name":"Eduard Lir","highway":"residential","addr:street":"Eduard Lir"}},{"type":"Feature","geometry":{"type":"LineString","coordinates":[[21.1577812943276,42.6695643723191],[21.1575487386253,42.6693100304066]]},"properties":{"highway":"residential"}},{"type":"Feature","geometry":{"type":"LineString","coordinates":[[21.1571265791903,42.6703197725191],[21.1572100556385,42.6702298971499],[21.1575179981178,42.6698987208372],[21.1577812943276,42.6695643723191],[21.1581956762054,42.6693100304066]]},"properties":{"name":"Vushtrria","highway":"residential"}},{"type":"Feature","geometry":{"type":"LineString","coordinates":[[21.1580816261336,42.6703197725191],[21.1582946777344,42.6701917392453]]},"properties":{"highway":"residential"}},{"type":"Feature","geometry":{"type":"LineString","coordinates":[[21.1572100556385,42.6702298971499],[21.1572816513666,42.6703139789285],[21.1572839705497,42.6703197725191]]},"properties":{"highway":"residential"}}]}