{"type":"FeatureCollection","features":[{"type":"Feature","geometry":{"type":"LineString","coordinates":[[21.1748279650571,42.651131867449],[21.1748609628246,42.65118835714],[21.1749109091544,42.6512739182189],[21.1751872309358,42.6517078663421],[21.1752944897807,42.6519110967912],[21.1754070486858,42.6520413198541],[21.1754794528977,42.6520886916464],[21.1755791057743,42.6521419048153]]},"properties":{"name":"Rruga B","oneway":"yes","highway":"secondary","maxspeed":"40","id":"233495978"}},{"type":"Feature","geometry":{"type":"LineString","coordinates":[[21.1752526400708,42.6521419048153],[21.1752317873739,42.6520696636505],[21.1750207731136,42.6517315854047],[21.1747865823191,42.6513279636892],[21.1747741699219,42.6513052660332]]},"properties":{"name":"Rruga B","oneway":"yes","highway":"secondary","maxspeed":"40","addr:street":"Muharrem Fejza","id":"233495995"}},{"type":"Feature","geometry":{"type":"LineString","coordinates":[[21.1750073072821,42.651131867449],[21.1748609628246,42.65118835714]]},"properties":{"name":"Ndue Perleshi","highway":"residential","id":"50802025"}}]}