{"type":"FeatureCollection","features":[{"type":"Feature","geometry":{"type":"LineString","coordinates":[[21.1322021484375,42.660773821463],[21.1328563689599,42.6602911977647],[21.132963373006,42.660221613248]]},"properties":{"ref":"M-2","oneway":"yes","highway":"trunk","int_ref":"E 65;E 80","maxspeed":"60","id":"302144801"}},{"type":"Feature","geometry":{"type":"LineString","coordinates":[[21.1331637871768,42.660221613248],[21.132564506324,42.660609807734],[21.132303366071,42.6608015806855],[21.1322021484375,42.6608758190726]]},"properties":{"ref":"M-2","oneway":"yes","highway":"trunk","int_ref":"E 65;E 80","maxspeed":"60","id":"303638588"}},{"type":"Feature","geometry":{"type":"LineString","coordinates":[[21.1328563689599,42.6602911977647],[21.1327567421328,42.660221613248]]},"properties":{"highway":"residential","id":"114119797"}},{"type":"Feature","geometry":{"type":"LineString","coordinates":[[21.132303366071,42.6608015806855],[21.1328303178166,42.6610409161985],[21.1330045909817,42.6609236597485]]},"properties":{"highway":"residential","id":"50833771"}}]}