{"type":"FeatureCollection","features":[{"type":"Feature","geometry":{"type":"Polygon","coordinates":[[[21.1654094887723,42.6582017845567],[21.1654256879009,42.658298114318],[21.1656093933765,42.6582812682957],[21.1655987932561,42.6582185746275],[21.1656713771311,42.6582119683363],[21.165669661315,42.6582017845567],[21.1654094887723,42.6582017845567]]]},"properties":{"name":"InterEminex","shop":"supermarket","building":"yes","way_area":"1472","id":"105375189"}},{"type":"Feature","geometry":{"type":"Polygon","coordinates":[[[21.1663226421809,42.6582017845567],[21.1663293032452,42.6582539182733],[21.1666468576981,42.6582430839616],[21.1666433247712,42.6582017845567],[21.1663226421809,42.6582017845567]]]},"properties":{"name":"Innovations Lab Kosovo (Office)","website":"http://kosovoinnovations.org","building":"yes","way_area":"913.336","addr:city":"Prishtina","addr:street":"Rexhep Mala","addr:postcode":"10000","building:levels":"3","addr:housenumber":"5","id":"93463988"}},{"type":"Feature","geometry":{"type":"Polygon","coordinates":[[[21.1653467259874,42.6587415924717],[21.1653560684664,42.6588613634014],[21.1655565724378,42.6588527753116],[21.1655470502958,42.6587330043653],[21.1653467259874,42.6587415924717]]]},"properties":{"name":"UNICEF Kosovo","office":"ngo","website":"http://unicef.org/kosovo","building":"yes","way_area":"405.845","addr:street":"Ali Pashe Tepelena No. 1","id":"92103251"}},{"type":"Feature","geometry":{"type":"Polygon","coordinates":[[[21.1651611328125,42.6595889862879],[21.1652029057104,42.6595836175153],[21.1651851190678,42.6595085055923],[21.1654840783944,42.6594701898887],[21.1654276641945,42.6592328962462],[21.1651611328125,42.659267105337],[21.1651611328125,42.6595889862879]]]},"properties":{"website":"http://www.masht-gov.net/","alt_name":"Ministry of Education","building":"yes","way_area":"2595.03","addr:city":"Prishtinë: Kosovë","government":"yes","addr:street":"Rruga. Agim Ramadani","addr:postcode":"10000","id":"97946638"}},{"type":"Feature","geometry":{"type":"Polygon","coordinates":[[[21.1660257625107,42.6595451697349],[21.166110473642,42.6599229742985],[21.1663124149179,42.6598984656265],[21.166227613955,42.6595206609141],[21.1660257625107,42.6595451697349]]]},"properties":{"building":"yes","way_area":"1320.35","id":"104163443"}},{"type":"Feature","geometry":{"type":"Polygon","coordinates":[[[21.1674974724407,42.6589210175622],[21.167506365762,42.6590012830371],[21.1675498442217,42.6589987066161],[21.1675811954251,42.6592823765376],[21.1675908073987,42.6593701065168],[21.1677620262918,42.6593598669549],[21.1677121697936,42.6589082015015],[21.1674974724407,42.6589210175622]]]},"properties":{"building":"yes","way_area":"1370.63","id":"105375169"}},{"type":"Feature","geometry":{"type":"Polygon","coordinates":[[[21.1666800953636,42.6592226566617],[21.1667051583601,42.6594184636513],[21.1669503086011,42.6594014858092],[21.1669654901294,42.6595198021142],[21.1667648963265,42.6595338071561],[21.1667691184083,42.6595663754724],[21.1667979543289,42.6597909840859],[21.1668797010198,42.6597853028192],[21.1668885045096,42.6598534779852],[21.1670229823076,42.6598440972982],[21.1669905531258,42.6595926679344],[21.1672285168446,42.6595762186316],[21.1671644669648,42.6590777168127],[21.1669078182882,42.6590956196109],[21.1669220116697,42.6592058769517],[21.1666800953636,42.6592226566617]]]},"properties":{"name":"Naim Frasheri;Naim Frashëri","amenity":"school","alt_name":"Shkolla Fillore \"Naim Frashëri\"","building":"yes","int_name":"Elementary School \"Naim Frashëri\"","way_area":"4051.55","addr:street":"Karl Gega","id":"87453236"}},{"type":"Feature","geometry":{"type":"Polygon","coordinates":[[[21.1651611328125,42.6601668731551],[21.1654359286951,42.66012829185],[21.1653994570946,42.6598480609689],[21.1651611328125,42.6598380796555],[21.1651611328125,42.6601668731551]]]},"properties":{"website":"http://www.ashak.org/","building":"yes","way_area":"2117.52","government":"yes","id":"104163450"}}]}