{"type":"FeatureCollection","features":[{"type":"Feature","geometry":{"type":"LineString","coordinates":[[21.1582946777344,42.6691421033214],[21.1583548686365,42.6692123202761],[21.1584573655188,42.6693100304066]]},"properties":{"highway":"tertiary","addr:street":"Zabgrebi"}},{"type":"Feature","geometry":{"type":"LineString","coordinates":[[21.1583900323301,42.6683002718908],[21.1583905317533,42.6683021937561]]},"properties":{"name":"Rr. Pjeter Bogdane","lanes":"1","width":"5","highway":"residential","surface":"cobblestone"}},{"type":"Feature","geometry":{"type":"LineString","coordinates":[[21.1594976155095,42.6689285635572],[21.1592533635837,42.6688658145734],[21.1587640512485,42.6685689119438],[21.1583905317533,42.6683021937561],[21.1583875478337,42.6683002718908]]},"properties":{"name":"Lidhja e Lezhës","lanes":"1","width":"5","highway":"residential","surface":"cobblestone","addr:street":"Lidhja e Lezhës"}},{"type":"Feature","geometry":{"type":"LineString","coordinates":[[21.1582946777344,42.6692492646262],[21.1583548686365,42.6692123202761],[21.1585021923431,42.6691581582464],[21.1591953324164,42.6689466616734],[21.1594976155095,42.6689285635572],[21.1596455680368,42.6689098049202],[21.15966796875,42.6689005118724]]},"properties":{"name":"Vushtrria","highway":"residential"}},{"type":"Feature","geometry":{"type":"LineString","coordinates":[[21.15966796875,42.6691331138741],[21.1594976155095,42.6689285635572]]},"properties":{"name":"Lidhja e Lezhës","oneway":"yes","highway":"residential","addr:street":"Lidja e Lezhës"}}]}