{"type":"FeatureCollection","features":[{"type":"Feature","geometry":{"type":"LineString","coordinates":[[21.1589933765672,42.6531519257789],[21.1587901922232,42.65240185991],[21.158732700045,42.6521815191126],[21.1587216106541,42.6521419048153]]},"properties":{"oneway":"yes","highway":"secondary","addr:street":"Bulevardi i Deshmoreve"}},{"type":"Feature","geometry":{"type":"LineString","coordinates":[[21.1588326357582,42.6521419048153],[21.1588370842811,42.6521588573312],[21.1589198191187,42.6524672682724],[21.159083581995,42.6530215187956],[21.1591190491923,42.6531519257789]]},"properties":{"name":"Bulevardi i Dëshmorëve","oneway":"yes","highway":"secondary","addr:city":"Prishtina","addr:street":"Bulevardi i Deshmoreve","addr:country":"XK"}},{"type":"Feature","geometry":{"type":"LineString","coordinates":[[21.1584504493828,42.65225366677],[21.1582946777344,42.6522746373044]]},"properties":{"highway":"service"}},{"type":"Feature","geometry":{"type":"LineString","coordinates":[[21.1587901922232,42.65240185991],[21.1585034499845,42.6524351587213],[21.1582946777344,42.6524662235085]]},"properties":{"highway":"residential"}},{"type":"Feature","geometry":{"type":"LineString","coordinates":[[21.1585034499845,42.6524351587213],[21.1584504493828,42.65225366677],[21.1584178075218,42.6521419048153]]},"properties":{"highway":"service"}},{"type":"Feature","geometry":{"type":"LineString","coordinates":[[21.1589033309402,42.6521419048153],[21.1588370842811,42.6521588573312]]},"properties":{"highway":"service"}},{"type":"Feature","geometry":{"type":"LineString","coordinates":[[21.1594017652686,42.6523089006343],[21.1594071551604,42.6522241998798],[21.1594561133433,42.6521778192305],[21.1594418540927,42.6521419048153]]},"properties":{"highway":"footway"}},{"type":"Feature","geometry":{"type":"LineString","coordinates":[[21.15966796875,42.6521558306346],[21.1595824164723,42.6521858136184],[21.1594972561834,42.6522431617592],[21.1594450640653,42.6522847853767],[21.1594017652686,42.6523089006343]]},"properties":{"highway":"footway"}},{"type":"Feature","geometry":{"type":"LineString","coordinates":[[21.1594017652686,42.6523089006343],[21.1595418126214,42.6528885889737],[21.1595597789271,42.6529707121527]]},"properties":{"highway":"service"}},{"type":"Feature","geometry":{"type":"LineString","coordinates":[[21.15966796875,42.6528825537073],[21.159633710275,42.6529043793601],[21.1595597789271,42.6529707121527],[21.1596168134636,42.6531519257789]]},"properties":{"name":"Henry Dunant","highway":"residential"}}]}