{"type":"FeatureCollection","features":[{"type":"Feature","geometry":{"type":"LineString","coordinates":[[21.1596157439693,42.6555185910189],[21.1595259031284,42.6551719184982]]},"properties":{"oneway":"yes","highway":"secondary","addr:street":"Bulevardi i Deshmoreve"}},{"type":"Feature","geometry":{"type":"LineString","coordinates":[[21.1596589799793,42.6551719184982],[21.15966796875,42.6552054810131]]},"properties":{"name":"Bulevardi i Dëshmorëve","oneway":"yes","highway":"secondary","addr:city":"Prishtina","addr:street":"Bulevardi i Deshmoreve","addr:country":"XK"}},{"type":"Feature","geometry":{"type":"LineString","coordinates":[[21.1596448493845,42.6556147166496],[21.1589771316338,42.6557109081972],[21.1582946777344,42.655722755521]]},"properties":{"ref":"M-9;M-25","name":"Bil Klinton","image":"http://www.flickr.com/photos/mopsy_slaughter/303085686/","lanes":"2","oneway":"yes","highway":"primary","name:en":"Bill Clinton Boulevard","name:pl":"Bulwar Billa Clintona","surface":"asphalt","cycleway":"no","maxspeed":"40","sidewalk":"both","wikipedia":"en:Bill Clinton Boulevard"}},{"type":"Feature","geometry":{"type":"LineString","coordinates":[[21.1582946777344,42.6556360492532],[21.1589686874702,42.6556239658433],[21.1596157439693,42.6555185910189]]},"properties":{"ref":"M-9;M-25","name":"Bil Klinton","image":"http://www.flickr.com/photos/mopsy_slaughter/303085686/","lanes":"2","oneway":"yes","highway":"primary","name:en":"Bill Clinton Boulevard","name:pl":"Bulwar Billa Clintona","surface":"asphalt","cycleway":"no","maxspeed":"40","sidewalk":"both","wikipedia":"en:Bill Clinton Boulevard"}},{"type":"Feature","geometry":{"type":"LineString","coordinates":[[21.1586656857248,42.6554259667312],[21.1584024793466,42.6554605191742],[21.1582946777344,42.6554692314575]]},"properties":{"highway":"footway"}},{"type":"Feature","geometry":{"type":"LineString","coordinates":[[21.1586825740522,42.655522092505],[21.1586656857248,42.6554259667312],[21.1586447549787,42.655340873826]]},"properties":{"highway":"steps"}},{"type":"Feature","geometry":{"type":"LineString","coordinates":[[21.1584186490217,42.6555376179597],[21.1584024793466,42.6554605191742],[21.1583985267593,42.6554356784141],[21.1583842435463,42.6553994743097]]},"properties":{"highway":"steps"}},{"type":"Feature","geometry":{"type":"LineString","coordinates":[[21.1589771316338,42.6557109081972],[21.1589686874702,42.6556239658433],[21.1589739875304,42.655496392914],[21.1591588608158,42.655466200836]]},"properties":{"highway":"service"}},{"type":"Feature","geometry":{"type":"LineString","coordinates":[[21.1596157439693,42.6555185910189],[21.1596448493845,42.6556147166496]]},"properties":{"highway":"secondary"}},{"type":"Feature","geometry":{"type":"LineString","coordinates":[[21.1589413786855,42.6559455726672],[21.1589273649671,42.6557767755379]]},"properties":{"highway":"footway"}},{"type":"Feature","geometry":{"type":"LineString","coordinates":[[21.1587477917418,42.6559665814364],[21.1589413786855,42.6559455726672],[21.1591036144259,42.6559258851978]]},"properties":{"highway":"footway"}},{"type":"Feature","geometry":{"type":"LineString","coordinates":[[21.1584081655365,42.6561818902538],[21.1582946777344,42.6560963190686]]},"properties":{"name":"Perandori Justinian","oneway":"yes","highway":"residential"}},{"type":"Feature","geometry":{"type":"LineString","coordinates":[[21.1596157439693,42.6555185910189],[21.15966796875,42.6555104286067]]},"properties":{"ref":"M-9;M-25","name":"Bil Klinton;Eqrem Qabej","image":"http://www.flickr.com/photos/mopsy_slaughter/303085686/","oneway":"yes","highway":"primary","name:en":"Bill Clinton Boulevard;Eqrem Qabej","wikipedia":"en:Bill Clinton Boulevard"}},{"type":"Feature","geometry":{"type":"LineString","coordinates":[[21.15966796875,42.6556112774029],[21.1596448493845,42.6556147166496]]},"properties":{"ref":"M-9;M-25","oneway":"yes","highway":"primary"}},{"type":"Feature","geometry":{"type":"LineString","coordinates":[[21.15966796875,42.6557045086421],[21.1596448493845,42.6556147166496]]},"properties":{"name":"Bulevardi Nëna Tereze","oneway":"yes","highway":"secondary","name:en":"Mother Theresa","wikipedia":"en:Mother Teresa"}}]}