{"type":"FeatureCollection","features":[{"type":"Feature","geometry":{"type":"LineString","coordinates":[[21.1596207745349,42.6503215738287],[21.159454988037,42.6501218136802]]},"properties":{"highway":"footway"}},{"type":"Feature","geometry":{"type":"LineString","coordinates":[[21.1582946777344,42.6506047962011],[21.1583138156281,42.6506126832839]]},"properties":{"highway":"footway"}},{"type":"Feature","geometry":{"type":"LineString","coordinates":[[21.1588382520909,42.6510967835305],[21.1586726925841,42.6510823801655],[21.1585850170123,42.6510299201749],[21.158496892283,42.6509310124904]]},"properties":{"highway":"residential"}},{"type":"Feature","geometry":{"type":"LineString","coordinates":[[21.1584415000724,42.651131867449],[21.1583138156281,42.6506126832839],[21.1582946777344,42.6505371700013]]},"properties":{"oneway":"yes","highway":"secondary","addr:street":"Bulevardi i Deshmoreve"}},{"type":"Feature","geometry":{"type":"LineString","coordinates":[[21.1582946777344,42.6501458388102],[21.1583178580468,42.6502366060821],[21.1584486527522,42.6507534804004],[21.158496892283,42.6509310124904],[21.1585514642158,42.651131867449]]},"properties":{"name":"Bulevardi i Dëshmorëve","oneway":"yes","highway":"secondary","addr:city":"Prishtina","addr:street":"Bulevardi i Deshmoreve","addr:country":"XK"}},{"type":"Feature","geometry":{"type":"LineString","coordinates":[[21.15966796875,42.650147924444],[21.1596207745349,42.6503215738287],[21.1596561681571,42.650341461286],[21.15966796875,42.6503444381348]]},"properties":{"highway":"service"}},{"type":"Feature","geometry":{"type":"LineString","coordinates":[[21.1587966672734,42.6501218136802],[21.1589975233908,42.650917600147],[21.1590232152079,42.6510054740685]]},"properties":{"name":"Zija Shemsiu","oneway":"no","highway":"residential"}},{"type":"Feature","geometry":{"type":"LineString","coordinates":[[21.1587882511091,42.651131867449],[21.1588382520909,42.6510967835305],[21.1589578178552,42.6510359986648],[21.1590232152079,42.6510054740685],[21.1591683829578,42.6510447199752],[21.1592213835596,42.6510624929451],[21.1592627958942,42.6510790105705],[21.1593061845224,42.6510948014162],[21.1593667309726,42.6511127725831],[21.1594258016011,42.651131867449]]},"properties":{"name":"Imzot Nikë Prela","highway":"residential"}}]}