{"type":"FeatureCollection","features":[{"type":"Feature","geometry":{"type":"LineString","coordinates":[[21.15966796875,42.674999229276],[21.1596729666529,42.6749960910582],[21.15980268338,42.6748766814377],[21.1598970064848,42.6747418169776]]},"properties":{"name":"Kamer Loshi","highway":"residential","addr:street":"Kamer Loshi"}},{"type":"Feature","geometry":{"type":"LineString","coordinates":[[21.15966796875,42.6757177624721],[21.1600747830795,42.6755019943165]]},"properties":{"highway":"residential"}},{"type":"Feature","geometry":{"type":"LineString","coordinates":[[21.1598520008891,42.6760736732509],[21.15966796875,42.6761748856075]]},"properties":{"name":"Gjashtë lisat e Likoshanit","highway":"residential","addr:street":"Gjashtë lisat e Likoshanit"}},{"type":"Feature","geometry":{"type":"LineString","coordinates":[[21.1598970064848,42.6747418169776],[21.1599282678567,42.6744821921611],[21.1600186599197,42.6743585769338]]},"properties":{"name":"Kamer Loshi","highway":"residential","addr:street":"Kamer Loshi"}},{"type":"Feature","geometry":{"type":"LineString","coordinates":[[21.1614191895221,42.6743585769338],[21.1613649434906,42.6744442819598],[21.1612027077503,42.6745387932374],[21.1611091931292,42.6747239847303],[21.1610915861496,42.6749853917542]]},"properties":{"name":"Xhëmë Tërnavci","highway":"residential","addr:street":"Xhëmë Tërnavci"}},{"type":"Feature","geometry":{"type":"LineString","coordinates":[[21.1615966190023,42.6748037674858],[21.1618198503504,42.6751513628487]]},"properties":{"highway":"residential"}},{"type":"Feature","geometry":{"type":"LineString","coordinates":[[21.162096711121,42.6746652703688],[21.1620451478237,42.6744460651927],[21.1620201083852,42.6743585769338]]},"properties":{"highway":"residential"}},{"type":"Feature","geometry":{"type":"LineString","coordinates":[[21.1620451478237,42.6744460651927],[21.1623510241779,42.6743725563239]]},"properties":{"highway":"residential"}},{"type":"Feature","geometry":{"type":"LineString","coordinates":[[21.1622567319252,42.6763778807196],[21.1622972150924,42.6763060153813],[21.162375009196,42.6761679178753],[21.1624145507812,42.6761030977628]]},"properties":{"name":"Carraleva","highway":"residential","addr:street":"Carraleva"}},{"type":"Feature","geometry":{"type":"LineString","coordinates":[[21.162375009196,42.6761679178753],[21.1619026750196,42.6760004965274],[21.1611091032976,42.6757015806048]]},"properties":{"highway":"residential"}},{"type":"Feature","geometry":{"type":"LineString","coordinates":[[21.1611399805686,42.6763778807196],[21.1608378120818,42.6760718900646],[21.1611091032976,42.6757015806048],[21.1612323521546,42.675579596606],[21.1607058495666,42.6751907916508],[21.1610915861496,42.6749853917542],[21.1615966190023,42.6748037674858],[21.1618273063673,42.67471599324],[21.162096711121,42.6746652703688],[21.1624145507812,42.6746827740435]]},"properties":{"name":"Dedë Gjo Luli","highway":"residential","addr:street":"Dedë Gjo Luli"}},{"type":"Feature","geometry":{"type":"LineString","coordinates":[[21.1619026750196,42.6760004965274],[21.1616781860301,42.6763383767802]]},"properties":{"highway":"residential"}},{"type":"Feature","geometry":{"type":"LineString","coordinates":[[21.1624145507812,42.6754291308039],[21.16178984662,42.6754344967569]]},"properties":{"name":"Naum Vecilharxi","highway":"residential","addr:street":"Naum Vecilharxi"}},{"type":"Feature","geometry":{"type":"LineString","coordinates":[[21.1624145507812,42.6763626675958],[21.1622972150924,42.6763060153813]]},"properties":{"name":"Sali Matoshi","highway":"residential","addr:street":"Sali Matoshi"}}]}