{"type":"FeatureCollection","features":[{"type":"Feature","geometry":{"type":"LineString","coordinates":[[21.15966796875,42.6552054810131],[21.1597463590116,42.6554981766906]]},"properties":{"name":"Bulevardi i Dëshmorëve","oneway":"yes","highway":"secondary","addr:city":"Prishtina","addr:street":"Bulevardi i Deshmoreve","addr:country":"XK"}},{"type":"Feature","geometry":{"type":"LineString","coordinates":[[21.1606199599922,42.6541619303399],[21.1606645270635,42.6543657985986],[21.1604220717684,42.6543874685712],[21.1602311797705,42.6543669878046],[21.1601310176163,42.6541970632485],[21.1601069215976,42.6541619303399]]},"properties":{"name":"Selami Pulaha","highway":"residential"}},{"type":"Feature","geometry":{"type":"LineString","coordinates":[[21.1612109661565,42.6541619303399],[21.1612246266432,42.6542411961094],[21.1612942460777,42.6545297106127],[21.1613695248985,42.654865197056]]},"properties":{"highway":"service"}},{"type":"Feature","geometry":{"type":"LineString","coordinates":[[21.161742595236,42.654273965399],[21.1617195983647,42.6542041985036],[21.1616915964459,42.6541619303399]]},"properties":{"highway":"service"}},{"type":"Feature","geometry":{"type":"LineString","coordinates":[[21.1602311797705,42.6543669878046],[21.1600331012503,42.654416405901],[21.1599507257388,42.6544265141431],[21.1597843577482,42.6544402560644],[21.15966796875,42.6544529923866]]},"properties":{"highway":"service"}},{"type":"Feature","geometry":{"type":"LineString","coordinates":[[21.1600331012503,42.654416405901],[21.1601050563046,42.6547084211233],[21.1601165547402,42.6547680132016],[21.1601287718281,42.6548611670011]]},"properties":{"highway":"service"}},{"type":"Feature","geometry":{"type":"LineString","coordinates":[[21.1602311797705,42.6543669878046],[21.1604360854868,42.6545645938877],[21.1605905058841,42.6548521158934]]},"properties":{"highway":"service"}},{"type":"Feature","geometry":{"type":"LineString","coordinates":[[21.1606645270635,42.6543657985986],[21.160773402876,42.6547952986907]]},"properties":{"name":"S.Pulaha","highway":"service"}},{"type":"Feature","geometry":{"type":"LineString","coordinates":[[21.15966796875,42.6555104286067],[21.1597463590116,42.6554981766906]]},"properties":{"ref":"M-9;M-25","name":"Bil Klinton;Eqrem Qabej","image":"http://www.flickr.com/photos/mopsy_slaughter/303085686/","oneway":"yes","highway":"primary","name:en":"Bill Clinton Boulevard;Eqrem Qabej","wikipedia":"en:Bill Clinton Boulevard"}},{"type":"Feature","geometry":{"type":"LineString","coordinates":[[21.1597949578685,42.6555923864476],[21.15966796875,42.6556112774029]]},"properties":{"ref":"M-9;M-25","oneway":"yes","highway":"primary"}},{"type":"Feature","geometry":{"type":"LineString","coordinates":[[21.1597949578685,42.6555923864476],[21.1597463590116,42.6554981766906]]},"properties":{"highway":"secondary"}},{"type":"Feature","geometry":{"type":"LineString","coordinates":[[21.1612646915049,42.6549385968616],[21.1612647813364,42.6548305121492],[21.1612371132256,42.6547256645133],[21.1611919279668,42.654521782593],[21.1611738718296,42.6543840991553],[21.1611558156924,42.6542449619359],[21.1611824515712,42.6541619303399]]},"properties":{"highway":"footway"}},{"type":"Feature","geometry":{"type":"LineString","coordinates":[[21.1616534112178,42.6541619303399],[21.1616613875343,42.6542871788174],[21.1616718079916,42.6544076850633],[21.1616935472215,42.6545194041868],[21.1617071117823,42.6546278197736],[21.1617244492673,42.6547065051908],[21.1617343307354,42.6547754126574],[21.1617481647908,42.6548295872181]]},"properties":{"highway":"footway"}},{"type":"Feature","geometry":{"type":"LineString","coordinates":[[21.1597463590116,42.6554981766906],[21.1614068049828,42.6552349039272],[21.1624145507812,42.6551095870249]]},"properties":{"ref":"M-9;M-25","name":"Bil Klinton;Eqrem Qabej","image":"http://www.flickr.com/photos/mopsy_slaughter/303085686/","lanes":"2","oneway":"yes","highway":"primary","name:en":"Bill Clinton Boulevard;Eqrem Qabej","surface":"asphalt","wikipedia":"en:Bill Clinton Boulevard"}},{"type":"Feature","geometry":{"type":"LineString","coordinates":[[21.1624145507812,42.655195764843],[21.161910220868,42.6552668799007],[21.1607610959566,42.6554224652397],[21.1597949578685,42.6555923864476]]},"properties":{"ref":"M-9;M-25","name":"Bulevardi Nëna Tereze","oneway":"yes","highway":"primary","name:en":"Mother Theresa"}},{"type":"Feature","geometry":{"type":"LineString","coordinates":[[21.161910220868,42.6552668799007],[21.1621193486662,42.6559971035978]]},"properties":{"highway":"service"}},{"type":"Feature","geometry":{"type":"MultiLineString","coordinates":[[[21.1600199858472,42.6556597734233],[21.1603412068852,42.6561818902538]],[[21.160377485155,42.6561818902538],[21.1604290786276,42.6561049880872],[21.1607445669554,42.6556252871566]]]},"properties":{"highway":"footway"}},{"type":"Feature","geometry":{"type":"LineString","coordinates":[[21.1607610959566,42.6554224652397],[21.1607866979422,42.6555248672674],[21.1609620546825,42.6561818902538]]},"properties":{"highway":"service"}},{"type":"Feature","geometry":{"type":"LineString","coordinates":[[21.1605700221405,42.6561818902538],[21.1608988975212,42.6561380206553]]},"properties":{"highway":"footway"}},{"type":"Feature","geometry":{"type":"LineString","coordinates":[[21.1621193486662,42.6559971035978],[21.1624145507812,42.6559414645792]]},"properties":{"highway":"footway"}},{"type":"Feature","geometry":{"type":"LineString","coordinates":[[21.1597908834959,42.6561818902538],[21.15966796875,42.6557045086421]]},"properties":{"name":"Bulevardi Nëna Tereze","oneway":"yes","highway":"secondary","name:en":"Mother Theresa","wikipedia":"en:Mother Teresa"}},{"type":"Feature","geometry":{"type":"LineString","coordinates":[[21.1597949578685,42.6555923864476],[21.1599380531309,42.6561818902538]]},"properties":{"name":"Bulevardi Nëna Tereze","oneway":"yes","highway":"secondary","name:en":"Mother Theresa","wikipedia":"en:Mother Teresa"}}]}