{"type":"FeatureCollection","features":[{"type":"Feature","geometry":{"type":"LineString","coordinates":[[21.1534259025041,42.6712567042332],[21.1532109382682,42.6703197725191]]},"properties":{"name":"Toni Bleri","highway":"residential","addr:street":"Tony Bleri"}},{"type":"Feature","geometry":{"type":"LineString","coordinates":[[21.1534259025041,42.6712567042332],[21.1526412241034,42.6711139720624],[21.1525069259684,42.6710699832755],[21.1523620277131,42.6710127845962],[21.1522354550896,42.6709369599377],[21.1520477970267,42.6707923776454],[21.1519981201915,42.6707540688958],[21.1516246842772,42.6703197725191]]},"properties":{"highway":"unclassified"}},{"type":"Feature","geometry":{"type":"LineString","coordinates":[[21.1514282226562,42.6708189025456],[21.1516932319841,42.6708532752988],[21.1519100852937,42.6708542660411],[21.1520477970267,42.6707923776454]]},"properties":{"highway":"residential"}},{"type":"Feature","geometry":{"type":"LineString","coordinates":[[21.1540637961874,42.6712936916927],[21.1540447236858,42.6703197725191]]},"properties":{"name":"Azem Jashanica","highway":"residential","addr:street":"Azem Jashanica"}},{"type":"Feature","geometry":{"type":"LineString","coordinates":[[21.1540637961874,42.6712936916927],[21.1541748046875,42.6712812305124]]},"properties":{"name":"Vushtrria","highway":"residential"}},{"type":"Feature","geometry":{"type":"LineString","coordinates":[[21.1514282226562,42.6717387023405],[21.1518411845114,42.6714586819137],[21.1514282226562,42.6712078163696]]},"properties":{"highway":"residential"}},{"type":"Feature","geometry":{"type":"LineString","coordinates":[[21.1534259025041,42.6712567042332],[21.153774897992,42.6713308112282]]},"properties":{"highway":"unclassified"}},{"type":"Feature","geometry":{"type":"LineString","coordinates":[[21.1540637961874,42.6712936916927],[21.153774897992,42.6713308112282],[21.1533662543692,42.6715182579388],[21.1530654085806,42.6717310667326],[21.152793308881,42.6720459854232],[21.1526370020216,42.6723140745528],[21.1526190472287,42.6723392075335]]},"properties":{"name":"Plava","highway":"residential","addr:street":"Plava"}},{"type":"Feature","geometry":{"type":"LineString","coordinates":[[21.1540637961874,42.6712936916927],[21.1541591972705,42.6717952658904],[21.154073767487,42.6719055667578],[21.1539740544905,42.6719609813114],[21.1533570017218,42.6722368644736],[21.1532773211561,42.6722959113691],[21.1532267551883,42.6723392075335]]},"properties":{"name":"Hys Pupova","highway":"residential","addr:street":"Hys Pupova"}},{"type":"Feature","geometry":{"type":"LineString","coordinates":[[21.1539802528659,42.6722951848417],[21.1539336177409,42.6723392075335]]},"properties":{"highway":"residential"}},{"type":"Feature","geometry":{"type":"LineString","coordinates":[[21.1539740544905,42.6719609813114],[21.1540136701945,42.6719673879967],[21.154026156777,42.6719963171451],[21.1540259771139,42.6720753768722],[21.1540008242859,42.6721587956733],[21.1539802528659,42.6722951848417],[21.1539723758338,42.6723392075335]]},"properties":{"name":"Hys Pupova","highway":"residential","addr:street":"Hys Pupova"}}]}