{"type":"FeatureCollection","features":[{"type":"Feature","geometry":{"type":"LineString","coordinates":[[21.1524930017838,42.6622413763275],[21.1525731318049,42.6623239185245],[21.1531601808431,42.663126458625],[21.15349031171,42.6634920208272],[21.1541748046875,42.663648946317]]},"properties":{"name":"Ahmet Krasniqi","highway":"secondary","maxspeed":"40","name:old":"Fan S. Noli","name:oldsq":"Fan S. Noli","name:oldsr":"Fane S. Nolija","addr:street":"Ahmet Krasniqi","descriptionold:url":"http://en.wikipedia.org/wiki/Fan_S._Noli"}},{"type":"Feature","geometry":{"type":"LineString","coordinates":[[21.1541748046875,42.6634145420531],[21.1537304313854,42.6626310900065],[21.1534565384242,42.6622413763275]]},"properties":{"name":"Ekrem Rexha","highway":"residential","addr:street":"Ekrem Rexha"}},{"type":"Feature","geometry":{"type":"LineString","coordinates":[[21.1519091026858,42.6622413763275],[21.1517038321044,42.6640899026224]]},"properties":{"name":"Bekim Berisha","highway":"residential","addr:street":"Bekim Berisha"}},{"type":"Feature","geometry":{"type":"LineString","coordinates":[[21.1525731318049,42.6623239185245],[21.1523684592876,42.6642610737947]]},"properties":{"name":"Metush Krasniqi","highway":"residential","addr:street":"Metush Krasniqi"}},{"type":"Feature","geometry":{"type":"LineString","coordinates":[[21.1530545245655,42.6642610737947],[21.1531601808431,42.663126458625]]},"properties":{"name":"Selim Berisha","highway":"residential","addr:street":"Selim Berisha"}},{"type":"Feature","geometry":{"type":"LineString","coordinates":[[21.1517656465493,42.6642610737947],[21.1517038321044,42.6640899026224],[21.1514282226562,42.6635345987568]]},"properties":{"name":"24 Maji","highway":"residential","addr:street":"24 Maji"}},{"type":"Feature","geometry":{"type":"LineString","coordinates":[[21.1536147283768,42.6639246946712],[21.1537293534071,42.6639719913546],[21.1539257251282,42.6640835611818],[21.1540244499779,42.6641380579162],[21.154125779942,42.664203519991],[21.1541748046875,42.6642448409065]]},"properties":{"name":"Bajram Curri","highway":"residential","addr:street":"Bajram Curri"}},{"type":"Feature","geometry":{"type":"LineString","coordinates":[[21.1537408732987,42.6642610737947],[21.1537011463072,42.6641609135022],[21.1536147283768,42.6639246946712],[21.15349031171,42.6634920208272]]},"properties":{"name":"Eduard Lir","highway":"residential","addr:street":"Eduard Lir"}}]}