{"type":"FeatureCollection","features":[{"type":"Feature","geometry":{"type":"LineString","coordinates":[[21.133829154581,42.6596585972248],[21.1333724510906,42.6593008077709],[21.132877299706,42.6589963944432]]},"properties":{"highway":"residential","id":"50833773"}},{"type":"Feature","geometry":{"type":"LineString","coordinates":[[21.1344449497083,42.6592603779617],[21.1340903846657,42.6590419112009],[21.1338942824391,42.6589053608279],[21.1337681589732,42.6588126094601],[21.133663056085,42.6587353826103],[21.1336210149297,42.6586709717768]]},"properties":{"highway":"residential","id":"303638591"}},{"type":"Feature","geometry":{"type":"LineString","coordinates":[[21.1349487304688,42.65937294823],[21.1346291043415,42.6595676967019],[21.1343942847263,42.65960990997],[21.1341053865309,42.6596116936286]]},"properties":{"highway":"service","id":"243074624"}},{"type":"Feature","geometry":{"type":"LineString","coordinates":[[21.1344449497083,42.6592603779617],[21.1346927050637,42.6591145793952],[21.1349487304688,42.6589488923462]]},"properties":{"ref":"M-2","oneway":"yes","highway":"trunk","int_ref":"E 65;E 80","maxspeed":"60","id":"303638593"}},{"type":"Feature","geometry":{"type":"LineString","coordinates":[[21.1349487304688,42.659088957716],[21.1345582272656,42.6593333101475]]},"properties":{"ref":"M-2","oneway":"yes","highway":"trunk","int_ref":"E 65;E 80","maxspeed":"60","id":"108537877"}},{"type":"Feature","geometry":{"type":"LineString","coordinates":[[21.1347258528976,42.6601465907109],[21.134864462946,42.660132585807],[21.1349487304688,42.6600708007011]]},"properties":{"highway":"residential","id":"114119879"}},{"type":"Feature","geometry":{"type":"LineString","coordinates":[[21.132963373006,42.660221613248],[21.133829154581,42.6596585972248],[21.1344449497083,42.6592603779617]]},"properties":{"ref":"M-2","oneway":"yes","highway":"trunk","int_ref":"E 65;E 80","maxspeed":"60","id":"302144801"}},{"type":"Feature","geometry":{"type":"LineString","coordinates":[[21.1345582272656,42.6593333101475],[21.1341053865309,42.6596116936286],[21.1340686454358,42.6596354757381],[21.1331637871768,42.660221613248]]},"properties":{"ref":"M-2","oneway":"yes","highway":"trunk","int_ref":"E 65;E 80","maxspeed":"60","id":"303638588"}},{"type":"Feature","geometry":{"type":"LineString","coordinates":[[21.1327567421328,42.660221613248],[21.1322021484375,42.6598342563943]]},"properties":{"highway":"residential","id":"114119797"}},{"type":"Feature","geometry":{"type":"LineString","coordinates":[[21.1340686454358,42.6596354757381],[21.1347258528976,42.6601465907109],[21.1348631394465,42.660221613248]]},"properties":{"name":"NazÄ±m Hikmeta","highway":"residential","id":"48223267"}}]}