{"type":"FeatureCollection","features":[{"type":"Feature","geometry":{"type":"LineString","coordinates":[[21.1349487304688,42.6493489604807],[21.1347157917665,42.6492870869222],[21.1338721838831,42.6490693119228],[21.1322021484375,42.6486360570648]]},"properties":{"ref":"M-9","name":"Nëna Terezë","oneway":"yes","highway":"trunk","maxspeed":"60","id":"131411393"}},{"type":"Feature","geometry":{"type":"LineString","coordinates":[[21.1322021484375,42.648549657133],[21.1349487304688,42.6492427314451]]},"properties":{"ref":"M-9","name":"Nëna Terezë","oneway":"yes","highway":"trunk","name:en":"League of Peja","wikipedia":"sq:Lidhja e Pejës","id":"215900689"}},{"type":"Feature","geometry":{"type":"LineString","coordinates":[[21.1349487304688,42.6494125637592],[21.1342501949547,42.6492339646929],[21.1322021484375,42.6487294455474]]},"properties":{"oneway":"yes","highway":"primary","maxspeed":"40","id":"122745050"}},{"type":"Feature","geometry":{"type":"LineString","coordinates":[[21.1322021484375,42.6484709798513],[21.1328827794292,42.6486455867185],[21.1344403683003,42.649045195409],[21.1345539153523,42.6490742673696],[21.1349487304688,42.6491752554958]]},"properties":{"oneway":"yes","highway":"primary","id":"215900697"}},{"type":"Feature","geometry":{"type":"LineString","coordinates":[[21.1328827794292,42.6486455867185],[21.1331406157604,42.6481016569353]]},"properties":{"highway":"residential","id":"113548673"}},{"type":"Feature","geometry":{"type":"LineString","coordinates":[[21.1344403683003,42.649045195409],[21.1349006650519,42.6481495080727],[21.1348737119098,42.6481016569353]]},"properties":{"highway":"residential","id":"113548680"}}]}