{"type":"FeatureCollection","features":[{"type":"Feature","geometry":{"type":"LineString","coordinates":[[21.1431884765625,42.6535266190335],[21.1429391495403,42.6536697788455]]},"properties":{"highway":"service","id":"112996848"}},{"type":"Feature","geometry":{"type":"LineString","coordinates":[[21.1418151855469,42.6532215516182],[21.1422699046537,42.6533348144983],[21.1429391495403,42.6536697788455]]},"properties":{"highway":"service","id":"112996775"}},{"type":"Feature","geometry":{"type":"LineString","coordinates":[[21.1420787580561,42.6541619303399],[21.1429391495403,42.6536697788455],[21.1430236810086,42.6535879869288],[21.1431295797736,42.6531519257789]]},"properties":{"highway":"service","id":"50833774"}},{"type":"Feature","geometry":{"type":"LineString","coordinates":[[21.1426468716695,42.6541619303399],[21.1431884765625,42.6538705332622]]},"properties":{"ref":"M-2","oneway":"yes","highway":"trunk","int_ref":"E 65;E 80","maxspeed":"50","id":"131411389"}},{"type":"Feature","geometry":{"type":"LineString","coordinates":[[21.1431884765625,42.6539916051623],[21.1428564557689,42.6541619303399]]},"properties":{"ref":"M-2","oneway":"yes","highway":"trunk","int_ref":"E 65;E 80","maxspeed":"50","id":"131411388"}}]}