{"type":"FeatureCollection","features":[{"type":"Feature","geometry":{"type":"MultiLineString","coordinates":[[[21.1500484181715,42.6612315029892],[21.1500549316406,42.6612392944906]],[[21.1500549316406,42.6619636286644],[21.1497921273483,42.6620396018907],[21.1493117083344,42.6620602783069],[21.1487876311976,42.6619956066821],[21.148681640625,42.662004206572]]]},"properties":{"name":"Gjergj Balsha","highway":"tertiary"}},{"type":"Feature","geometry":{"type":"LineString","coordinates":[[21.148681640625,42.6618236408882],[21.1487876311976,42.6619956066821]]},"properties":{"name":"Afrim Gashi","highway":"residential","addr:street":"Afrim Gashi"}},{"type":"Feature","geometry":{"type":"LineString","coordinates":[[21.1493180554738,42.6622413763275],[21.1492360701874,42.6621830154854],[21.1487386730146,42.6621719836822],[21.148681640625,42.6621719836822]]},"properties":{"highway":"service"}},{"type":"Feature","geometry":{"type":"LineString","coordinates":[[21.1496078223157,42.6622413763275],[21.1495925216922,42.6621867147723],[21.1492360701874,42.6621830154854]]},"properties":{"highway":"service"}},{"type":"Feature","geometry":{"type":"LineString","coordinates":[[21.1498250284119,42.6622413763275],[21.1497921273483,42.6620396018907]]},"properties":{"name":"Toni Bleri","highway":"residential","addr:street":"Tony Bleri"}}]}