{"type":"FeatureCollection","features":[{"type":"Feature","geometry":{"type":"LineString","coordinates":[[21.1574177830189,42.6763778807196],[21.1570252721845,42.6761804662027],[21.1569213867188,42.6761184361602]]},"properties":{"name":"Ismet Krasniqi","highway":"residential","addr:street":"Ismet Krasniqi","id":"50854155"}},{"type":"Feature","geometry":{"type":"LineString","coordinates":[[21.1569213867188,42.6750411571776],[21.1571094443266,42.6748556790581],[21.1569327457102,42.6746932736257]]},"properties":{"name":"Fitush Kukaj","highway":"residential","addr:street":"Fitush Kukaj","id":"115120146"}},{"type":"Feature","geometry":{"type":"LineString","coordinates":[[21.1569213867188,42.6760228713607],[21.1575023674319,42.6754887854065],[21.1576234603322,42.6753247965551],[21.1577335039545,42.6750608812485],[21.1578782225468,42.6748225903892],[21.1580692043762,42.6746693651855],[21.1583412142442,42.6745204986128],[21.1584916820543,42.6744778991952],[21.1586222970966,42.6744277705408],[21.158716843083,42.6743585769338]]},"properties":{"name":"Gjon Sereqi","highway":"residential","addr:street":"Gjon Sereqi","id":"113576476"}},{"type":"Feature","geometry":{"type":"LineString","coordinates":[[21.1582955798278,42.6762793997692],[21.1580691145447,42.675952218335],[21.1578641189968,42.6757070622841],[21.1575023674319,42.6754887854065]]},"properties":{"highway":"residential","id":"115955514"}},{"type":"Feature","geometry":{"type":"LineString","coordinates":[[21.1580691145447,42.675952218335],[21.159494471406,42.6751081694589],[21.15966796875,42.674999229276]]},"properties":{"name":"Kamer Loshi","highway":"residential","addr:street":"Kamer Loshi","id":"50847347"}},{"type":"Feature","geometry":{"type":"LineString","coordinates":[[21.1581505090026,42.6763778807196],[21.1582955798278,42.6762793997692],[21.1589102071452,42.6759404624904],[21.1592970217065,42.6759145071627],[21.15966796875,42.6757177624721]]},"properties":{"highway":"residential","id":"115955501"}},{"type":"Feature","geometry":{"type":"LineString","coordinates":[[21.1570252721845,42.6761804662027],[21.1569213867188,42.6763117384715]]},"properties":{"highway":"residential","id":"115119692"}},{"type":"Feature","geometry":{"type":"LineString","coordinates":[[21.15966796875,42.6761748856075],[21.1592988673285,42.6763778807196]]},"properties":{"name":"Gjashtë lisat e Likoshanit","highway":"residential","addr:street":"Gjashtë lisat e Likoshanit","id":"113576338"}}]}