{"type":"FeatureCollection","features":[{"type":"Feature","geometry":{"type":"LineString","coordinates":[[21.1542654866648,42.6733489004355],[21.154974777717,42.6741972046282],[21.1550790721215,42.6741588979772],[21.1555121499199,42.6739708648151]]},"properties":{"highway":"residential"}},{"type":"Feature","geometry":{"type":"LineString","coordinates":[[21.1549794529567,42.6733489004355],[21.1554860987767,42.6738021166212],[21.1555121499199,42.6739708648151],[21.1555173601486,42.6740859831831],[21.1555480957031,42.6741876131475]]},"properties":{"name":"Hys Pupova","highway":"residential","addr:street":"Hys Pupova"}},{"type":"Feature","geometry":{"type":"LineString","coordinates":[[21.1555480957031,42.6737430361456],[21.1554860987767,42.6738021166212]]},"properties":{"highway":"residential"}},{"type":"Feature","geometry":{"type":"LineString","coordinates":[[21.1543797632737,42.6743585769338],[21.1541748046875,42.674279972114]]},"properties":{"name":"Ismet Krasniqi","highway":"residential","addr:street":"Ismet Krasniqi"}}]}