{"type":"FeatureCollection","features":[{"type":"Feature","geometry":{"type":"LineString","coordinates":[[21.1541748046875,42.663648946317],[21.1543276313863,42.66368398306],[21.1545178945635,42.6636974587072],[21.1547350173676,42.6636627787269]]},"properties":{"name":"Ahmet Krasniqi","highway":"secondary","maxspeed":"40","name:old":"Fan S. Noli","name:oldsq":"Fan S. Noli","name:oldsr":"Fane S. Nolija","addr:street":"Ahmet Krasniqi","descriptionold:url":"http://en.wikipedia.org/wiki/Fan_S._Noli"}},{"type":"Feature","geometry":{"type":"LineString","coordinates":[[21.1551594245906,42.6632512332626],[21.1552016921577,42.6634327673961]]},"properties":{"highway":"secondary","name:sq":"Tirana","name:old":"Omladinskih brigada"}},{"type":"Feature","geometry":{"type":"LineString","coordinates":[[21.1543276313863,42.66368398306],[21.1541748046875,42.6634145420531]]},"properties":{"name":"Ekrem Rexha","highway":"residential","addr:street":"Ekrem Rexha"}},{"type":"Feature","geometry":{"type":"LineString","coordinates":[[21.1554098799491,42.6642610737947],[21.1554391168873,42.6642236672353],[21.1554671443242,42.664013805292],[21.1555068498598,42.6637575706273],[21.1555084668273,42.663559663471],[21.1554193539511,42.6634796681099],[21.1552938593059,42.6633387676901],[21.15523654475,42.6632512332626]]},"properties":{"highway":"footway","surface":"asphalt"}},{"type":"Feature","geometry":{"type":"LineString","coordinates":[[21.1548774003402,42.6637853145709],[21.1548160454063,42.663754003548],[21.1547676262125,42.6637121894359],[21.1547350173676,42.6636627787269],[21.1547217223014,42.6636174635234],[21.1547219019645,42.6635710913714],[21.1547356461883,42.6635257761011],[21.1547625058153,42.6634837636635],[21.154800863878,42.6634469036713],[21.1548491932403,42.6634171117979],[21.1549050684509,42.6633955770867],[21.1549659742272,42.6633833564651],[21.1550291257917,42.6633811765701],[21.1550912892093,42.6633889713456],[21.1551496797028,42.663406476558],[21.1552016921577,42.6634327673961],[21.1552574775369,42.6634803947404],[21.1552921525069,42.6635377985229],[21.1553026627957,42.6636001565419],[21.1552881100881,42.6636621181556],[21.1552496621939,42.6637182666862],[21.1551908225428,42.6637637799872],[21.1551163522058,42.6637948928342],[21.1550328987159,42.6638086987422],[21.1549475587639,42.6638040747542],[21.1548774003402,42.6637853145709]]},"properties":{"foot":"yes","name":"Tirana","lanes":"3","width":"9","oneway":"yes","bicycle":"yes","highway":"secondary","surface":"asphalt","cycleway":"no","junction":"roundabout","sidewalk":"right"}},{"type":"Feature","geometry":{"type":"LineString","coordinates":[[21.1555084668273,42.663559663471],[21.1555480957031,42.6635554317301]]},"properties":{"foot":"yes","bicycle":"no","highway":"steps","surface":"concrete","motor_vehicle":"no"}},{"type":"Feature","geometry":{"type":"LineString","coordinates":[[21.1550285300748,42.6642610737947],[21.1549778319889,42.6640646029127],[21.1549358806652,42.6639075859459],[21.1549475587639,42.6638040747542]]},"properties":{"highway":"residential"}},{"type":"Feature","geometry":{"type":"LineString","coordinates":[[21.1555480957031,42.6640818647777],[21.1555259839753,42.6641543738989],[21.1555480957031,42.6641966063814]]},"properties":{"highway":"service"}},{"type":"Feature","geometry":{"type":"LineString","coordinates":[[21.1552900076762,42.6642610737947],[21.155268886141,42.6639048115575],[21.1551908225428,42.6637637799872]]},"properties":{"highway":"tertiary"}},{"type":"Feature","geometry":{"type":"LineString","coordinates":[[21.1541748046875,42.6642448409065],[21.1541940640191,42.6642610737947]]},"properties":{"name":"Bajram Curri","highway":"residential","addr:street":"Bajram Curri"}},{"type":"Feature","geometry":{"type":"LineString","coordinates":[[21.1543276313863,42.66368398306],[21.1547501090644,42.6641936775644],[21.1548160486991,42.6642610737947]]},"properties":{"highway":"tertiary","addr:street":"Zabgrebi"}}]}