{"type":"FeatureCollection","features":[{"type":"Feature","geometry":{"type":"LineString","coordinates":[[21.1628238873945,42.6753682370286],[21.162777903601,42.674702784163],[21.1627637520924,42.6743585769338]]},"properties":{"name":"Carraleva","highway":"residential","addr:street":"Carraleva","id":"115120088"}},{"type":"Feature","geometry":{"type":"LineString","coordinates":[[21.1624145507812,42.6746827740435],[21.162777903601,42.674702784163]]},"properties":{"name":"Dedë Gjo Luli","highway":"residential","addr:street":"Dedë Gjo Luli","id":"115955502"}},{"type":"Feature","geometry":{"type":"LineString","coordinates":[[21.1633036139393,42.6743585769338],[21.1636633729765,42.6746852821315],[21.1637319144327,42.674822788525],[21.1637878417969,42.6748864293101]]},"properties":{"name":"Bedri Gjini","highway":"residential","addr:street":"Bedri Gjini","id":"217583147"}},{"type":"Feature","geometry":{"type":"LineString","coordinates":[[21.1634364585357,42.6753007562683],[21.1632761092575,42.6751626565283]]},"properties":{"highway":"residential","id":"115120257"}},{"type":"Feature","geometry":{"type":"LineString","coordinates":[[21.1637878417969,42.675165267913],[21.1634364585357,42.6753007562683],[21.1632368698947,42.6753682370286]]},"properties":{"highway":"residential","id":"115120221"}}]}