{"type":"FeatureCollection","features":[{"type":"Feature","geometry":{"type":"LineString","coordinates":[[21.1624145507812,42.6761030977628],[21.1628278499308,42.6754255807333],[21.1628238873945,42.6753682370286]]},"properties":{"name":"Carraleva","highway":"residential","addr:street":"Carraleva","id":"115120088"}},{"type":"Feature","geometry":{"type":"LineString","coordinates":[[21.1632368698947,42.6753682370286],[21.1628689927708,42.6754926159907]]},"properties":{"highway":"residential","id":"115120221"}},{"type":"Feature","geometry":{"type":"LineString","coordinates":[[21.1636774765265,42.6760927599453],[21.1636120791738,42.6761309993604],[21.1633142876571,42.6759552563619],[21.1630964462007,42.6757780598929],[21.1628689927708,42.6754926159907],[21.1628278499308,42.6754255807333],[21.1624145507812,42.6754291308039]]},"properties":{"name":"Naum Vecilharxi","highway":"residential","addr:street":"Naum Vecilharxi","id":"217583148"}},{"type":"Feature","geometry":{"type":"LineString","coordinates":[[21.1633142876571,42.6759552563619],[21.1630438947566,42.6761463875812]]},"properties":{"highway":"residential","id":"115119944"}},{"type":"Feature","geometry":{"type":"LineString","coordinates":[[21.1637878417969,42.6760185061411],[21.1636774765265,42.6760927599453],[21.1636362438549,42.6762241211536],[21.1634614646945,42.6763778807196]]},"properties":{"highway":"residential","id":"115119367"}},{"type":"Feature","geometry":{"type":"LineString","coordinates":[[21.1624460595649,42.6763778807196],[21.1624145507812,42.6763626675958]]},"properties":{"name":"Sali Matoshi","highway":"residential","addr:street":"Sali Matoshi","id":"217583149"}}]}