{"type":"FeatureCollection","features":[{"type":"Feature","geometry":{"type":"LineString","coordinates":[[21.1627529304361,42.6740953617212],[21.1624145507812,42.673704641457]]},"properties":{"highway":"residential","id":"217583162"}},{"type":"Feature","geometry":{"type":"LineString","coordinates":[[21.1637878417969,42.6734262314485],[21.1635087729161,42.6733526035409],[21.1635020827633,42.6733489004355]]},"properties":{"name":"Verrat e Llukës","highway":"residential","addr:street":"Verrat e Llukës","id":"217583165"}},{"type":"Feature","geometry":{"type":"LineString","coordinates":[[21.1627637520924,42.6743585769338],[21.1627529304361,42.6740953617212],[21.1627743103398,42.6739611560274],[21.1627066671989,42.673807400329],[21.162535120054,42.6733489004355]]},"properties":{"name":"Carraleva","highway":"residential","addr:street":"Carraleva","id":"115120088"}},{"type":"Feature","geometry":{"type":"LineString","coordinates":[[21.1630846782705,42.6741597565748],[21.1632655091372,42.6740406095317]]},"properties":{"highway":"residential","id":"115119805"}},{"type":"Feature","geometry":{"type":"LineString","coordinates":[[21.1627743103398,42.6739611560274],[21.1630846782705,42.6741597565748],[21.1633036139393,42.6743585769338]]},"properties":{"name":"Bedri Gjini","highway":"residential","addr:street":"Bedri Gjini","id":"217583147"}},{"type":"Feature","geometry":{"type":"LineString","coordinates":[[21.1637824973979,42.6733489004355],[21.1637878417969,42.6733632188519]]},"properties":{"ref":"M25","name":"Vëllezërit Fazliu","highway":"primary","int_ref":"E 80","addr:street":"Vëllezërit Fazliu","id":"144928667"}}]}