{"type":"FeatureCollection","features":[{"type":"Feature","geometry":{"type":"LineString","coordinates":[[21.1624413946955,42.6652861113513],[21.1624178927497,42.6652708979236]]},"properties":{"highway":"service","id":"125541111"}},{"type":"Feature","geometry":{"type":"LineString","coordinates":[[21.1631024701969,42.6652708979236],[21.1631666944559,42.6654050109557]]},"properties":{"highway":"service","id":"50304014"}},{"type":"Feature","geometry":{"type":"LineString","coordinates":[[21.1624145507812,42.6657120008116],[21.1637296686445,42.6658088715809],[21.1637831184039,42.6658255173992],[21.1637878417969,42.6658269830481]]},"properties":{"name":"UCK","highway":"tertiary","name:ru":"Армия освобождения Косова","addr:street":"UCK","id":"39518673"}},{"type":"Feature","geometry":{"type":"LineString","coordinates":[[21.1637450298358,42.6661872986276],[21.163276019426,42.6662806995376],[21.1625250278485,42.6662490594996],[21.1624145507812,42.6662416841861]]},"properties":{"highway":"residential","id":"46116784"}},{"type":"Feature","geometry":{"type":"LineString","coordinates":[[21.1637831184039,42.6658255173992],[21.1637774590176,42.665952012262],[21.1637450298358,42.6661872986276],[21.1637046083794,42.6662807056493]]},"properties":{"name":"Rr. Meto Bajraktari","highway":"residential","id":"216245201"}}]}