{"type":"FeatureCollection","features":[{"type":"Feature","geometry":{"type":"LineString","coordinates":[[21.1637502785796,42.6541619303399],[21.1637769200284,42.6542587699645],[21.1637878417969,42.6542661350999]]},"properties":{"highway":"service","id":"41865765"}},{"type":"Feature","geometry":{"type":"LineString","coordinates":[[21.1624145507812,42.6551095870249],[21.1631084836255,42.6550232939195],[21.1637408975855,42.6549290833003],[21.1637878417969,42.6549220080335]]},"properties":{"ref":"M-9;M-25","name":"Bil Klinton;Eqrem Qabej","image":"http://www.flickr.com/photos/mopsy_slaughter/303085686/","lanes":"2","oneway":"yes","highway":"primary","name:en":"Bill Clinton Boulevard;Eqrem Qabej","surface":"asphalt","wikipedia":"en:Bill Clinton Boulevard","id":"106664692"}},{"type":"Feature","geometry":{"type":"LineString","coordinates":[[21.1637552706301,42.6550067112753],[21.1625836629971,42.6551719184982]]},"properties":{"ref":"M-9;M-25","name":"Bulevardi Nëna Tereze","oneway":"yes","highway":"primary","name:en":"Mother Theresa","id":"144928683"}},{"type":"Feature","geometry":{"type":"LineString","coordinates":[[21.1637408975855,42.6549290833003],[21.1637878417969,42.6549070511434]]},"properties":{"oneway":"yes","highway":"primary_link","id":"106664685"}},{"type":"Feature","geometry":{"type":"LineString","coordinates":[[21.1637878417969,42.655003132332],[21.1637552706301,42.6550067112753]]},"properties":{"name":"Bulevardi Nëna Tereze","oneway":"yes","highway":"secondary","name:en":"Mother Theresa","id":"144928695"}},{"type":"Feature","geometry":{"type":"LineString","coordinates":[[21.1637878417969,42.6550067112753],[21.1637552706301,42.6550067112753]]},"properties":{"ref":"M-9;M-25","name":"Agim Ramadani","lanes":"2","oneway":"yes","bicycle":"no","highway":"primary","int_ref":"E-80","maxspeed":"40","wikipedia":"sq:Agim Ramadani","id":"135210330"}}]}