{"type":"FeatureCollection","features":[{"type":"Feature","geometry":{"type":"LineString","coordinates":[[21.12768422888,42.6787750756659],[21.1273741304439,42.6779950597591],[21.1268375667247,42.6771983912926],[21.126708984375,42.6770676779945]]},"properties":{"highway":"residential","id":"235161342"}},{"type":"Feature","geometry":{"type":"LineString","coordinates":[[21.1267798948835,42.6790190969195],[21.126708984375,42.6788292497076]]},"properties":{"highway":"secondary","surface":"paved","id":"314574854"}},{"type":"Feature","geometry":{"type":"LineString","coordinates":[[21.126708984375,42.679037777254],[21.1267798948835,42.6790190969195],[21.12768422888,42.6787750756659]]},"properties":{"highway":"primary","surface":"asphalt","maxspeed":"40","id":"252409051"}},{"type":"Feature","geometry":{"type":"LineString","coordinates":[[21.1268796532592,42.6824353983862],[21.126708984375,42.6819167228134]]},"properties":{"highway":"secondary","id":"314574900"}},{"type":"Feature","geometry":{"type":"MultiLineString","coordinates":[[[21.126708984375,42.6747100062952],[21.126964947832,42.6745928184875],[21.1276058957872,42.674367867076],[21.1276611020861,42.6743585769338]],[[21.1279492644243,42.6743585769338],[21.1291314148027,42.6753568942862],[21.1297712847796,42.6757918631395],[21.130673732314,42.6760930901649],[21.1310065581268,42.6762440003269],[21.1312501812319,42.6763202808164],[21.1314230170925,42.6763396976533],[21.1318828646865,42.6760837779722],[21.1322268296088,42.675859360311],[21.1327119198622,42.6755620948215],[21.134053374076,42.6746905657642],[21.134354291284,42.6743585769338]]]},"properties":{"highway":"unclassified","id":"113576440"}},{"type":"Feature","geometry":{"type":"LineString","coordinates":[[21.1267798948835,42.6790190969195],[21.1271071511415,42.6800597592099],[21.1277388464493,42.6820680600368]]},"properties":{"oneway":"no","highway":"secondary","surface":"unpaved","maxspeed":"40","id":"314574853"}},{"type":"Feature","geometry":{"type":"LineString","coordinates":[[21.1327119198622,42.6755620948215],[21.1363412932731,42.6780469026238],[21.1364100143923,42.678502787761],[21.1369796428167,42.6824353983862]]},"properties":{"highway":"unclassified","id":"191456387"}},{"type":"Feature","geometry":{"type":"LineString","coordinates":[[21.1289695403774,42.6824353983862],[21.1289327074619,42.6823215116918],[21.1285971867033,42.6812840571263],[21.12768422888,42.6787750756659]]},"properties":{"highway":"service","id":"235161343"}},{"type":"Feature","geometry":{"type":"LineString","coordinates":[[21.1363412932731,42.6780469026238],[21.1366127641519,42.6779080825247],[21.1376953125,42.6786111578917]]},"properties":{"highway":"unclassified","id":"191456388"}}]}