{"type":"FeatureCollection","features":[{"type":"Feature","geometry":{"type":"LineString","coordinates":[[21.1555962322305,42.6542226973092],[21.1557247811477,42.6544117812145],[21.1558447960696,42.6545883118608]]},"properties":{"highway":"footway"}},{"type":"Feature","geometry":{"type":"LineString","coordinates":[[21.1560500611121,42.6545371100969],[21.1559017492587,42.6544997823328],[21.1558812676702,42.6544754036571],[21.1558935745896,42.6543998891619],[21.155989846441,42.6541619303399]]},"properties":{"foot":"yes","name":"Xhemajl Mustafa","oneway":"no","bicycle":"yes","highway":"service","surface":"asphalt","cycleway":"no","sidewalk":"both"}},{"type":"Feature","geometry":{"type":"LineString","coordinates":[[21.1569115454695,42.6542889626287],[21.1564844863835,42.65418081072]]},"properties":{"highway":"service"}},{"type":"Feature","geometry":{"type":"LineString","coordinates":[[21.1569213867188,42.6543976505256],[21.1568872011253,42.6544643044195],[21.1564155856012,42.6543311794803]]},"properties":{"highway":"service"}},{"type":"Feature","geometry":{"type":"LineString","coordinates":[[21.1569213867188,42.6543727826677],[21.1569115454695,42.6542889626287],[21.156896676132,42.6541619303399]]},"properties":{"highway":"service"}},{"type":"Feature","geometry":{"type":"LineString","coordinates":[[21.1558121247557,42.6551719184982],[21.1555480957031,42.6550932856997]]},"properties":{"ref":"M-9;M-25","name":"Bil Klinton","image":"http://www.flickr.com/photos/mopsy_slaughter/303085686/","lanes":"2","oneway":"yes","highway":"primary","name:en":"Bill Clinton Boulevard","name:pl":"Bulwar Billa Clintona","surface":"asphalt","cycleway":"no","maxspeed":"40","sidewalk":"both","wikipedia":"en:Bill Clinton Boulevard"}},{"type":"Feature","geometry":{"type":"LineString","coordinates":[[21.1555480957031,42.6545785670073],[21.1558072464908,42.6547143671204]]},"properties":{"highway":"footway"}},{"type":"Feature","geometry":{"type":"LineString","coordinates":[[21.1555480957031,42.6546723906298],[21.1557829021466,42.654759490613]]},"properties":{"foot":"yes","access":"yes","bicycle":"yes","highway":"footway","surface":"dirt"}},{"type":"Feature","geometry":{"type":"LineString","coordinates":[[21.1555480957031,42.6545192524326],[21.1557247811477,42.6544117812145]]},"properties":{"highway":"footway"}},{"type":"Feature","geometry":{"type":"LineString","coordinates":[[21.1556669296434,42.6549736781063],[21.1557660138192,42.6547906740323],[21.1557829021466,42.654759490613],[21.1558072464908,42.6547143671204],[21.1558447960696,42.6545883118608],[21.1558812676702,42.6544754036571]]},"properties":{"highway":"footway"}},{"type":"Feature","geometry":{"type":"LineString","coordinates":[[21.1560500611121,42.6545371100969],[21.1562574821112,42.6545941918026]]},"properties":{"foot":"yes","name":"Xhemajl Mustafa","access":"permissive","oneway":"no","tunnel":"yes","bicycle":"yes","highway":"service","surface":"asphalt","cycleway":"no","sidewalk":"both","motor_vehicle":"no"}},{"type":"Feature","geometry":{"type":"LineString","coordinates":[[21.1555480957031,42.654992044713],[21.1561859434618,42.6551719184982]]},"properties":{"ref":"M-9;M-25","name":"Bil Klinton","image":"http://www.flickr.com/photos/mopsy_slaughter/303085686/","lanes":"2","oneway":"yes","highway":"primary","name:en":"Bill Clinton Boulevard","name:pl":"Bulwar Billa Clintona","surface":"asphalt","cycleway":"no","maxspeed":"40","sidewalk":"both","wikipedia":"en:Bill Clinton Boulevard"}},{"type":"Feature","geometry":{"type":"LineString","coordinates":[[21.1569213867188,42.6545037893143],[21.1568591736885,42.6546226005023],[21.1563446186937,42.6544832656159]]},"properties":{"highway":"service"}},{"type":"Feature","geometry":{"type":"LineString","coordinates":[[21.1562574821112,42.6545941918026],[21.1569213867188,42.6547752250915]]},"properties":{"foot":"yes","name":"Xhemajl Mustafa","access":"permissive","oneway":"no","bicycle":"yes","highway":"service","surface":"asphalt","cycleway":"no","sidewalk":"both","motor_vehicle":"no"}},{"type":"Feature","geometry":{"type":"LineString","coordinates":[[21.1568591736885,42.6546226005023],[21.1569213867188,42.6546413104222]]},"properties":{"highway":"service"}},{"type":"Feature","geometry":{"type":"LineString","coordinates":[[21.1557660138192,42.6547906740323],[21.1566524713416,42.6550548736042],[21.1569213867188,42.6551236796814]]},"properties":{"highway":"footway"}},{"type":"Feature","geometry":{"type":"LineString","coordinates":[[21.1568872011253,42.6544643044195],[21.1569213867188,42.6544734042884]]},"properties":{"highway":"service"}}]}