{"type":"FeatureCollection","features":[{"type":"Feature","geometry":{"type":"LineString","coordinates":[[21.1500549316406,42.6498105431795],[21.1503126112239,42.6501081631719]]},"properties":{"name":"Shefqet Shkupi","highway":"tertiary","addr:street":"Shefqet Shkupi"}},{"type":"Feature","geometry":{"type":"LineString","coordinates":[[21.1500967131435,42.649111743509],[21.1500549316406,42.6491293195569]]},"properties":{"highway":"residential"}},{"type":"Feature","geometry":{"type":"LineString","coordinates":[[21.1514282226562,42.6496198154169],[21.1504808209205,42.6501218136802]]},"properties":{"ref":"M-2;M-25","oneway":"yes","highway":"trunk_link","int_ref":"E 65","wikisource":"http://wikisource.org/wiki/D%C3%ABshmor%C3%ABve"}},{"type":"Feature","geometry":{"type":"LineString","coordinates":[[21.1502858089066,42.6501218136802],[21.1503126112239,42.6501081631719],[21.1507185599008,42.6499137804441],[21.1514282226562,42.6495283103983]]},"properties":{"ref":"M-2;M-25","lanes":"2","oneway":"yes","highway":"trunk","int_ref":"E 65"}},{"type":"Feature","geometry":{"type":"LineString","coordinates":[[21.1503126112239,42.6501081631719],[21.1503256063817,42.6501218136802]]},"properties":{"highway":"tertiary"}},{"type":"Feature","geometry":{"type":"LineString","coordinates":[[21.1514282226562,42.6500733097837],[21.1513295939571,42.6500872845667]]},"properties":{"highway":"service"}},{"type":"Feature","geometry":{"type":"LineString","coordinates":[[21.1514282226562,42.6498641305803],[21.1512803662795,42.6499408698478],[21.1509317160513,42.6501218136802]]},"properties":{"foot":"yes","name":"Ilaz Kodra","oneway":"yes","highway":"tertiary","surface":"asphalt","sidewalk":"both"}}]}