{"type":"FeatureCollection","features":[{"type":"Feature","geometry":{"type":"LineString","coordinates":[[21.1761474609375,42.6549545771631],[21.1763185692046,42.6551420149522],[21.1764942796742,42.6558505706602]]},"properties":{"name":"Vëllezërit Gërvalla","highway":"service"}},{"type":"Feature","geometry":{"type":"LineString","coordinates":[[21.1761474609375,42.6545951530416],[21.1762039441744,42.6546668651946]]},"properties":{"highway":"residential"}},{"type":"Feature","geometry":{"type":"LineString","coordinates":[[21.1761474609375,42.6546623952053],[21.1762039441744,42.6546668651946],[21.1764046278088,42.654676576996],[21.1766182471834,42.654676576996],[21.1766373812989,42.6545992789428],[21.1762468836449,42.6542690764336],[21.1761474609375,42.6541847417522]]},"properties":{"highway":"residential"}},{"type":"Feature","geometry":{"type":"LineString","coordinates":[[21.1780750450796,42.6553546155453],[21.1779836864152,42.6552732883067],[21.1776658624677,42.6549107168376],[21.1772081708305,42.6544435594105],[21.1769538189022,42.6541619303399]]},"properties":{"oneway":"yes","highway":"secondary"}},{"type":"Feature","geometry":{"type":"LineString","coordinates":[[21.177145728524,42.6541619303399],[21.1776658624677,42.6547114601886],[21.1780190800374,42.6551210059045],[21.1781328965839,42.6552403874114],[21.1781732309402,42.6553049999964]]},"properties":{"oneway":"yes","highway":"secondary"}},{"type":"Feature","geometry":{"type":"LineString","coordinates":[[21.1786993071286,42.6541619303399],[21.1785286044666,42.6544337815057],[21.1784962651164,42.6549368791354],[21.1783157037443,42.6553058588545],[21.1782874966443,42.655340873826]]},"properties":{"highway":"residential"}},{"type":"Feature","geometry":{"type":"LineString","coordinates":[[21.1783157037443,42.6553058588545],[21.1785358808204,42.6552623874096],[21.1787152743826,42.6551693002772],[21.1788940429688,42.654963518562]]},"properties":{"highway":"residential"}},{"type":"Feature","geometry":{"type":"LineString","coordinates":[[21.1788940429688,42.6552015062723],[21.1787152743826,42.6551693002772]]},"properties":{"highway":"road"}},{"type":"Feature","geometry":{"type":"LineString","coordinates":[[21.1780992995923,42.6554637564002],[21.1779385011565,42.6554922968343],[21.1772475170399,42.6557109742628],[21.17690310296,42.6557872138864],[21.1764942796742,42.6558505706602],[21.1763059927906,42.6558594894918],[21.1761474609375,42.6558686407799]]},"properties":{"foot":"yes","name":"Gazmend Zajmi","lanes":"2","oneway":"no","bicycle":"yes","highway":"residential","surface":"asphalt","cycleway":"no","name:old":"Dubrovniku","sidewalk":"both"}},{"type":"Feature","geometry":{"type":"LineString","coordinates":[[21.1766182471834,42.654676576996],[21.1766468136094,42.6546874119291],[21.176743472334,42.6547242110476],[21.176915679374,42.6547328657743],[21.1770241060287,42.6547382832362],[21.1770765676413,42.6547172079855],[21.1770694709506,42.6546539821904],[21.1765762958596,42.6541937598894]]},"properties":{"highway":"residential"}},{"type":"Feature","geometry":{"type":"LineString","coordinates":[[21.1764046278088,42.654676576996],[21.1764109160158,42.6547131118544],[21.1766813987479,42.6549977923214]]},"properties":{"highway":"residential"}},{"type":"Feature","geometry":{"type":"LineString","coordinates":[[21.1761474609375,42.654755975587],[21.1765686601797,42.6551697627402],[21.1771062120457,42.6548969089538],[21.1771249868352,42.6548873953862],[21.1768910655352,42.6547063730575],[21.1761474609375,42.6546693018719]]},"properties":{"foot":"yes","name":"Kodra e diellit zona lindore","horse":"no","oneway":"no","bicycle":"no","highway":"service","service":"parking_aisle","surface":"asphalt","name:simple":"Sunny Hill East zone"}},{"type":"Feature","geometry":{"type":"LineString","coordinates":[[21.176743472334,42.6547242110476],[21.1767607199874,42.6547542052861],[21.1769799089168,42.6550131857743]]},"properties":{"highway":"residential"}},{"type":"Feature","geometry":{"type":"LineString","coordinates":[[21.1782106906875,42.6554883989517],[21.1781704461628,42.6554891917414],[21.1781320881002,42.6554806692516],[21.1780992995923,42.6554637564002],[21.1780753145742,42.6554401048268],[21.1780625584972,42.6554120928959],[21.1780625584972,42.6553825614362],[21.1780750450796,42.6553546155453],[21.1780990300977,42.6553308978644],[21.1781317287741,42.6553137867743],[21.1781732309402,42.6553049999964]]},"properties":{"lanes":"2","oneway":"yes","highway":"tertiary","surface":"asphalt","maxspeed":"20"}},{"type":"Feature","geometry":{"type":"LineString","coordinates":[[21.1781732309402,42.6553049999964],[21.1782161704108,42.6553069159105],[21.1782558759463,42.6553192702516],[21.1782874966443,42.655340873826],[21.1783075290752,42.6553690179209],[21.1783133681245,42.6554003992323],[21.1783044748032,42.6554315162644],[21.1782820169211,42.6554584711332],[21.1782484199295,42.655478356948],[21.1782106906875,42.6554883989517]]},"properties":{"lanes":"2","oneway":"yes","highway":"tertiary","surface":"asphalt","maxspeed":"20"}},{"type":"Feature","geometry":{"type":"LineString","coordinates":[[21.1783535228177,42.6555557199743],[21.1782106906875,42.6554883989517]]},"properties":{"foot":"yes","name":"Gazmend Zajmi","lanes":"2","oneway":"yes","bicycle":"yes","highway":"tertiary","surface":"asphalt","cycleway":"no","name:old":"Dubrovniku","sidewalk":"both"}},{"type":"Feature","geometry":{"type":"LineString","coordinates":[[21.1783044748032,42.6554315162644],[21.1783535228177,42.6555557199743]]},"properties":{"oneway":"yes","highway":"tertiary"}},{"type":"Feature","geometry":{"type":"LineString","coordinates":[[21.1781326270894,42.6558291654592],[21.1779621268484,42.6560522020071]]},"properties":{"highway":"service"}},{"type":"Feature","geometry":{"type":"LineString","coordinates":[[21.178004886656,42.6561293661241],[21.1779673239717,42.6561818902538]]},"properties":{"highway":"steps"}},{"type":"Feature","geometry":{"type":"LineString","coordinates":[[21.1788625156415,42.6561818902538],[21.178501475345,42.6560329109628],[21.1781326270894,42.6558291654592],[21.1783872096409,42.6555777859266]]},"properties":{"highway":"service"}},{"type":"Feature","geometry":{"type":"LineString","coordinates":[[21.1787468950806,42.6560621117877],[21.1788158856945,42.655966713567]]},"properties":{"highway":"footway"}},{"type":"Feature","geometry":{"type":"LineString","coordinates":[[21.1784583329617,42.6561818902538],[21.1784598833474,42.6561797737961]]},"properties":{"highway":"footway"}},{"type":"Feature","geometry":{"type":"LineString","coordinates":[[21.1788940429688,42.6558657593896],[21.1788436436367,42.6558263907103],[21.1786525719758,42.6557339650777],[21.1783872096409,42.6555777859266],[21.1783535228177,42.6555557199743]]},"properties":{"foot":"yes","name":"Gazmend Zajmi","lanes":"2","bicycle":"yes","highway":"tertiary","surface":"asphalt","cycleway":"no","maxspeed":"40","name:old":"Dubrovniku","sidewalk":"both"}},{"type":"Feature","geometry":{"type":"LineString","coordinates":[[21.1770005211362,42.6561818902538],[21.17690310296,42.6557872138864]]},"properties":{"name":"Sali Nivica","highway":"residential"}}]}